<?xml version="1.0" encoding="UTF-8" standalone="yes"?>
<gpx version="1.1" creator="OS Maps - Web" xmlns="http://www.topografix.com/GPX/1/1"
xmlns:xsi="http://www.w3.org/2001/XMLSchema-instance"
xsi:schemaLocation="http://www.topografix.com/GPX/1/1 http://www.topografix.com/GPX/1/1/gpx.xsd"
xmlns:gs="http://www.topografix.com/GPX/gpx_style/0/2"
xmlns:gh="https://graphhopper.com/public/schema/gpx/1.1"
xmlns:os="https://ordnancesurvey.co.uk/public/schema/route/0.1">
    <metadata>
        <name>London to Paris Ferry</name>
        <desc></desc>
        <bounds minlat="49.9334600" minlon="0.0551000" maxlat="50.7835300" maxlon="1.0834700"/>
    </metadata>
    <wpt lat="50.7835300" lon="0.0551000"/>
    <wpt lat="49.9334600" lon="1.0834700"/>
    <trk>
        <name>London to Paris Ferry</name>
        <trkseg>
            <trkpt lat="50.7835300" lon="0.0551000"><ele>11.0</ele></trkpt>
            <trkpt lat="49.9334600" lon="1.0834700"><ele>0.0</ele></trkpt>
        </trkseg>
    </trk>
</gpx>
