<?xml version="1.0" encoding="UTF-8" standalone="yes"?>
<gpx version="1.1" creator="OS Maps - Web" xmlns="http://www.topografix.com/GPX/1/1"
xmlns:xsi="http://www.w3.org/2001/XMLSchema-instance"
xsi:schemaLocation="http://www.topografix.com/GPX/1/1 http://www.topografix.com/GPX/1/1/gpx.xsd"
xmlns:gs="http://www.topografix.com/GPX/gpx_style/0/2"
xmlns:gh="https://graphhopper.com/public/schema/gpx/1.1"
xmlns:os="https://ordnancesurvey.co.uk/public/schema/route/0.1">
    <metadata>
        <name>Spokeys2021</name>
        <desc></desc>
        <bounds minlat="50.6253570" minlon="-3.5411100" maxlat="50.9217530" maxlon="-1.4142680"/>
    </metadata>
    <wpt lat="50.9080690" lon="-1.4142680"/>
    <wpt lat="50.9078930" lon="-1.4155560"/>
    <wpt lat="50.9094220" lon="-1.4228520"/>
    <wpt lat="50.9106120" lon="-1.4300610"/>
    <wpt lat="50.9109740" lon="-1.4305650"/>
    <wpt lat="50.9109980" lon="-1.4319380"/>
    <wpt lat="50.9122830" lon="-1.4352100"/>
    <wpt lat="50.9127700" lon="-1.4372000"/>
    <wpt lat="50.9131150" lon="-1.4431500"/>
    <wpt lat="50.9127230" lon="-1.4437020"/>
    <wpt lat="50.9127700" lon="-1.4441900"/>
    <wpt lat="50.9132710" lon="-1.4450590"/>
    <wpt lat="50.9141000" lon="-1.4503810"/>
    <wpt lat="50.9149620" lon="-1.4529930"/>
    <wpt lat="50.9163350" lon="-1.4555950"/>
    <wpt lat="50.9168800" lon="-1.4575370"/>
    <wpt lat="50.9184660" lon="-1.4610770"/>
    <wpt lat="50.9183710" lon="-1.4613880"/>
    <wpt lat="50.9190780" lon="-1.4622040"/>
    <wpt lat="50.9204880" lon="-1.4651490"/>
    <wpt lat="50.9206710" lon="-1.4652350"/>
    <wpt lat="50.9217530" lon="-1.4698110"/>
    <wpt lat="50.9217500" lon="-1.4724280"/>
    <wpt lat="50.9204920" lon="-1.4770850"/>
    <wpt lat="50.9191390" lon="-1.4793970"/>
    <wpt lat="50.9180630" lon="-1.4800460"/>
    <wpt lat="50.9159260" lon="-1.4827760"/>
    <wpt lat="50.9148610" lon="-1.4848260"/>
    <wpt lat="50.9136160" lon="-1.4891440"/>
    <wpt lat="50.9132400" lon="-1.4907480"/>
    <wpt lat="50.9134670" lon="-1.4908440"/>
    <wpt lat="50.9129290" lon="-1.4929690"/>
    <wpt lat="50.9113460" lon="-1.4948570"/>
    <wpt lat="50.9114140" lon="-1.4950660"/>
    <wpt lat="50.9109540" lon="-1.4956890"/>
    <wpt lat="50.9120870" lon="-1.4974910"/>
    <wpt lat="50.9107510" lon="-1.4989560"/>
    <wpt lat="50.9098380" lon="-1.5005270"/>
    <wpt lat="50.9101710" lon="-1.5009640"/>
    <wpt lat="50.9102860" lon="-1.5016610"/>
    <wpt lat="50.9106650" lon="-1.5022410"/>
    <wpt lat="50.9106180" lon="-1.5029270"/>
    <wpt lat="50.9110780" lon="-1.5044720"/>
    <wpt lat="50.9106180" lon="-1.5048800"/>
    <wpt lat="50.9092510" lon="-1.5052770"/>
    <wpt lat="50.9053070" lon="-1.5108670"/>
    <wpt lat="50.9027760" lon="-1.5136990"/>
    <wpt lat="50.9019240" lon="-1.5131200"/>
    <wpt lat="50.9013150" lon="-1.5149220"/>
    <wpt lat="50.9007130" lon="-1.5155660"/>
    <wpt lat="50.8998330" lon="-1.5158560"/>
    <wpt lat="50.8979450" lon="-1.5186020"/>
    <wpt lat="50.8972080" lon="-1.5193210"/>
    <wpt lat="50.8964020" lon="-1.5193320"/>
    <wpt lat="50.8960100" lon="-1.5190210"/>
    <wpt lat="50.8950420" lon="-1.5219070"/>
    <wpt lat="50.8946360" lon="-1.5221640"/>
    <wpt lat="50.8932630" lon="-1.5208550"/>
    <wpt lat="50.8925860" lon="-1.5226040"/>
    <wpt lat="50.8924170" lon="-1.5226040"/>
    <wpt lat="50.8911850" lon="-1.5266270"/>
    <wpt lat="50.8904130" lon="-1.5278720"/>
    <wpt lat="50.8819800" lon="-1.5493400"/>
    <wpt lat="50.8791370" lon="-1.5561530"/>
    <wpt lat="50.8729560" lon="-1.5692640"/>
    <wpt lat="50.8723870" lon="-1.5711410"/>
    <wpt lat="50.8724960" lon="-1.5736260"/>
    <wpt lat="50.8688940" lon="-1.5739270"/>
    <wpt lat="50.8664560" lon="-1.5744420"/>
    <wpt lat="50.8654810" lon="-1.5734120"/>
    <wpt lat="50.8600370" lon="-1.5730680"/>
    <wpt lat="50.8515840" lon="-1.5736690"/>
    <wpt lat="50.8415580" lon="-1.5732400"/>
    <wpt lat="50.8295790" lon="-1.5720380"/>
    <wpt lat="50.8177860" lon="-1.5719100"/>
    <wpt lat="50.8191740" lon="-1.5756420"/>
    <wpt lat="50.8166730" lon="-1.5779280"/>
    <wpt lat="50.8112880" lon="-1.5801370"/>
    <wpt lat="50.8086310" lon="-1.5808660"/>
    <wpt lat="50.8054580" lon="-1.5826690"/>
    <wpt lat="50.8032070" lon="-1.5824540"/>
    <wpt lat="50.8012810" lon="-1.5919810"/>
    <wpt lat="50.8015250" lon="-1.5943420"/>
    <wpt lat="50.8024200" lon="-1.5955860"/>
    <wpt lat="50.8020140" lon="-1.6127950"/>
    <wpt lat="50.7998160" lon="-1.6339520"/>
    <wpt lat="50.7991110" lon="-1.6442520"/>
    <wpt lat="50.7995180" lon="-1.6480290"/>
    <wpt lat="50.8038850" lon="-1.6695290"/>
    <wpt lat="50.8115870" lon="-1.6862660"/>
    <wpt lat="50.8100680" lon="-1.6870390"/>
    <wpt lat="50.8032880" lon="-1.6834770"/>
    <wpt lat="50.8014170" lon="-1.6815030"/>
    <wpt lat="50.7988400" lon="-1.6839490"/>
    <wpt lat="50.7962090" lon="-1.6860520"/>
    <wpt lat="50.7941740" lon="-1.6882830"/>
    <wpt lat="50.7903220" lon="-1.6971240"/>
    <wpt lat="50.7930890" lon="-1.7040760"/>
    <wpt lat="50.7928450" lon="-1.7054920"/>
    <wpt lat="50.7824000" lon="-1.7039900"/>
    <wpt lat="50.7802020" lon="-1.7100840"/>
    <wpt lat="50.7758060" lon="-1.7165220"/>
    <wpt lat="50.7713820" lon="-1.7215000"/>
    <wpt lat="50.7684780" lon="-1.7289670"/>
    <wpt lat="50.7675280" lon="-1.7356620"/>
    <wpt lat="50.7655190" lon="-1.7385370"/>
    <wpt lat="50.7635380" lon="-1.7480210"/>
    <wpt lat="50.7609050" lon="-1.7533430"/>
    <wpt lat="50.7529230" lon="-1.7558320"/>
    <wpt lat="50.7509950" lon="-1.7570770"/>
    <wpt lat="50.7439890" lon="-1.7576770"/>
    <wpt lat="50.7463250" lon="-1.7447170"/>
    <wpt lat="50.7454290" lon="-1.7440300"/>
    <wpt lat="50.7436090" lon="-1.7417990"/>
    <wpt lat="50.7422780" lon="-1.7419700"/>
    <wpt lat="50.7396710" lon="-1.7405540"/>
    <wpt lat="50.7349730" lon="-1.7435150"/>
    <wpt lat="50.7347550" lon="-1.7467770"/>
    <wpt lat="50.7337500" lon="-1.7499100"/>
    <wpt lat="50.7344020" lon="-1.7547590"/>
    <wpt lat="50.7334240" lon="-1.7590510"/>
    <wpt lat="50.7320660" lon="-1.7577630"/>
    <wpt lat="50.7308170" lon="-1.7599950"/>
    <wpt lat="50.7333430" lon="-1.7661320"/>
    <wpt lat="50.7348100" lon="-1.7717540"/>
    <wpt lat="50.7320390" lon="-1.7787060"/>
    <wpt lat="50.7309250" lon="-1.7849720"/>
    <wpt lat="50.7289150" lon="-1.7899930"/>
    <wpt lat="50.7270410" lon="-1.7799500"/>
    <wpt lat="50.7192980" lon="-1.7811520"/>
    <wpt lat="50.7218520" lon="-1.8142830"/>
    <wpt lat="50.7208190" lon="-1.8417060"/>
    <wpt lat="50.7189450" lon="-1.8568550"/>
    <wpt lat="50.7167440" lon="-1.8729480"/>
    <wpt lat="50.7128580" lon="-1.8907580"/>
    <wpt lat="50.7058190" lon="-1.9111860"/>
    <wpt lat="50.6917940" lon="-1.9357030"/>
    <wpt lat="50.6848880" lon="-1.9440290"/>
    <wpt lat="50.6843980" lon="-1.9488350"/>
    <wpt lat="50.6791230" lon="-1.9502940"/>
    <wpt lat="50.6696040" lon="-1.9618820"/>
    <wpt lat="50.6673190" lon="-1.9641990"/>
    <wpt lat="50.6587780" lon="-1.9658300"/>
    <wpt lat="50.6606820" lon="-1.9747560"/>
    <wpt lat="50.6608450" lon="-1.9815370"/>
    <wpt lat="50.6635110" lon="-1.9884030"/>
    <wpt lat="50.6599200" lon="-2.0000760"/>
    <wpt lat="50.6539890" lon="-2.0150970"/>
    <wpt lat="50.6515400" lon="-2.0352670"/>
    <wpt lat="50.6549690" lon="-2.0318340"/>
    <wpt lat="50.6609000" lon="-2.0459100"/>
    <wpt lat="50.6639460" lon="-2.0518320"/>
    <wpt lat="50.6698760" lon="-2.0538920"/>
    <wpt lat="50.6746630" lon="-2.0616170"/>
    <wpt lat="50.6791230" lon="-2.0642780"/>
    <wpt lat="50.6774370" lon="-2.1089100"/>
    <wpt lat="50.6703660" lon="-2.1142310"/>
    <wpt lat="50.6693320" lon="-2.1315690"/>
    <wpt lat="50.6713450" lon="-2.1550870"/>
    <wpt lat="50.6703110" lon="-2.1718240"/>
    <wpt lat="50.6758050" lon="-2.1820370"/>
    <wpt lat="50.6747720" lon="-2.1932810"/>
    <wpt lat="50.6767300" lon="-2.1994610"/>
    <wpt lat="50.6815700" lon="-2.2110480"/>
    <wpt lat="50.6812440" lon="-2.2306180"/>
    <wpt lat="50.6847250" lon="-2.2490710"/>
    <wpt lat="50.6903800" lon="-2.2682970"/>
    <wpt lat="50.7027760" lon="-2.2791120"/>
    <wpt lat="50.7109830" lon="-2.3212550"/>
    <wpt lat="50.7137550" lon="-2.3367900"/>
    <wpt lat="50.7083200" lon="-2.3585910"/>
    <wpt lat="50.7051130" lon="-2.3889750"/>
    <wpt lat="50.7093530" lon="-2.3927520"/>
    <wpt lat="50.7091900" lon="-2.3981590"/>
    <wpt lat="50.7060370" lon="-2.4020220"/>
    <wpt lat="50.7057110" lon="-2.4131790"/>
    <wpt lat="50.7086460" lon="-2.4223630"/>
    <wpt lat="50.7073420" lon="-2.4318900"/>
    <wpt lat="50.7039170" lon="-2.4399590"/>
    <wpt lat="50.7038090" lon="-2.4455380"/>
    <wpt lat="50.7059830" lon="-2.4448510"/>
    <wpt lat="50.7045150" lon="-2.4544640"/>
    <wpt lat="50.7011450" lon="-2.4684540"/>
    <wpt lat="50.7010900" lon="-2.4912850"/>
    <wpt lat="50.6984810" lon="-2.4946330"/>
    <wpt lat="50.6995140" lon="-2.5043320"/>
    <wpt lat="50.6997310" lon="-2.5105970"/>
    <wpt lat="50.6961430" lon="-2.5191800"/>
    <wpt lat="50.6926640" lon="-2.5293940"/>
    <wpt lat="50.6882590" lon="-2.5457020"/>
    <wpt lat="50.6851050" lon="-2.5640700"/>
    <wpt lat="50.6905430" lon="-2.5632120"/>
    <wpt lat="50.6949470" lon="-2.5698200"/>
    <wpt lat="50.6933160" lon="-2.5737690"/>
    <wpt lat="50.6959260" lon="-2.5767730"/>
    <wpt lat="50.6984810" lon="-2.5805490"/>
    <wpt lat="50.7008730" lon="-2.5869870"/>
    <wpt lat="50.7046240" lon="-2.5928230"/>
    <wpt lat="50.7035370" lon="-2.5953120"/>
    <wpt lat="50.7062550" lon="-2.6020070"/>
    <wpt lat="50.7063090" lon="-2.6068990"/>
    <wpt lat="50.7081570" lon="-2.6109330"/>
    <wpt lat="50.7074500" lon="-2.6141090"/>
    <wpt lat="50.7078850" lon="-2.6235500"/>
    <wpt lat="50.7071240" lon="-2.6354810"/>
    <wpt lat="50.7081570" lon="-2.6409740"/>
    <wpt lat="50.7069610" lon="-2.6492140"/>
    <wpt lat="50.7028300" lon="-2.6538490"/>
    <wpt lat="50.7029390" lon="-2.6599430"/>
    <wpt lat="50.7047330" lon="-2.6644920"/>
    <wpt lat="50.7044610" lon="-2.6741910"/>
    <wpt lat="50.7056570" lon="-2.6875800"/>
    <wpt lat="50.7052760" lon="-2.6977940"/>
    <wpt lat="50.7133200" lon="-2.7022570"/>
    <wpt lat="50.7152770" lon="-2.7056900"/>
    <wpt lat="50.7202760" lon="-2.7094670"/>
    <wpt lat="50.7241340" lon="-2.7116990"/>
    <wpt lat="50.7281550" lon="-2.7071500"/>
    <wpt lat="50.7328270" lon="-2.7050040"/>
    <wpt lat="50.7354350" lon="-2.7045750"/>
    <wpt lat="50.7377160" lon="-2.7056050"/>
    <wpt lat="50.7415730" lon="-2.7022570"/>
    <wpt lat="50.7422790" lon="-2.7101540"/>
    <wpt lat="50.7436910" lon="-2.7168480"/>
    <wpt lat="50.7459720" lon="-2.7193380"/>
    <wpt lat="50.7460270" lon="-2.7225130"/>
    <wpt lat="50.7453750" lon="-2.7297230"/>
    <wpt lat="50.7453200" lon="-2.7448290"/>
    <wpt lat="50.7451030" lon="-2.7520390"/>
    <wpt lat="50.7511310" lon="-2.7476620"/>
    <wpt lat="50.7533040" lon="-2.7545280"/>
    <wpt lat="50.7534120" lon="-2.7607940"/>
    <wpt lat="50.7527600" lon="-2.7673170"/>
    <wpt lat="50.7575930" lon="-2.7765870"/>
    <wpt lat="50.7596560" lon="-2.7862850"/>
    <wpt lat="50.7629680" lon="-2.7963280"/>
    <wpt lat="50.7799040" lon="-2.8195880"/>
    <wpt lat="50.7794150" lon="-2.8312610"/>
    <wpt lat="50.7821830" lon="-2.8362390"/>
    <wpt lat="50.7805550" lon="-2.8437920"/>
    <wpt lat="50.7769190" lon="-2.8514310"/>
    <wpt lat="50.7767560" lon="-2.8552930"/>
    <wpt lat="50.7743140" lon="-2.8560660"/>
    <wpt lat="50.7716540" lon="-2.8621600"/>
    <wpt lat="50.7625880" lon="-2.8636190"/>
    <wpt lat="50.7558010" lon="-2.8593270"/>
    <wpt lat="50.7543900" lon="-2.8637050"/>
    <wpt lat="50.7594940" lon="-2.8859350"/>
    <wpt lat="50.7573760" lon="-2.8977800"/>
    <wpt lat="50.7611770" lon="-2.9261040"/>
    <wpt lat="50.7651940" lon="-2.9354590"/>
    <wpt lat="50.7685600" lon="-2.9515950"/>
    <wpt lat="50.7663340" lon="-2.9647270"/>
    <wpt lat="50.7681260" lon="-2.9802630"/>
    <wpt lat="50.7723600" lon="-2.9961420"/>
    <wpt lat="50.7752910" lon="-3.0028360"/>
    <wpt lat="50.7799580" lon="-3.0025790"/>
    <wpt lat="50.7778960" lon="-3.0207750"/>
    <wpt lat="50.7737160" lon="-3.0224920"/>
    <wpt lat="50.7740420" lon="-3.0325340"/>
    <wpt lat="50.7682340" lon="-3.0351090"/>
    <wpt lat="50.7556930" lon="-3.0477260"/>
    <wpt lat="50.7553670" lon="-3.0518460"/>
    <wpt lat="50.7443970" lon="-3.0655780"/>
    <wpt lat="50.7338600" lon="-3.0555360"/>
    <wpt lat="50.7285900" lon="-3.0593990"/>
    <wpt lat="50.7273400" lon="-3.0636040"/>
    <wpt lat="50.7050040" lon="-3.0693550"/>
    <wpt lat="50.7038090" lon="-3.0853200"/>
    <wpt lat="50.6989700" lon="-3.0958770"/>
    <wpt lat="50.7011990" lon="-3.1169910"/>
    <wpt lat="50.6948930" lon="-3.1279770"/>
    <wpt lat="50.6904890" lon="-3.1447140"/>
    <wpt lat="50.6964700" lon="-3.1684900"/>
    <wpt lat="50.6983180" lon="-3.1926080"/>
    <wpt lat="50.6902710" lon="-3.2136360"/>
    <wpt lat="50.6840180" lon="-3.2348370"/>
    <wpt lat="50.6745540" lon="-3.2515740"/>
    <wpt lat="50.6791230" lon="-3.2667660"/>
    <wpt lat="50.6712900" lon="-3.2872790"/>
    <wpt lat="50.6583970" lon="-3.3014410"/>
    <wpt lat="50.6403830" lon="-3.3083940"/>
    <wpt lat="50.6394030" lon="-3.3171480"/>
    <wpt lat="50.6336330" lon="-3.3198090"/>
    <wpt lat="50.6372800" lon="-3.3322540"/>
    <wpt lat="50.6358100" lon="-3.3339710"/>
    <wpt lat="50.6399480" lon="-3.3437560"/>
    <wpt lat="50.6366270" lon="-3.3510510"/>
    <wpt lat="50.6301490" lon="-3.3586900"/>
    <wpt lat="50.6261200" lon="-3.3765430"/>
    <wpt lat="50.6253570" lon="-3.3943960"/>
    <wpt lat="50.6264460" lon="-3.4079570"/>
    <wpt lat="50.6322170" lon="-3.4173980"/>
    <wpt lat="50.6578530" lon="-3.4374830"/>
    <wpt lat="50.6785250" lon="-3.4510440"/>
    <wpt lat="50.6827350" lon="-3.4593130"/>
    <wpt lat="50.6868680" lon="-3.4643770"/>
    <wpt lat="50.6953230" lon="-3.4840750"/>
    <wpt lat="50.6980680" lon="-3.4944180"/>
    <wpt lat="50.6952140" lon="-3.5008120"/>
    <wpt lat="50.7177720" lon="-3.5305950"/>
    <wpt lat="50.7172830" lon="-3.5339430"/>
    <wpt lat="50.7218470" lon="-3.5411100"/>
    <wpt lat="50.7257320" lon="-3.5339860"/>
    <trk>
        <name>Spokeys2021</name>
        <trkseg>
            <trkpt lat="50.9080690" lon="-1.4142680"><ele>10.0</ele></trkpt>
            <trkpt lat="50.9078930" lon="-1.4155560"><ele>13.0</ele></trkpt>
            <trkpt lat="50.9094220" lon="-1.4228520"><ele>13.0</ele></trkpt>
            <trkpt lat="50.9106120" lon="-1.4300610"><ele>8.0</ele></trkpt>
            <trkpt lat="50.9109740" lon="-1.4305650"><ele>12.0</ele></trkpt>
            <trkpt lat="50.9109980" lon="-1.4319380"><ele>7.0</ele></trkpt>
            <trkpt lat="50.9122830" lon="-1.4352100"><ele>3.0</ele></trkpt>
            <trkpt lat="50.9127700" lon="-1.4372000"><ele>6.0</ele></trkpt>
            <trkpt lat="50.9130040" lon="-1.4398770"><ele>4.0</ele></trkpt>
            <trkpt lat="50.9131150" lon="-1.4431500"><ele>4.0</ele></trkpt>
            <trkpt lat="50.9130000" lon="-1.4433430"><ele>4.0</ele></trkpt>
            <trkpt lat="50.9127230" lon="-1.4437020"><ele>4.0</ele></trkpt>
            <trkpt lat="50.9127700" lon="-1.4441900"><ele>6.0</ele></trkpt>
            <trkpt lat="50.9132710" lon="-1.4450590"><ele>5.0</ele></trkpt>
            <trkpt lat="50.9136060" lon="-1.4476130"><ele>4.0</ele></trkpt>
            <trkpt lat="50.9141000" lon="-1.4503810"><ele>4.0</ele></trkpt>
            <trkpt lat="50.9149620" lon="-1.4529930"><ele>5.0</ele></trkpt>
            <trkpt lat="50.9163350" lon="-1.4555950"><ele>7.0</ele></trkpt>
            <trkpt lat="50.9167310" lon="-1.4568930"><ele>7.0</ele></trkpt>
            <trkpt lat="50.9168800" lon="-1.4575370"><ele>6.0</ele></trkpt>
            <trkpt lat="50.9184660" lon="-1.4610770"><ele>7.0</ele></trkpt>
            <trkpt lat="50.9183710" lon="-1.4613880"><ele>7.0</ele></trkpt>
            <trkpt lat="50.9190780" lon="-1.4622040"><ele>7.0</ele></trkpt>
            <trkpt lat="50.9196360" lon="-1.4633360"><ele>8.0</ele></trkpt>
            <trkpt lat="50.9204880" lon="-1.4651490"><ele>6.0</ele></trkpt>
            <trkpt lat="50.9206710" lon="-1.4652350"><ele>6.0</ele></trkpt>
            <trkpt lat="50.9212320" lon="-1.4673970"><ele>6.0</ele></trkpt>
            <trkpt lat="50.9217530" lon="-1.4698110"><ele>6.0</ele></trkpt>
            <trkpt lat="50.9217500" lon="-1.4724280"><ele>5.0</ele></trkpt>
            <trkpt lat="50.9211980" lon="-1.4746010"><ele>1.0</ele></trkpt>
            <trkpt lat="50.9204920" lon="-1.4770850"><ele>2.0</ele></trkpt>
            <trkpt lat="50.9191390" lon="-1.4793970"><ele>6.0</ele></trkpt>
            <trkpt lat="50.9180630" lon="-1.4800460"><ele>3.0</ele></trkpt>
            <trkpt lat="50.9169000" lon="-1.4814510"><ele>4.0</ele></trkpt>
            <trkpt lat="50.9159260" lon="-1.4827760"><ele>5.0</ele></trkpt>
            <trkpt lat="50.9148610" lon="-1.4848260"><ele>7.0</ele></trkpt>
            <trkpt lat="50.9136160" lon="-1.4891440"><ele>3.0</ele></trkpt>
            <trkpt lat="50.9132400" lon="-1.4907480"><ele>5.0</ele></trkpt>
            <trkpt lat="50.9134670" lon="-1.4908440"><ele>5.0</ele></trkpt>
            <trkpt lat="50.9129290" lon="-1.4929690"><ele>8.0</ele></trkpt>
            <trkpt lat="50.9113460" lon="-1.4948570"><ele>14.0</ele></trkpt>
            <trkpt lat="50.9114140" lon="-1.4950660"><ele>15.0</ele></trkpt>
            <trkpt lat="50.9109540" lon="-1.4956890"><ele>15.0</ele></trkpt>
            <trkpt lat="50.9120870" lon="-1.4974910"><ele>11.0</ele></trkpt>
            <trkpt lat="50.9113630" lon="-1.4983820"><ele>12.0</ele></trkpt>
            <trkpt lat="50.9107510" lon="-1.4989560"><ele>11.0</ele></trkpt>
            <trkpt lat="50.9101560" lon="-1.5001140"><ele>10.0</ele></trkpt>
            <trkpt lat="50.9098380" lon="-1.5005270"><ele>12.0</ele></trkpt>
            <trkpt lat="50.9101710" lon="-1.5009640"><ele>10.0</ele></trkpt>
            <trkpt lat="50.9102860" lon="-1.5016610"><ele>8.0</ele></trkpt>
            <trkpt lat="50.9106650" lon="-1.5022410"><ele>8.0</ele></trkpt>
            <trkpt lat="50.9106180" lon="-1.5029270"><ele>10.0</ele></trkpt>
            <trkpt lat="50.9107730" lon="-1.5033140"><ele>10.0</ele></trkpt>
            <trkpt lat="50.9110780" lon="-1.5044720"><ele>11.0</ele></trkpt>
            <trkpt lat="50.9106180" lon="-1.5048800"><ele>12.0</ele></trkpt>
            <trkpt lat="50.9092510" lon="-1.5052770"><ele>11.0</ele></trkpt>
            <trkpt lat="50.9081210" lon="-1.5070370"><ele>12.0</ele></trkpt>
            <trkpt lat="50.9069920" lon="-1.5086570"><ele>12.0</ele></trkpt>
            <trkpt lat="50.9053070" lon="-1.5108670"><ele>12.0</ele></trkpt>
            <trkpt lat="50.9027760" lon="-1.5136990"><ele>14.0</ele></trkpt>
            <trkpt lat="50.9019240" lon="-1.5131200"><ele>13.0</ele></trkpt>
            <trkpt lat="50.9013150" lon="-1.5149220"><ele>12.0</ele></trkpt>
            <trkpt lat="50.9007130" lon="-1.5155660"><ele>13.0</ele></trkpt>
            <trkpt lat="50.8998330" lon="-1.5158560"><ele>14.0</ele></trkpt>
            <trkpt lat="50.8988930" lon="-1.5170790"><ele>16.0</ele></trkpt>
            <trkpt lat="50.8979450" lon="-1.5186020"><ele>19.0</ele></trkpt>
            <trkpt lat="50.8972080" lon="-1.5193210"><ele>19.0</ele></trkpt>
            <trkpt lat="50.8964020" lon="-1.5193320"><ele>19.0</ele></trkpt>
            <trkpt lat="50.8960100" lon="-1.5190210"><ele>19.0</ele></trkpt>
            <trkpt lat="50.8950420" lon="-1.5219070"><ele>29.0</ele></trkpt>
            <trkpt lat="50.8946360" lon="-1.5221640"><ele>18.0</ele></trkpt>
            <trkpt lat="50.8932630" lon="-1.5208550"><ele>22.0</ele></trkpt>
            <trkpt lat="50.8925860" lon="-1.5226040"><ele>19.0</ele></trkpt>
            <trkpt lat="50.8924170" lon="-1.5226040"><ele>20.0</ele></trkpt>
            <trkpt lat="50.8915840" lon="-1.5250820"><ele>29.0</ele></trkpt>
            <trkpt lat="50.8911850" lon="-1.5266270"><ele>38.0</ele></trkpt>
            <trkpt lat="50.8904130" lon="-1.5278720"><ele>35.0</ele></trkpt>
            <trkpt lat="50.8902710" lon="-1.5284510"><ele>35.0</ele></trkpt>
            <trkpt lat="50.8872730" lon="-1.5359720"><ele>30.0</ele></trkpt>
            <trkpt lat="50.8819800" lon="-1.5493400"><ele>38.0</ele></trkpt>
            <trkpt lat="50.8791370" lon="-1.5561530"><ele>33.0</ele></trkpt>
            <trkpt lat="50.8761040" lon="-1.5625370"><ele>43.0</ele></trkpt>
            <trkpt lat="50.8729560" lon="-1.5692640"><ele>42.0</ele></trkpt>
            <trkpt lat="50.8723870" lon="-1.5711410"><ele>40.0</ele></trkpt>
            <trkpt lat="50.8724960" lon="-1.5736260"><ele>41.0</ele></trkpt>
            <trkpt lat="50.8688940" lon="-1.5739270"><ele>37.0</ele></trkpt>
            <trkpt lat="50.8664560" lon="-1.5744420"><ele>38.0</ele></trkpt>
            <trkpt lat="50.8654810" lon="-1.5734120"><ele>40.0</ele></trkpt>
            <trkpt lat="50.8600370" lon="-1.5730680"><ele>57.0</ele></trkpt>
            <trkpt lat="50.8515840" lon="-1.5736690"><ele>57.0</ele></trkpt>
            <trkpt lat="50.8415580" lon="-1.5732400"><ele>23.0</ele></trkpt>
            <trkpt lat="50.8295790" lon="-1.5720380"><ele>27.0</ele></trkpt>
            <trkpt lat="50.8177860" lon="-1.5719100"><ele>19.0</ele></trkpt>
            <trkpt lat="50.8191740" lon="-1.5756420"><ele>17.0</ele></trkpt>
            <trkpt lat="50.8166730" lon="-1.5779280"><ele>22.0</ele></trkpt>
            <trkpt lat="50.8112880" lon="-1.5801370"><ele>21.0</ele></trkpt>
            <trkpt lat="50.8086310" lon="-1.5808660"><ele>27.0</ele></trkpt>
            <trkpt lat="50.8054580" lon="-1.5826690"><ele>35.0</ele></trkpt>
            <trkpt lat="50.8032070" lon="-1.5824540"><ele>36.0</ele></trkpt>
            <trkpt lat="50.8012810" lon="-1.5919810"><ele>34.0</ele></trkpt>
            <trkpt lat="50.8015250" lon="-1.5943420"><ele>33.0</ele></trkpt>
            <trkpt lat="50.8024200" lon="-1.5955860"><ele>42.0</ele></trkpt>
            <trkpt lat="50.8020140" lon="-1.6127950"><ele>34.0</ele></trkpt>
            <trkpt lat="50.7998160" lon="-1.6339520"><ele>39.0</ele></trkpt>
            <trkpt lat="50.7991110" lon="-1.6442520"><ele>42.0</ele></trkpt>
            <trkpt lat="50.7995180" lon="-1.6480290"><ele>42.0</ele></trkpt>
            <trkpt lat="50.8038850" lon="-1.6695290"><ele>48.0</ele></trkpt>
            <trkpt lat="50.8115870" lon="-1.6862660"><ele>47.0</ele></trkpt>
            <trkpt lat="50.8100680" lon="-1.6870390"><ele>56.0</ele></trkpt>
            <trkpt lat="50.8069220" lon="-1.6853650"><ele>74.0</ele></trkpt>
            <trkpt lat="50.8032880" lon="-1.6834770"><ele>54.0</ele></trkpt>
            <trkpt lat="50.8014170" lon="-1.6815030"><ele>53.0</ele></trkpt>
            <trkpt lat="50.7988400" lon="-1.6839490"><ele>49.0</ele></trkpt>
            <trkpt lat="50.7962090" lon="-1.6860520"><ele>66.0</ele></trkpt>
            <trkpt lat="50.7941740" lon="-1.6882830"><ele>63.0</ele></trkpt>
            <trkpt lat="50.7903220" lon="-1.6971240"><ele>67.0</ele></trkpt>
            <trkpt lat="50.7930890" lon="-1.7040760"><ele>64.0</ele></trkpt>
            <trkpt lat="50.7928450" lon="-1.7054920"><ele>66.0</ele></trkpt>
            <trkpt lat="50.7824000" lon="-1.7039900"><ele>64.0</ele></trkpt>
            <trkpt lat="50.7802020" lon="-1.7100840"><ele>57.0</ele></trkpt>
            <trkpt lat="50.7758060" lon="-1.7165220"><ele>53.0</ele></trkpt>
            <trkpt lat="50.7713820" lon="-1.7215000"><ele>42.0</ele></trkpt>
            <trkpt lat="50.7684780" lon="-1.7289670"><ele>25.0</ele></trkpt>
            <trkpt lat="50.7675280" lon="-1.7356620"><ele>21.0</ele></trkpt>
            <trkpt lat="50.7655190" lon="-1.7385370"><ele>12.0</ele></trkpt>
            <trkpt lat="50.7635380" lon="-1.7480210"><ele>11.0</ele></trkpt>
            <trkpt lat="50.7609050" lon="-1.7533430"><ele>10.0</ele></trkpt>
            <trkpt lat="50.7529230" lon="-1.7558320"><ele>10.0</ele></trkpt>
            <trkpt lat="50.7509950" lon="-1.7570770"><ele>10.0</ele></trkpt>
            <trkpt lat="50.7439890" lon="-1.7576770"><ele>10.0</ele></trkpt>
            <trkpt lat="50.7463250" lon="-1.7447170"><ele>8.0</ele></trkpt>
            <trkpt lat="50.7454290" lon="-1.7440300"><ele>8.0</ele></trkpt>
            <trkpt lat="50.7436090" lon="-1.7417990"><ele>11.0</ele></trkpt>
            <trkpt lat="50.7422780" lon="-1.7419700"><ele>9.0</ele></trkpt>
            <trkpt lat="50.7396710" lon="-1.7405540"><ele>14.0</ele></trkpt>
            <trkpt lat="50.7349730" lon="-1.7435150"><ele>9.0</ele></trkpt>
            <trkpt lat="50.7347550" lon="-1.7467770"><ele>8.0</ele></trkpt>
            <trkpt lat="50.7337500" lon="-1.7499100"><ele>8.0</ele></trkpt>
            <trkpt lat="50.7344020" lon="-1.7547590"><ele>7.0</ele></trkpt>
            <trkpt lat="50.7334240" lon="-1.7590510"><ele>4.0</ele></trkpt>
            <trkpt lat="50.7320660" lon="-1.7577630"><ele>4.0</ele></trkpt>
            <trkpt lat="50.7308170" lon="-1.7599950"><ele>2.0</ele></trkpt>
            <trkpt lat="50.7333430" lon="-1.7661320"><ele>4.0</ele></trkpt>
            <trkpt lat="50.7348100" lon="-1.7717540"><ele>5.0</ele></trkpt>
            <trkpt lat="50.7320390" lon="-1.7787060"><ele>3.0</ele></trkpt>
            <trkpt lat="50.7309250" lon="-1.7849720"><ele>1.0</ele></trkpt>
            <trkpt lat="50.7289150" lon="-1.7899930"><ele>6.0</ele></trkpt>
            <trkpt lat="50.7270410" lon="-1.7799500"><ele>4.0</ele></trkpt>
            <trkpt lat="50.7192980" lon="-1.7811520"><ele>8.0</ele></trkpt>
            <trkpt lat="50.7218520" lon="-1.8142830"><ele>34.0</ele></trkpt>
            <trkpt lat="50.7208190" lon="-1.8417060"><ele>21.0</ele></trkpt>
            <trkpt lat="50.7189450" lon="-1.8568550"><ele>29.0</ele></trkpt>
            <trkpt lat="50.7167440" lon="-1.8729480"><ele>16.0</ele></trkpt>
            <trkpt lat="50.7128580" lon="-1.8907580"><ele>33.0</ele></trkpt>
            <trkpt lat="50.7058190" lon="-1.9111860"><ele>20.0</ele></trkpt>
            <trkpt lat="50.6952460" lon="-1.9296390"><ele>8.0</ele></trkpt>
            <trkpt lat="50.6917940" lon="-1.9357030"><ele>0.0</ele></trkpt>
            <trkpt lat="50.6848880" lon="-1.9440290"><ele>10.0</ele></trkpt>
            <trkpt lat="50.6843980" lon="-1.9488350"><ele>6.0</ele></trkpt>
            <trkpt lat="50.6791230" lon="-1.9502940"><ele>0.0</ele></trkpt>
            <trkpt lat="50.6696040" lon="-1.9618820"><ele>5.0</ele></trkpt>
            <trkpt lat="50.6673190" lon="-1.9641990"><ele>9.0</ele></trkpt>
            <trkpt lat="50.6587780" lon="-1.9658300"><ele>8.0</ele></trkpt>
            <trkpt lat="50.6606820" lon="-1.9747560"><ele>6.0</ele></trkpt>
            <trkpt lat="50.6608450" lon="-1.9815370"><ele>7.0</ele></trkpt>
            <trkpt lat="50.6635110" lon="-1.9884030"><ele>19.0</ele></trkpt>
            <trkpt lat="50.6599200" lon="-2.0000760"><ele>22.0</ele></trkpt>
            <trkpt lat="50.6539890" lon="-2.0150970"><ele>33.0</ele></trkpt>
            <trkpt lat="50.6515400" lon="-2.0352670"><ele>24.0</ele></trkpt>
            <trkpt lat="50.6549690" lon="-2.0318340"><ele>25.0</ele></trkpt>
            <trkpt lat="50.6609000" lon="-2.0459100"><ele>10.0</ele></trkpt>
            <trkpt lat="50.6639460" lon="-2.0518320"><ele>9.0</ele></trkpt>
            <trkpt lat="50.6698760" lon="-2.0538920"><ele>1.0</ele></trkpt>
            <trkpt lat="50.6746630" lon="-2.0616170"><ele>14.0</ele></trkpt>
            <trkpt lat="50.6791230" lon="-2.0642780"><ele>4.0</ele></trkpt>
            <trkpt lat="50.6774370" lon="-2.1089100"><ele>3.0</ele></trkpt>
            <trkpt lat="50.6703660" lon="-2.1142310"><ele>13.0</ele></trkpt>
            <trkpt lat="50.6693320" lon="-2.1315690"><ele>8.0</ele></trkpt>
            <trkpt lat="50.6713450" lon="-2.1550870"><ele>17.0</ele></trkpt>
            <trkpt lat="50.6703110" lon="-2.1718240"><ele>31.0</ele></trkpt>
            <trkpt lat="50.6758050" lon="-2.1820370"><ele>12.0</ele></trkpt>
            <trkpt lat="50.6747720" lon="-2.1932810"><ele>14.0</ele></trkpt>
            <trkpt lat="50.6767300" lon="-2.1994610"><ele>12.0</ele></trkpt>
            <trkpt lat="50.6815700" lon="-2.2110480"><ele>13.0</ele></trkpt>
            <trkpt lat="50.6812440" lon="-2.2306180"><ele>15.0</ele></trkpt>
            <trkpt lat="50.6847250" lon="-2.2490710"><ele>20.0</ele></trkpt>
            <trkpt lat="50.6903800" lon="-2.2682970"><ele>24.0</ele></trkpt>
            <trkpt lat="50.7027760" lon="-2.2791120"><ele>29.0</ele></trkpt>
            <trkpt lat="50.7109830" lon="-2.3212550"><ele>40.0</ele></trkpt>
            <trkpt lat="50.7137550" lon="-2.3367900"><ele>46.0</ele></trkpt>
            <trkpt lat="50.7083200" lon="-2.3585910"><ele>46.0</ele></trkpt>
            <trkpt lat="50.7051130" lon="-2.3889750"><ele>49.0</ele></trkpt>
            <trkpt lat="50.7093530" lon="-2.3927520"><ele>50.0</ele></trkpt>
            <trkpt lat="50.7091900" lon="-2.3981590"><ele>47.0</ele></trkpt>
            <trkpt lat="50.7060370" lon="-2.4020220"><ele>62.0</ele></trkpt>
            <trkpt lat="50.7057110" lon="-2.4131790"><ele>60.0</ele></trkpt>
            <trkpt lat="50.7086460" lon="-2.4223630"><ele>76.0</ele></trkpt>
            <trkpt lat="50.7073420" lon="-2.4318900"><ele>75.0</ele></trkpt>
            <trkpt lat="50.7039170" lon="-2.4399590"><ele>72.0</ele></trkpt>
            <trkpt lat="50.7038090" lon="-2.4455380"><ele>72.0</ele></trkpt>
            <trkpt lat="50.7059830" lon="-2.4448510"><ele>81.0</ele></trkpt>
            <trkpt lat="50.7045150" lon="-2.4544640"><ele>69.0</ele></trkpt>
            <trkpt lat="50.7011450" lon="-2.4684540"><ele>80.0</ele></trkpt>
            <trkpt lat="50.7011450" lon="-2.4790970"><ele>93.0</ele></trkpt>
            <trkpt lat="50.7010900" lon="-2.4912850"><ele>81.0</ele></trkpt>
            <trkpt lat="50.6984810" lon="-2.4946330"><ele>85.0</ele></trkpt>
            <trkpt lat="50.6995140" lon="-2.5043320"><ele>85.0</ele></trkpt>
            <trkpt lat="50.6997310" lon="-2.5105970"><ele>97.0</ele></trkpt>
            <trkpt lat="50.6961430" lon="-2.5191800"><ele>121.0</ele></trkpt>
            <trkpt lat="50.6926640" lon="-2.5293940"><ele>148.0</ele></trkpt>
            <trkpt lat="50.6882590" lon="-2.5457020"><ele>198.0</ele></trkpt>
            <trkpt lat="50.6851050" lon="-2.5640700"><ele>205.0</ele></trkpt>
            <trkpt lat="50.6905430" lon="-2.5632120"><ele>198.0</ele></trkpt>
            <trkpt lat="50.6949470" lon="-2.5698200"><ele>173.0</ele></trkpt>
            <trkpt lat="50.6933160" lon="-2.5737690"><ele>136.0</ele></trkpt>
            <trkpt lat="50.6959260" lon="-2.5767730"><ele>107.0</ele></trkpt>
            <trkpt lat="50.6984810" lon="-2.5805490"><ele>126.0</ele></trkpt>
            <trkpt lat="50.7008730" lon="-2.5869870"><ele>113.0</ele></trkpt>
            <trkpt lat="50.7046240" lon="-2.5928230"><ele>108.0</ele></trkpt>
            <trkpt lat="50.7035370" lon="-2.5953120"><ele>105.0</ele></trkpt>
            <trkpt lat="50.7062550" lon="-2.6020070"><ele>90.0</ele></trkpt>
            <trkpt lat="50.7063090" lon="-2.6068990"><ele>88.0</ele></trkpt>
            <trkpt lat="50.7081570" lon="-2.6109330"><ele>74.0</ele></trkpt>
            <trkpt lat="50.7074500" lon="-2.6141090"><ele>67.0</ele></trkpt>
            <trkpt lat="50.7078850" lon="-2.6235500"><ele>55.0</ele></trkpt>
            <trkpt lat="50.7071240" lon="-2.6354810"><ele>46.0</ele></trkpt>
            <trkpt lat="50.7081570" lon="-2.6409740"><ele>47.0</ele></trkpt>
            <trkpt lat="50.7069610" lon="-2.6492140"><ele>41.0</ele></trkpt>
            <trkpt lat="50.7028300" lon="-2.6538490"><ele>41.0</ele></trkpt>
            <trkpt lat="50.7029390" lon="-2.6599430"><ele>38.0</ele></trkpt>
            <trkpt lat="50.7047330" lon="-2.6644920"><ele>33.0</ele></trkpt>
            <trkpt lat="50.7044610" lon="-2.6741910"><ele>29.0</ele></trkpt>
            <trkpt lat="50.7056570" lon="-2.6875800"><ele>22.0</ele></trkpt>
            <trkpt lat="50.7052760" lon="-2.6977940"><ele>20.0</ele></trkpt>
            <trkpt lat="50.7133200" lon="-2.7022570"><ele>58.0</ele></trkpt>
            <trkpt lat="50.7152770" lon="-2.7056900"><ele>37.0</ele></trkpt>
            <trkpt lat="50.7202760" lon="-2.7094670"><ele>57.0</ele></trkpt>
            <trkpt lat="50.7241340" lon="-2.7116990"><ele>80.0</ele></trkpt>
            <trkpt lat="50.7281550" lon="-2.7071500"><ele>90.0</ele></trkpt>
            <trkpt lat="50.7328270" lon="-2.7050040"><ele>68.0</ele></trkpt>
            <trkpt lat="50.7354350" lon="-2.7045750"><ele>54.0</ele></trkpt>
            <trkpt lat="50.7377160" lon="-2.7056050"><ele>55.0</ele></trkpt>
            <trkpt lat="50.7415730" lon="-2.7022570"><ele>33.0</ele></trkpt>
            <trkpt lat="50.7422790" lon="-2.7101540"><ele>34.0</ele></trkpt>
            <trkpt lat="50.7436910" lon="-2.7168480"><ele>28.0</ele></trkpt>
            <trkpt lat="50.7459720" lon="-2.7193380"><ele>55.0</ele></trkpt>
            <trkpt lat="50.7460270" lon="-2.7225130"><ele>50.0</ele></trkpt>
            <trkpt lat="50.7453750" lon="-2.7297230"><ele>22.0</ele></trkpt>
            <trkpt lat="50.7453750" lon="-2.7368470"><ele>29.0</ele></trkpt>
            <trkpt lat="50.7453200" lon="-2.7448290"><ele>39.0</ele></trkpt>
            <trkpt lat="50.7451030" lon="-2.7520390"><ele>19.0</ele></trkpt>
            <trkpt lat="50.7511310" lon="-2.7476620"><ele>17.0</ele></trkpt>
            <trkpt lat="50.7533040" lon="-2.7545280"><ele>28.0</ele></trkpt>
            <trkpt lat="50.7534120" lon="-2.7607940"><ele>34.0</ele></trkpt>
            <trkpt lat="50.7527600" lon="-2.7673170"><ele>54.0</ele></trkpt>
            <trkpt lat="50.7575930" lon="-2.7765870"><ele>34.0</ele></trkpt>
            <trkpt lat="50.7596560" lon="-2.7862850"><ele>34.0</ele></trkpt>
            <trkpt lat="50.7629680" lon="-2.7963280"><ele>35.0</ele></trkpt>
            <trkpt lat="50.7799040" lon="-2.8195880"><ele>51.0</ele></trkpt>
            <trkpt lat="50.7794150" lon="-2.8312610"><ele>59.0</ele></trkpt>
            <trkpt lat="50.7821830" lon="-2.8362390"><ele>60.0</ele></trkpt>
            <trkpt lat="50.7805550" lon="-2.8437920"><ele>46.0</ele></trkpt>
            <trkpt lat="50.7769190" lon="-2.8514310"><ele>40.0</ele></trkpt>
            <trkpt lat="50.7767560" lon="-2.8552930"><ele>47.0</ele></trkpt>
            <trkpt lat="50.7743140" lon="-2.8560660"><ele>45.0</ele></trkpt>
            <trkpt lat="50.7716540" lon="-2.8621600"><ele>45.0</ele></trkpt>
            <trkpt lat="50.7625880" lon="-2.8636190"><ele>31.0</ele></trkpt>
            <trkpt lat="50.7558010" lon="-2.8593270"><ele>31.0</ele></trkpt>
            <trkpt lat="50.7543900" lon="-2.8637050"><ele>24.0</ele></trkpt>
            <trkpt lat="50.7594940" lon="-2.8859350"><ele>63.0</ele></trkpt>
            <trkpt lat="50.7573760" lon="-2.8977800"><ele>48.0</ele></trkpt>
            <trkpt lat="50.7590050" lon="-2.9097100"><ele>78.0</ele></trkpt>
            <trkpt lat="50.7601450" lon="-2.9185500"><ele>95.0</ele></trkpt>
            <trkpt lat="50.7611770" lon="-2.9261040"><ele>55.0</ele></trkpt>
            <trkpt lat="50.7651940" lon="-2.9354590"><ele>148.0</ele></trkpt>
            <trkpt lat="50.7685600" lon="-2.9515950"><ele>200.0</ele></trkpt>
            <trkpt lat="50.7663340" lon="-2.9647270"><ele>157.0</ele></trkpt>
            <trkpt lat="50.7681260" lon="-2.9802630"><ele>135.0</ele></trkpt>
            <trkpt lat="50.7723600" lon="-2.9961420"><ele>67.0</ele></trkpt>
            <trkpt lat="50.7752910" lon="-3.0028360"><ele>33.0</ele></trkpt>
            <trkpt lat="50.7799580" lon="-3.0025790"><ele>27.0</ele></trkpt>
            <trkpt lat="50.7778960" lon="-3.0207750"><ele>23.0</ele></trkpt>
            <trkpt lat="50.7737160" lon="-3.0224920"><ele>23.0</ele></trkpt>
            <trkpt lat="50.7740420" lon="-3.0325340"><ele>52.0</ele></trkpt>
            <trkpt lat="50.7682340" lon="-3.0351090"><ele>56.0</ele></trkpt>
            <trkpt lat="50.7556930" lon="-3.0477260"><ele>18.0</ele></trkpt>
            <trkpt lat="50.7553670" lon="-3.0518460"><ele>19.0</ele></trkpt>
            <trkpt lat="50.7443970" lon="-3.0655780"><ele>20.0</ele></trkpt>
            <trkpt lat="50.7338600" lon="-3.0555360"><ele>5.0</ele></trkpt>
            <trkpt lat="50.7285900" lon="-3.0593990"><ele>21.0</ele></trkpt>
            <trkpt lat="50.7273400" lon="-3.0636040"><ele>21.0</ele></trkpt>
            <trkpt lat="50.7050040" lon="-3.0693550"><ele>13.0</ele></trkpt>
            <trkpt lat="50.7038090" lon="-3.0853200"><ele>69.0</ele></trkpt>
            <trkpt lat="50.6989700" lon="-3.0958770"><ele>46.0</ele></trkpt>
            <trkpt lat="50.7011990" lon="-3.1169910"><ele>135.0</ele></trkpt>
            <trkpt lat="50.6948930" lon="-3.1279770"><ele>32.0</ele></trkpt>
            <trkpt lat="50.6904890" lon="-3.1447140"><ele>58.0</ele></trkpt>
            <trkpt lat="50.6964700" lon="-3.1684900"><ele>151.0</ele></trkpt>
            <trkpt lat="50.6983180" lon="-3.1926080"><ele>158.0</ele></trkpt>
            <trkpt lat="50.6902710" lon="-3.2136360"><ele>175.0</ele></trkpt>
            <trkpt lat="50.6840180" lon="-3.2348370"><ele>14.0</ele></trkpt>
            <trkpt lat="50.6745540" lon="-3.2515740"><ele>41.0</ele></trkpt>
            <trkpt lat="50.6791230" lon="-3.2667660"><ele>144.0</ele></trkpt>
            <trkpt lat="50.6712900" lon="-3.2872790"><ele>55.0</ele></trkpt>
            <trkpt lat="50.6583970" lon="-3.3014410"><ele>13.0</ele></trkpt>
            <trkpt lat="50.6403830" lon="-3.3083940"><ele>8.0</ele></trkpt>
            <trkpt lat="50.6394030" lon="-3.3171480"><ele>14.0</ele></trkpt>
            <trkpt lat="50.6336330" lon="-3.3198090"><ele>31.0</ele></trkpt>
            <trkpt lat="50.6372800" lon="-3.3322540"><ele>36.0</ele></trkpt>
            <trkpt lat="50.6358100" lon="-3.3339710"><ele>40.0</ele></trkpt>
            <trkpt lat="50.6399480" lon="-3.3437560"><ele>68.0</ele></trkpt>
            <trkpt lat="50.6366270" lon="-3.3510510"><ele>79.0</ele></trkpt>
            <trkpt lat="50.6301490" lon="-3.3586900"><ele>77.0</ele></trkpt>
            <trkpt lat="50.6261200" lon="-3.3765430"><ele>58.0</ele></trkpt>
            <trkpt lat="50.6253570" lon="-3.3943960"><ele>39.0</ele></trkpt>
            <trkpt lat="50.6264460" lon="-3.4079570"><ele>6.0</ele></trkpt>
            <trkpt lat="50.6322170" lon="-3.4173980"><ele>6.0</ele></trkpt>
            <trkpt lat="50.6578530" lon="-3.4374830"><ele>4.0</ele></trkpt>
            <trkpt lat="50.6785250" lon="-3.4510440"><ele>4.0</ele></trkpt>
            <trkpt lat="50.6827350" lon="-3.4593130"><ele>17.0</ele></trkpt>
            <trkpt lat="50.6868680" lon="-3.4643770"><ele>17.0</ele></trkpt>
            <trkpt lat="50.6953230" lon="-3.4840750"><ele>12.0</ele></trkpt>
            <trkpt lat="50.6980680" lon="-3.4944180"><ele>14.0</ele></trkpt>
            <trkpt lat="50.6952140" lon="-3.5008120"><ele>2.0</ele></trkpt>
            <trkpt lat="50.7177720" lon="-3.5305950"><ele>6.0</ele></trkpt>
            <trkpt lat="50.7172830" lon="-3.5339430"><ele>4.0</ele></trkpt>
            <trkpt lat="50.7218470" lon="-3.5411100"><ele>8.0</ele></trkpt>
            <trkpt lat="50.7257320" lon="-3.5339860"><ele>33.0</ele></trkpt>
        </trkseg>
    </trk>
</gpx>
