<?xml version="1.0" encoding="UTF-8" standalone="yes"?>
<gpx version="1.1" creator="OS Maps - Web" xmlns="http://www.topografix.com/GPX/1/1"
xmlns:xsi="http://www.w3.org/2001/XMLSchema-instance"
xsi:schemaLocation="http://www.topografix.com/GPX/1/1 http://www.topografix.com/GPX/1/1/gpx.xsd"
xmlns:gs="http://www.topografix.com/GPX/gpx_style/0/2"
xmlns:gh="https://graphhopper.com/public/schema/gpx/1.1"
xmlns:os="https://ordnancesurvey.co.uk/public/schema/route/0.1">
    <metadata>
        <name>Spokeys 2026 - Darren's to Yatton</name>
        <desc></desc>
        <bounds minlat="51.3830480" minlon="-2.8257150" maxlat="51.4181940" maxlon="-2.5706470"/>
    </metadata>
    <wpt lat="51.4181940" lon="-2.5770090"/>
    <wpt lat="51.4128340" lon="-2.5739580"/>
    <wpt lat="51.4078510" lon="-2.5782990"/>
    <wpt lat="51.4016680" lon="-2.5757770"/>
    <wpt lat="51.3954220" lon="-2.5859450"/>
    <wpt lat="51.3934700" lon="-2.6064240"/>
    <wpt lat="51.3959970" lon="-2.6210340"/>
    <wpt lat="51.3960390" lon="-2.6411870"/>
    <wpt lat="51.3832810" lon="-2.6613300"/>
    <wpt lat="51.3880990" lon="-2.6940030"/>
    <wpt lat="51.3877890" lon="-2.7019830"/>
    <wpt lat="51.3932110" lon="-2.7287340"/>
    <wpt lat="51.3966150" lon="-2.7592590"/>
    <wpt lat="51.4000320" lon="-2.7878380"/>
    <wpt lat="51.3934040" lon="-2.7971980"/>
    <wpt lat="51.3851940" lon="-2.8079510"/>
    <wpt lat="51.3913480" lon="-2.8253060"/>
    <trk>
        <name>Spokeys 2026 - Darren's to Yatton</name>
        <trkseg>
            <trkpt lat="51.4181940" lon="-2.5770090"/>
            <trkpt lat="51.4173670" lon="-2.5764000"/>
            <trkpt lat="51.4152270" lon="-2.5754990"/>
            <trkpt lat="51.4150080" lon="-2.5753910"/>
            <trkpt lat="51.4150440" lon="-2.5751870"/>
            <trkpt lat="51.4150080" lon="-2.5753910"/>
            <trkpt lat="51.4147750" lon="-2.5752830"/>
            <trkpt lat="51.4146020" lon="-2.5751750"/>
            <trkpt lat="51.4144060" lon="-2.5750190"/>
            <trkpt lat="51.4136090" lon="-2.5742660"/>
            <trkpt lat="51.4134460" lon="-2.5741490"/>
            <trkpt lat="51.4132580" lon="-2.5740530"/>
            <trkpt lat="51.4130250" lon="-2.5739880"/>
            <trkpt lat="51.4128340" lon="-2.5739580"/>
            <trkpt lat="51.4126730" lon="-2.5739560"/>
            <trkpt lat="51.4123630" lon="-2.5740250"/>
            <trkpt lat="51.4122180" lon="-2.5740820"/>
            <trkpt lat="51.4119720" lon="-2.5742220"/>
            <trkpt lat="51.4116890" lon="-2.5744750"/>
            <trkpt lat="51.4114880" lon="-2.5747140"/>
            <trkpt lat="51.4113160" lon="-2.5749920"/>
            <trkpt lat="51.4109540" lon="-2.5756860"/>
            <trkpt lat="51.4107970" lon="-2.5759680"/>
            <trkpt lat="51.4106890" lon="-2.5761330"/>
            <trkpt lat="51.4105500" lon="-2.5763110"/>
            <trkpt lat="51.4101530" lon="-2.5767430"/>
            <trkpt lat="51.4095510" lon="-2.5771500"/>
            <trkpt lat="51.4080970" lon="-2.5781810"/>
            <trkpt lat="51.4078510" lon="-2.5782990"/>
            <trkpt lat="51.4077460" lon="-2.5783480"/>
            <trkpt lat="51.4076940" lon="-2.5780660"/>
            <trkpt lat="51.4076600" lon="-2.5777920"/>
            <trkpt lat="51.4076280" lon="-2.5772330"/>
            <trkpt lat="51.4075270" lon="-2.5743810"/>
            <trkpt lat="51.4075020" lon="-2.5739390"/>
            <trkpt lat="51.4074610" lon="-2.5735530"/>
            <trkpt lat="51.4073210" lon="-2.5725010"/>
            <trkpt lat="51.4069770" lon="-2.5706470"/>
            <trkpt lat="51.4054890" lon="-2.5712130"/>
            <trkpt lat="51.4052900" lon="-2.5713260"/>
            <trkpt lat="51.4051540" lon="-2.5713730"/>
            <trkpt lat="51.4044840" lon="-2.5719690"/>
            <trkpt lat="51.4042860" lon="-2.5721740"/>
            <trkpt lat="51.4038240" lon="-2.5725720"/>
            <trkpt lat="51.4035600" lon="-2.5728740"/>
            <trkpt lat="51.4032820" lon="-2.5733380"/>
            <trkpt lat="51.4025220" lon="-2.5745180"/>
            <trkpt lat="51.4016680" lon="-2.5757770"/>
            <trkpt lat="51.4014310" lon="-2.5761110"/>
            <trkpt lat="51.4013720" lon="-2.5762820"/>
            <trkpt lat="51.4012440" lon="-2.5768100"/>
            <trkpt lat="51.4011250" lon="-2.5772030"/>
            <trkpt lat="51.4010430" lon="-2.5773720"/>
            <trkpt lat="51.4007970" lon="-2.5776590"/>
            <trkpt lat="51.4000550" lon="-2.5784520"/>
            <trkpt lat="51.3997030" lon="-2.5787440"/>
            <trkpt lat="51.3996900" lon="-2.5788000"/>
            <trkpt lat="51.3996940" lon="-2.5788690"/>
            <trkpt lat="51.3997840" lon="-2.5792460"/>
            <trkpt lat="51.3997920" lon="-2.5793190"/>
            <trkpt lat="51.3997710" lon="-2.5794060"/>
            <trkpt lat="51.3997310" lon="-2.5794590"/>
            <trkpt lat="51.3993380" lon="-2.5797060"/>
            <trkpt lat="51.3989720" lon="-2.5800670"/>
            <trkpt lat="51.3983910" lon="-2.5811960"/>
            <trkpt lat="51.3980140" lon="-2.5816960"/>
            <trkpt lat="51.3978070" lon="-2.5820750"/>
            <trkpt lat="51.3976540" lon="-2.5823110"/>
            <trkpt lat="51.3969710" lon="-2.5830050"/>
            <trkpt lat="51.3966290" lon="-2.5833260"/>
            <trkpt lat="51.3964580" lon="-2.5835080"/>
            <trkpt lat="51.3962940" lon="-2.5837120"/>
            <trkpt lat="51.3959630" lon="-2.5842790"/>
            <trkpt lat="51.3955880" lon="-2.5851150"/>
            <trkpt lat="51.3955100" lon="-2.5853450"/>
            <trkpt lat="51.3954240" lon="-2.5858570"/>
            <trkpt lat="51.3954220" lon="-2.5859450"/>
            <trkpt lat="51.3954040" lon="-2.5866460"/>
            <trkpt lat="51.3953160" lon="-2.5869490"/>
            <trkpt lat="51.3949880" lon="-2.5877190"/>
            <trkpt lat="51.3946510" lon="-2.5887310"/>
            <trkpt lat="51.3944910" lon="-2.5893950"/>
            <trkpt lat="51.3944260" lon="-2.5897820"/>
            <trkpt lat="51.3943590" lon="-2.5900820"/>
            <trkpt lat="51.3939660" lon="-2.5913870"/>
            <trkpt lat="51.3938530" lon="-2.5918460"/>
            <trkpt lat="51.3936540" lon="-2.5934800"/>
            <trkpt lat="51.3935450" lon="-2.5940960"/>
            <trkpt lat="51.3935070" lon="-2.5944760"/>
            <trkpt lat="51.3934950" lon="-2.5948700"/>
            <trkpt lat="51.3935070" lon="-2.5955480"/>
            <trkpt lat="51.3935360" lon="-2.5963170"/>
            <trkpt lat="51.3936490" lon="-2.5978480"/>
            <trkpt lat="51.3936630" lon="-2.5989070"/>
            <trkpt lat="51.3937370" lon="-2.6013900"/>
            <trkpt lat="51.3937980" lon="-2.6022600"/>
            <trkpt lat="51.3938670" lon="-2.6029380"/>
            <trkpt lat="51.3939670" lon="-2.6034950"/>
            <trkpt lat="51.3939640" lon="-2.6036470"/>
            <trkpt lat="51.3939000" lon="-2.6038200"/>
            <trkpt lat="51.3938410" lon="-2.6040660"/>
            <trkpt lat="51.3936060" lon="-2.6057320"/>
            <trkpt lat="51.3934700" lon="-2.6064240"/>
            <trkpt lat="51.3934510" lon="-2.6065220"/>
            <trkpt lat="51.3934350" lon="-2.6067210"/>
            <trkpt lat="51.3934280" lon="-2.6069610"/>
            <trkpt lat="51.3935800" lon="-2.6088410"/>
            <trkpt lat="51.3935820" lon="-2.6090700"/>
            <trkpt lat="51.3935500" lon="-2.6099040"/>
            <trkpt lat="51.3935640" lon="-2.6102850"/>
            <trkpt lat="51.3935950" lon="-2.6105610"/>
            <trkpt lat="51.3935910" lon="-2.6107050"/>
            <trkpt lat="51.3935660" lon="-2.6109070"/>
            <trkpt lat="51.3935300" lon="-2.6110530"/>
            <trkpt lat="51.3934110" lon="-2.6113230"/>
            <trkpt lat="51.3933820" lon="-2.6114740"/>
            <trkpt lat="51.3934260" lon="-2.6117150"/>
            <trkpt lat="51.3937690" lon="-2.6128300"/>
            <trkpt lat="51.3943260" lon="-2.6143190"/>
            <trkpt lat="51.3943980" lon="-2.6147060"/>
            <trkpt lat="51.3944990" lon="-2.6150210"/>
            <trkpt lat="51.3945700" lon="-2.6151400"/>
            <trkpt lat="51.3946420" lon="-2.6151920"/>
            <trkpt lat="51.3949210" lon="-2.6152910"/>
            <trkpt lat="51.3951470" lon="-2.6152640"/>
            <trkpt lat="51.3952090" lon="-2.6152750"/>
            <trkpt lat="51.3952720" lon="-2.6153610"/>
            <trkpt lat="51.3953300" lon="-2.6155820"/>
            <trkpt lat="51.3953660" lon="-2.6158870"/>
            <trkpt lat="51.3953810" lon="-2.6164180"/>
            <trkpt lat="51.3953330" lon="-2.6178620"/>
            <trkpt lat="51.3956910" lon="-2.6198870"/>
            <trkpt lat="51.3959970" lon="-2.6210340"/>
            <trkpt lat="51.3961080" lon="-2.6214530"/>
            <trkpt lat="51.3965450" lon="-2.6234100"/>
            <trkpt lat="51.3966880" lon="-2.6242620"/>
            <trkpt lat="51.3967220" lon="-2.6250620"/>
            <trkpt lat="51.3968700" lon="-2.6260970"/>
            <trkpt lat="51.3969390" lon="-2.6260600"/>
            <trkpt lat="51.3969940" lon="-2.6264030"/>
            <trkpt lat="51.3970710" lon="-2.6267840"/>
            <trkpt lat="51.3971530" lon="-2.6271170"/>
            <trkpt lat="51.3972100" lon="-2.6274640"/>
            <trkpt lat="51.3972230" lon="-2.6276480"/>
            <trkpt lat="51.3971860" lon="-2.6284460"/>
            <trkpt lat="51.3971630" lon="-2.6293840"/>
            <trkpt lat="51.3971740" lon="-2.6304600"/>
            <trkpt lat="51.3970830" lon="-2.6320870"/>
            <trkpt lat="51.3970710" lon="-2.6326760"/>
            <trkpt lat="51.3970800" lon="-2.6330690"/>
            <trkpt lat="51.3970560" lon="-2.6336750"/>
            <trkpt lat="51.3970640" lon="-2.6337440"/>
            <trkpt lat="51.3970320" lon="-2.6337760"/>
            <trkpt lat="51.3969870" lon="-2.6339000"/>
            <trkpt lat="51.3969250" lon="-2.6342600"/>
            <trkpt lat="51.3968440" lon="-2.6346370"/>
            <trkpt lat="51.3967640" lon="-2.6349030"/>
            <trkpt lat="51.3966950" lon="-2.6352120"/>
            <trkpt lat="51.3966870" lon="-2.6354080"/>
            <trkpt lat="51.3966990" lon="-2.6355910"/>
            <trkpt lat="51.3966950" lon="-2.6357970"/>
            <trkpt lat="51.3966390" lon="-2.6363960"/>
            <trkpt lat="51.3965610" lon="-2.6368930"/>
            <trkpt lat="51.3963800" lon="-2.6377450"/>
            <trkpt lat="51.3963320" lon="-2.6380450"/>
            <trkpt lat="51.3963250" lon="-2.6383130"/>
            <trkpt lat="51.3962150" lon="-2.6389750"/>
            <trkpt lat="51.3960820" lon="-2.6402240"/>
            <trkpt lat="51.3960210" lon="-2.6406310"/>
            <trkpt lat="51.3958820" lon="-2.6412250"/>
            <trkpt lat="51.3959550" lon="-2.6412420"/>
            <trkpt lat="51.3960390" lon="-2.6411870"/>
            <trkpt lat="51.3959550" lon="-2.6412420"/>
            <trkpt lat="51.3958820" lon="-2.6412250"/>
            <trkpt lat="51.3957680" lon="-2.6416850"/>
            <trkpt lat="51.3957240" lon="-2.6427340"/>
            <trkpt lat="51.3957560" lon="-2.6432980"/>
            <trkpt lat="51.3958010" lon="-2.6446410"/>
            <trkpt lat="51.3957310" lon="-2.6449290"/>
            <trkpt lat="51.3956990" lon="-2.6452310"/>
            <trkpt lat="51.3956860" lon="-2.6455530"/>
            <trkpt lat="51.3956590" lon="-2.6457250"/>
            <trkpt lat="51.3954530" lon="-2.6459750"/>
            <trkpt lat="51.3951370" lon="-2.6462570"/>
            <trkpt lat="51.3945810" lon="-2.6467110"/>
            <trkpt lat="51.3942300" lon="-2.6471500"/>
            <trkpt lat="51.3940670" lon="-2.6472580"/>
            <trkpt lat="51.3937530" lon="-2.6473970"/>
            <trkpt lat="51.3935690" lon="-2.6474990"/>
            <trkpt lat="51.3933580" lon="-2.6476440"/>
            <trkpt lat="51.3927770" lon="-2.6482850"/>
            <trkpt lat="51.3923550" lon="-2.6485690"/>
            <trkpt lat="51.3913500" lon="-2.6487730"/>
            <trkpt lat="51.3910260" lon="-2.6488970"/>
            <trkpt lat="51.3906160" lon="-2.6489590"/>
            <trkpt lat="51.3904610" lon="-2.6490440"/>
            <trkpt lat="51.3902950" lon="-2.6491960"/>
            <trkpt lat="51.3900860" lon="-2.6493200"/>
            <trkpt lat="51.3895700" lon="-2.6494440"/>
            <trkpt lat="51.3894150" lon="-2.6495220"/>
            <trkpt lat="51.3891400" lon="-2.6496920"/>
            <trkpt lat="51.3889430" lon="-2.6498820"/>
            <trkpt lat="51.3887950" lon="-2.6500920"/>
            <trkpt lat="51.3886560" lon="-2.6503470"/>
            <trkpt lat="51.3884760" lon="-2.6507510"/>
            <trkpt lat="51.3882010" lon="-2.6512510"/>
            <trkpt lat="51.3881020" lon="-2.6515040"/>
            <trkpt lat="51.3879810" lon="-2.6520110"/>
            <trkpt lat="51.3878710" lon="-2.6521720"/>
            <trkpt lat="51.3877440" lon="-2.6523020"/>
            <trkpt lat="51.3875960" lon="-2.6523470"/>
            <trkpt lat="51.3874000" lon="-2.6524360"/>
            <trkpt lat="51.3872970" lon="-2.6525280"/>
            <trkpt lat="51.3865130" lon="-2.6541240"/>
            <trkpt lat="51.3863530" lon="-2.6547800"/>
            <trkpt lat="51.3863300" lon="-2.6550560"/>
            <trkpt lat="51.3863310" lon="-2.6553690"/>
            <trkpt lat="51.3862880" lon="-2.6556000"/>
            <trkpt lat="51.3861820" lon="-2.6558540"/>
            <trkpt lat="51.3857550" lon="-2.6564800"/>
            <trkpt lat="51.3852030" lon="-2.6571910"/>
            <trkpt lat="51.3849060" lon="-2.6576590"/>
            <trkpt lat="51.3845040" lon="-2.6581290"/>
            <trkpt lat="51.3844280" lon="-2.6582450"/>
            <trkpt lat="51.3841620" lon="-2.6587570"/>
            <trkpt lat="51.3838480" lon="-2.6591600"/>
            <trkpt lat="51.3837480" lon="-2.6595340"/>
            <trkpt lat="51.3836700" lon="-2.6599060"/>
            <trkpt lat="51.3832810" lon="-2.6613300"/>
            <trkpt lat="51.3832080" lon="-2.6616880"/>
            <trkpt lat="51.3831590" lon="-2.6618100"/>
            <trkpt lat="51.3831100" lon="-2.6618920"/>
            <trkpt lat="51.3830600" lon="-2.6619160"/>
            <trkpt lat="51.3830760" lon="-2.6622850"/>
            <trkpt lat="51.3830480" lon="-2.6624410"/>
            <trkpt lat="51.3832500" lon="-2.6626440"/>
            <trkpt lat="51.3832110" lon="-2.6627880"/>
            <trkpt lat="51.3832130" lon="-2.6629290"/>
            <trkpt lat="51.3832320" lon="-2.6630140"/>
            <trkpt lat="51.3833390" lon="-2.6632900"/>
            <trkpt lat="51.3835790" lon="-2.6639870"/>
            <trkpt lat="51.3836490" lon="-2.6643430"/>
            <trkpt lat="51.3837980" lon="-2.6655690"/>
            <trkpt lat="51.3838470" lon="-2.6657590"/>
            <trkpt lat="51.3839910" lon="-2.6661000"/>
            <trkpt lat="51.3840960" lon="-2.6663910"/>
            <trkpt lat="51.3842550" lon="-2.6672440"/>
            <trkpt lat="51.3845380" lon="-2.6689940"/>
            <trkpt lat="51.3846160" lon="-2.6697530"/>
            <trkpt lat="51.3846610" lon="-2.6718120"/>
            <trkpt lat="51.3846930" lon="-2.6721780"/>
            <trkpt lat="51.3847280" lon="-2.6724240"/>
            <trkpt lat="51.3848250" lon="-2.6728300"/>
            <trkpt lat="51.3849800" lon="-2.6733880"/>
            <trkpt lat="51.3850680" lon="-2.6737810"/>
            <trkpt lat="51.3851120" lon="-2.6740810"/>
            <trkpt lat="51.3851250" lon="-2.6745690"/>
            <trkpt lat="51.3851080" lon="-2.6748400"/>
            <trkpt lat="51.3850370" lon="-2.6755360"/>
            <trkpt lat="51.3850250" lon="-2.6758250"/>
            <trkpt lat="51.3850320" lon="-2.6761200"/>
            <trkpt lat="51.3853890" lon="-2.6758510"/>
            <trkpt lat="51.3854360" lon="-2.6757870"/>
            <trkpt lat="51.3853890" lon="-2.6758510"/>
            <trkpt lat="51.3850320" lon="-2.6761200"/>
            <trkpt lat="51.3851480" lon="-2.6769910"/>
            <trkpt lat="51.3851800" lon="-2.6777560"/>
            <trkpt lat="51.3851400" lon="-2.6785600"/>
            <trkpt lat="51.3851130" lon="-2.6795370"/>
            <trkpt lat="51.3851130" lon="-2.6802770"/>
            <trkpt lat="51.3852270" lon="-2.6812640"/>
            <trkpt lat="51.3853780" lon="-2.6819760"/>
            <trkpt lat="51.3857530" lon="-2.6834450"/>
            <trkpt lat="51.3858650" lon="-2.6840870"/>
            <trkpt lat="51.3860950" lon="-2.6864950"/>
            <trkpt lat="51.3862310" lon="-2.6872600"/>
            <trkpt lat="51.3865630" lon="-2.6888160"/>
            <trkpt lat="51.3868190" lon="-2.6896400"/>
            <trkpt lat="51.3869270" lon="-2.6900980"/>
            <trkpt lat="51.3870130" lon="-2.6905700"/>
            <trkpt lat="51.3871150" lon="-2.6913610"/>
            <trkpt lat="51.3872130" lon="-2.6919270"/>
            <trkpt lat="51.3872860" lon="-2.6922240"/>
            <trkpt lat="51.3873710" lon="-2.6924590"/>
            <trkpt lat="51.3875850" lon="-2.6929720"/>
            <trkpt lat="51.3879220" lon="-2.6936040"/>
            <trkpt lat="51.3880990" lon="-2.6940030"/>
            <trkpt lat="51.3881360" lon="-2.6940880"/>
            <trkpt lat="51.3882750" lon="-2.6945670"/>
            <trkpt lat="51.3884600" lon="-2.6952720"/>
            <trkpt lat="51.3885440" lon="-2.6957340"/>
            <trkpt lat="51.3886240" lon="-2.6963550"/>
            <trkpt lat="51.3886250" lon="-2.6969890"/>
            <trkpt lat="51.3885540" lon="-2.6977800"/>
            <trkpt lat="51.3885300" lon="-2.6985580"/>
            <trkpt lat="51.3886240" lon="-2.6990490"/>
            <trkpt lat="51.3887570" lon="-2.6994660"/>
            <trkpt lat="51.3887970" lon="-2.6997280"/>
            <trkpt lat="51.3886310" lon="-2.6997950"/>
            <trkpt lat="51.3884990" lon="-2.6998730"/>
            <trkpt lat="51.3881690" lon="-2.7000870"/>
            <trkpt lat="51.3876570" lon="-2.7004670"/>
            <trkpt lat="51.3877470" lon="-2.7013210"/>
            <trkpt lat="51.3877890" lon="-2.7019830"/>
            <trkpt lat="51.3878140" lon="-2.7023670"/>
            <trkpt lat="51.3878660" lon="-2.7045050"/>
            <trkpt lat="51.3879050" lon="-2.7050370"/>
            <trkpt lat="51.3879860" lon="-2.7056650"/>
            <trkpt lat="51.3886830" lon="-2.7101770"/>
            <trkpt lat="51.3894950" lon="-2.7141200"/>
            <trkpt lat="51.3895740" lon="-2.7144330"/>
            <trkpt lat="51.3897960" lon="-2.7151410"/>
            <trkpt lat="51.3901240" lon="-2.7165270"/>
            <trkpt lat="51.3901500" lon="-2.7167240"/>
            <trkpt lat="51.3901520" lon="-2.7169240"/>
            <trkpt lat="51.3901020" lon="-2.7175830"/>
            <trkpt lat="51.3900740" lon="-2.7213700"/>
            <trkpt lat="51.3902840" lon="-2.7221480"/>
            <trkpt lat="51.3904810" lon="-2.7226870"/>
            <trkpt lat="51.3909950" lon="-2.7235780"/>
            <trkpt lat="51.3913180" lon="-2.7243740"/>
            <trkpt lat="51.3919700" lon="-2.7261220"/>
            <trkpt lat="51.3921100" lon="-2.7263870"/>
            <trkpt lat="51.3925140" lon="-2.7270310"/>
            <trkpt lat="51.3927570" lon="-2.7273900"/>
            <trkpt lat="51.3929190" lon="-2.7276620"/>
            <trkpt lat="51.3930240" lon="-2.7278700"/>
            <trkpt lat="51.3931110" lon="-2.7281740"/>
            <trkpt lat="51.3932110" lon="-2.7287340"/>
            <trkpt lat="51.3932340" lon="-2.7288630"/>
            <trkpt lat="51.3933280" lon="-2.7292520"/>
            <trkpt lat="51.3936490" lon="-2.7301110"/>
            <trkpt lat="51.3939510" lon="-2.7307800"/>
            <trkpt lat="51.3941430" lon="-2.7311500"/>
            <trkpt lat="51.3943260" lon="-2.7314620"/>
            <trkpt lat="51.3945060" lon="-2.7316660"/>
            <trkpt lat="51.3946830" lon="-2.7317940"/>
            <trkpt lat="51.3951570" lon="-2.7319300"/>
            <trkpt lat="51.3953230" lon="-2.7320680"/>
            <trkpt lat="51.3954800" lon="-2.7323060"/>
            <trkpt lat="51.3955430" lon="-2.7324930"/>
            <trkpt lat="51.3955770" lon="-2.7326960"/>
            <trkpt lat="51.3955770" lon="-2.7332890"/>
            <trkpt lat="51.3955010" lon="-2.7338860"/>
            <trkpt lat="51.3954310" lon="-2.7342790"/>
            <trkpt lat="51.3953940" lon="-2.7345860"/>
            <trkpt lat="51.3953910" lon="-2.7350810"/>
            <trkpt lat="51.3954270" lon="-2.7361810"/>
            <trkpt lat="51.3953920" lon="-2.7367320"/>
            <trkpt lat="51.3949680" lon="-2.7383680"/>
            <trkpt lat="51.3947280" lon="-2.7400830"/>
            <trkpt lat="51.3947080" lon="-2.7411470"/>
            <trkpt lat="51.3945980" lon="-2.7419440"/>
            <trkpt lat="51.3943760" lon="-2.7425180"/>
            <trkpt lat="51.3940550" lon="-2.7431050"/>
            <trkpt lat="51.3939430" lon="-2.7433750"/>
            <trkpt lat="51.3938670" lon="-2.7439480"/>
            <trkpt lat="51.3938760" lon="-2.7443640"/>
            <trkpt lat="51.3939010" lon="-2.7448070"/>
            <trkpt lat="51.3939660" lon="-2.7455710"/>
            <trkpt lat="51.3937940" lon="-2.7466180"/>
            <trkpt lat="51.3937640" lon="-2.7471320"/>
            <trkpt lat="51.3938640" lon="-2.7478450"/>
            <trkpt lat="51.3942040" lon="-2.7498690"/>
            <trkpt lat="51.3945020" lon="-2.7507590"/>
            <trkpt lat="51.3946580" lon="-2.7510560"/>
            <trkpt lat="51.3948480" lon="-2.7512710"/>
            <trkpt lat="51.3950160" lon="-2.7514170"/>
            <trkpt lat="51.3952310" lon="-2.7515050"/>
            <trkpt lat="51.3955120" lon="-2.7515920"/>
            <trkpt lat="51.3956820" lon="-2.7517460"/>
            <trkpt lat="51.3957970" lon="-2.7520490"/>
            <trkpt lat="51.3958630" lon="-2.7523530"/>
            <trkpt lat="51.3958240" lon="-2.7526340"/>
            <trkpt lat="51.3955850" lon="-2.7535690"/>
            <trkpt lat="51.3944460" lon="-2.7567290"/>
            <trkpt lat="51.3943900" lon="-2.7571990"/>
            <trkpt lat="51.3944430" lon="-2.7576560"/>
            <trkpt lat="51.3946740" lon="-2.7579810"/>
            <trkpt lat="51.3966150" lon="-2.7592590"/>
            <trkpt lat="51.3972210" lon="-2.7596580"/>
            <trkpt lat="51.3976170" lon="-2.7597100"/>
            <trkpt lat="51.3980180" lon="-2.7597960"/>
            <trkpt lat="51.3987470" lon="-2.7600320"/>
            <trkpt lat="51.3991740" lon="-2.7602690"/>
            <trkpt lat="51.3993110" lon="-2.7603770"/>
            <trkpt lat="51.3994280" lon="-2.7605280"/>
            <trkpt lat="51.4001000" lon="-2.7615660"/>
            <trkpt lat="51.4009820" lon="-2.7625470"/>
            <trkpt lat="51.4010810" lon="-2.7627330"/>
            <trkpt lat="51.4012330" lon="-2.7632470"/>
            <trkpt lat="51.4012970" lon="-2.7635630"/>
            <trkpt lat="51.4013970" lon="-2.7637460"/>
            <trkpt lat="51.4015030" lon="-2.7638730"/>
            <trkpt lat="51.4018380" lon="-2.7641870"/>
            <trkpt lat="51.4024860" lon="-2.7645860"/>
            <trkpt lat="51.4028040" lon="-2.7646110"/>
            <trkpt lat="51.4029900" lon="-2.7647830"/>
            <trkpt lat="51.4031130" lon="-2.7653230"/>
            <trkpt lat="51.4032080" lon="-2.7655050"/>
            <trkpt lat="51.4032950" lon="-2.7657420"/>
            <trkpt lat="51.4033610" lon="-2.7659800"/>
            <trkpt lat="51.4033720" lon="-2.7663090"/>
            <trkpt lat="51.4031540" lon="-2.7672810"/>
            <trkpt lat="51.4030090" lon="-2.7682440"/>
            <trkpt lat="51.4029590" lon="-2.7687760"/>
            <trkpt lat="51.4029310" lon="-2.7698390"/>
            <trkpt lat="51.4028930" lon="-2.7704380"/>
            <trkpt lat="51.4027460" lon="-2.7715810"/>
            <trkpt lat="51.4026730" lon="-2.7720630"/>
            <trkpt lat="51.4025190" lon="-2.7726950"/>
            <trkpt lat="51.4022990" lon="-2.7732330"/>
            <trkpt lat="51.4018850" lon="-2.7741620"/>
            <trkpt lat="51.4014430" lon="-2.7749130"/>
            <trkpt lat="51.4011660" lon="-2.7762540"/>
            <trkpt lat="51.4009980" lon="-2.7768800"/>
            <trkpt lat="51.4005950" lon="-2.7781770"/>
            <trkpt lat="51.4005400" lon="-2.7784770"/>
            <trkpt lat="51.4005100" lon="-2.7789580"/>
            <trkpt lat="51.4005470" lon="-2.7795550"/>
            <trkpt lat="51.4005420" lon="-2.7797990"/>
            <trkpt lat="51.4004620" lon="-2.7806920"/>
            <trkpt lat="51.4002930" lon="-2.7815440"/>
            <trkpt lat="51.4002590" lon="-2.7823970"/>
            <trkpt lat="51.4002620" lon="-2.7847760"/>
            <trkpt lat="51.4002480" lon="-2.7856180"/>
            <trkpt lat="51.4001550" lon="-2.7870350"/>
            <trkpt lat="51.4000790" lon="-2.7875810"/>
            <trkpt lat="51.4000320" lon="-2.7878380"/>
            <trkpt lat="51.4000040" lon="-2.7879880"/>
            <trkpt lat="51.3994770" lon="-2.7877510"/>
            <trkpt lat="51.3990030" lon="-2.7874610"/>
            <trkpt lat="51.3987360" lon="-2.7873890"/>
            <trkpt lat="51.3983400" lon="-2.7874140"/>
            <trkpt lat="51.3975910" lon="-2.7874050"/>
            <trkpt lat="51.3964010" lon="-2.7874700"/>
            <trkpt lat="51.3961600" lon="-2.7875900"/>
            <trkpt lat="51.3959930" lon="-2.7878230"/>
            <trkpt lat="51.3958020" lon="-2.7882380"/>
            <trkpt lat="51.3956570" lon="-2.7887030"/>
            <trkpt lat="51.3954640" lon="-2.7908700"/>
            <trkpt lat="51.3952350" lon="-2.7932040"/>
            <trkpt lat="51.3951840" lon="-2.7938850"/>
            <trkpt lat="51.3951000" lon="-2.7942320"/>
            <trkpt lat="51.3950040" lon="-2.7945050"/>
            <trkpt lat="51.3947710" lon="-2.7949680"/>
            <trkpt lat="51.3942380" lon="-2.7958740"/>
            <trkpt lat="51.3940810" lon="-2.7963050"/>
            <trkpt lat="51.3938350" lon="-2.7971000"/>
            <trkpt lat="51.3937590" lon="-2.7972180"/>
            <trkpt lat="51.3934040" lon="-2.7971980"/>
            <trkpt lat="51.3932240" lon="-2.7971800"/>
            <trkpt lat="51.3929140" lon="-2.7971970"/>
            <trkpt lat="51.3925160" lon="-2.7972780"/>
            <trkpt lat="51.3924100" lon="-2.7972850"/>
            <trkpt lat="51.3923230" lon="-2.7972690"/>
            <trkpt lat="51.3921880" lon="-2.7971970"/>
            <trkpt lat="51.3912840" lon="-2.7965780"/>
            <trkpt lat="51.3912370" lon="-2.7966660"/>
            <trkpt lat="51.3908790" lon="-2.7971720"/>
            <trkpt lat="51.3905500" lon="-2.7976900"/>
            <trkpt lat="51.3903450" lon="-2.7979010"/>
            <trkpt lat="51.3901600" lon="-2.7979010"/>
            <trkpt lat="51.3891240" lon="-2.7976370"/>
            <trkpt lat="51.3888970" lon="-2.7975980"/>
            <trkpt lat="51.3886810" lon="-2.7976560"/>
            <trkpt lat="51.3884200" lon="-2.7977820"/>
            <trkpt lat="51.3878830" lon="-2.7982460"/>
            <trkpt lat="51.3876990" lon="-2.7984560"/>
            <trkpt lat="51.3875130" lon="-2.7987520"/>
            <trkpt lat="51.3872710" lon="-2.7992590"/>
            <trkpt lat="51.3871590" lon="-2.7996060"/>
            <trkpt lat="51.3870560" lon="-2.8000560"/>
            <trkpt lat="51.3865950" lon="-2.8017170"/>
            <trkpt lat="51.3865120" lon="-2.8020810"/>
            <trkpt lat="51.3863870" lon="-2.8032750"/>
            <trkpt lat="51.3862530" lon="-2.8040210"/>
            <trkpt lat="51.3860940" lon="-2.8047630"/>
            <trkpt lat="51.3858700" lon="-2.8054340"/>
            <trkpt lat="51.3855080" lon="-2.8063360"/>
            <trkpt lat="51.3852680" lon="-2.8072000"/>
            <trkpt lat="51.3851970" lon="-2.8078440"/>
            <trkpt lat="51.3851940" lon="-2.8079510"/>
            <trkpt lat="51.3851870" lon="-2.8082920"/>
            <trkpt lat="51.3850960" lon="-2.8089680"/>
            <trkpt lat="51.3848160" lon="-2.8108040"/>
            <trkpt lat="51.3845800" lon="-2.8118560"/>
            <trkpt lat="51.3845010" lon="-2.8121120"/>
            <trkpt lat="51.3843540" lon="-2.8124710"/>
            <trkpt lat="51.3840350" lon="-2.8130950"/>
            <trkpt lat="51.3840400" lon="-2.8132000"/>
            <trkpt lat="51.3841220" lon="-2.8134830"/>
            <trkpt lat="51.3843790" lon="-2.8139150"/>
            <trkpt lat="51.3845550" lon="-2.8142470"/>
            <trkpt lat="51.3846930" lon="-2.8146120"/>
            <trkpt lat="51.3850120" lon="-2.8157990"/>
            <trkpt lat="51.3850850" lon="-2.8160000"/>
            <trkpt lat="51.3854540" lon="-2.8166710"/>
            <trkpt lat="51.3857280" lon="-2.8173640"/>
            <trkpt lat="51.3861780" lon="-2.8181770"/>
            <trkpt lat="51.3863500" lon="-2.8185650"/>
            <trkpt lat="51.3865590" lon="-2.8191260"/>
            <trkpt lat="51.3868320" lon="-2.8200890"/>
            <trkpt lat="51.3869960" lon="-2.8204900"/>
            <trkpt lat="51.3874210" lon="-2.8212510"/>
            <trkpt lat="51.3878600" lon="-2.8219780"/>
            <trkpt lat="51.3882760" lon="-2.8227510"/>
            <trkpt lat="51.3884440" lon="-2.8231060"/>
            <trkpt lat="51.3885780" lon="-2.8234580"/>
            <trkpt lat="51.3887200" lon="-2.8237700"/>
            <trkpt lat="51.3888090" lon="-2.8239120"/>
            <trkpt lat="51.3888870" lon="-2.8240060"/>
            <trkpt lat="51.3890690" lon="-2.8241740"/>
            <trkpt lat="51.3901240" lon="-2.8249710"/>
            <trkpt lat="51.3912170" lon="-2.8257150"/>
            <trkpt lat="51.3913480" lon="-2.8253060"/>
        </trkseg>
    </trk>
</gpx>
