<?xml version="1.0" encoding="UTF-8" standalone="yes"?>
<gpx version="1.1" creator="OS Maps - Web" xmlns="http://www.topografix.com/GPX/1/1"
xmlns:xsi="http://www.w3.org/2001/XMLSchema-instance"
xsi:schemaLocation="http://www.topografix.com/GPX/1/1 http://www.topografix.com/GPX/1/1/gpx.xsd"
xmlns:gs="http://www.topografix.com/GPX/gpx_style/0/2"
xmlns:gh="https://graphhopper.com/public/schema/gpx/1.1"
xmlns:os="https://ordnancesurvey.co.uk/public/schema/route/0.1">
    <metadata>
        <name>Sustrans: Devon Coast to Coast</name>
        <desc>This route is part of the National Cycle Network, a network of signed paths and routes for walking, cycling and exploring outdoors. Data supplied by Sustrans. &lt;a href="https://www.sustrans.org.uk/find-a-route-on-the-national-cycle-network/devon-coast-to-coast/" rel="nofollow"&gt;Visit Sustrans to view route description.&lt;/a&gt;</desc>
        <bounds minlat="50.3618890" minlon="-4.2028440" maxlat="51.2108670" maxlon="-3.9950420"/>
    </metadata>
    <wpt lat="50.3671940" lon="-4.1581710"/>
    <wpt lat="51.2108670" lon="-4.1111410"/>
    <trk>
        <name>Sustrans: Devon Coast to Coast</name>
        <trkseg>
            <trkpt lat="50.3671940" lon="-4.1581710"/>
            <trkpt lat="50.3674420" lon="-4.1569300"/>
            <trkpt lat="50.3678190" lon="-4.1555130"/>
            <trkpt lat="50.3681330" lon="-4.1550400"/>
            <trkpt lat="50.3681830" lon="-4.1547980"/>
            <trkpt lat="50.3681730" lon="-4.1538840"/>
            <trkpt lat="50.3679810" lon="-4.1530380"/>
            <trkpt lat="50.3677880" lon="-4.1513630"/>
            <trkpt lat="50.3677990" lon="-4.1507370"/>
            <trkpt lat="50.3676500" lon="-4.1507760"/>
            <trkpt lat="50.3675840" lon="-4.1507070"/>
            <trkpt lat="50.3675700" lon="-4.1509880"/>
            <trkpt lat="50.3674850" lon="-4.1511950"/>
            <trkpt lat="50.3667700" lon="-4.1519080"/>
            <trkpt lat="50.3659680" lon="-4.1515480"/>
            <trkpt lat="50.3648690" lon="-4.1506410"/>
            <trkpt lat="50.3631000" lon="-4.1480440"/>
            <trkpt lat="50.3642770" lon="-4.1461180"/>
            <trkpt lat="50.3643990" lon="-4.1453090"/>
            <trkpt lat="50.3643360" lon="-4.1446180"/>
            <trkpt lat="50.3641650" lon="-4.1438530"/>
            <trkpt lat="50.3639500" lon="-4.1432640"/>
            <trkpt lat="50.3636880" lon="-4.1428290"/>
            <trkpt lat="50.3636060" lon="-4.1424870"/>
            <trkpt lat="50.3637010" lon="-4.1419440"/>
            <trkpt lat="50.3639530" lon="-4.1416160"/>
            <trkpt lat="50.3642000" lon="-4.1409940"/>
            <trkpt lat="50.3640150" lon="-4.1399010"/>
            <trkpt lat="50.3636160" lon="-4.1390540"/>
            <trkpt lat="50.3635070" lon="-4.1386690"/>
            <trkpt lat="50.3634640" lon="-4.1375850"/>
            <trkpt lat="50.3632340" lon="-4.1368710"/>
            <trkpt lat="50.3632420" lon="-4.1364500"/>
            <trkpt lat="50.3633690" lon="-4.1358790"/>
            <trkpt lat="50.3632980" lon="-4.1348490"/>
            <trkpt lat="50.3633760" lon="-4.1345150"/>
            <trkpt lat="50.3635220" lon="-4.1344240"/>
            <trkpt lat="50.3645620" lon="-4.1349210"/>
            <trkpt lat="50.3645810" lon="-4.1347790"/>
            <trkpt lat="50.3646760" lon="-4.1346600"/>
            <trkpt lat="50.3654270" lon="-4.1344950"/>
            <trkpt lat="50.3661630" lon="-4.1340780"/>
            <trkpt lat="50.3664030" lon="-4.1332110"/>
            <trkpt lat="50.3665660" lon="-4.1310960"/>
            <trkpt lat="50.3665430" lon="-4.1307950"/>
            <trkpt lat="50.3663910" lon="-4.1306260"/>
            <trkpt lat="50.3663090" lon="-4.1300750"/>
            <trkpt lat="50.3664150" lon="-4.1298180"/>
            <trkpt lat="50.3659950" lon="-4.1261910"/>
            <trkpt lat="50.3658150" lon="-4.1259710"/>
            <trkpt lat="50.3659900" lon="-4.1248360"/>
            <trkpt lat="50.3657100" lon="-4.1244400"/>
            <trkpt lat="50.3655260" lon="-4.1243550"/>
            <trkpt lat="50.3650210" lon="-4.1237620"/>
            <trkpt lat="50.3638420" lon="-4.1228380"/>
            <trkpt lat="50.3638170" lon="-4.1226820"/>
            <trkpt lat="50.3639060" lon="-4.1222640"/>
            <trkpt lat="50.3637250" lon="-4.1218340"/>
            <trkpt lat="50.3625920" lon="-4.1217840"/>
            <trkpt lat="50.3620270" lon="-4.1212100"/>
            <trkpt lat="50.3619410" lon="-4.1210230"/>
            <trkpt lat="50.3618890" lon="-4.1198140"/>
            <trkpt lat="50.3623020" lon="-4.1160200"/>
            <trkpt lat="50.3624120" lon="-4.1158840"/>
            <trkpt lat="50.3627080" lon="-4.1159110"/>
            <trkpt lat="50.3629090" lon="-4.1157800"/>
            <trkpt lat="50.3632890" lon="-4.1151150"/>
            <trkpt lat="50.3631790" lon="-4.1144120"/>
            <trkpt lat="50.3649860" lon="-4.1130140"/>
            <trkpt lat="50.3652280" lon="-4.1127400"/>
            <trkpt lat="50.3657330" lon="-4.1128170"/>
            <trkpt lat="50.3659430" lon="-4.1124070"/>
            <trkpt lat="50.3663810" lon="-4.1120020"/>
            <trkpt lat="50.3666600" lon="-4.1118640"/>
            <trkpt lat="50.3669950" lon="-4.1118240"/>
            <trkpt lat="50.3672020" lon="-4.1119530"/>
            <trkpt lat="50.3673550" lon="-4.1118580"/>
            <trkpt lat="50.3679980" lon="-4.1118740"/>
            <trkpt lat="50.3688700" lon="-4.1110860"/>
            <trkpt lat="50.3696560" lon="-4.1106080"/>
            <trkpt lat="50.3697370" lon="-4.1104800"/>
            <trkpt lat="50.3695600" lon="-4.1101060"/>
            <trkpt lat="50.3696920" lon="-4.1099110"/>
            <trkpt lat="50.3692470" lon="-4.1090190"/>
            <trkpt lat="50.3685790" lon="-4.1068600"/>
            <trkpt lat="50.3686520" lon="-4.1067790"/>
            <trkpt lat="50.3687360" lon="-4.1069350"/>
            <trkpt lat="50.3696100" lon="-4.1057470"/>
            <trkpt lat="50.3702730" lon="-4.1044870"/>
            <trkpt lat="50.3704560" lon="-4.1038990"/>
            <trkpt lat="50.3709000" lon="-4.1035680"/>
            <trkpt lat="50.3716340" lon="-4.1031920"/>
            <trkpt lat="50.3718210" lon="-4.1029360"/>
            <trkpt lat="50.3724290" lon="-4.1025670"/>
            <trkpt lat="50.3724000" lon="-4.1024530"/>
            <trkpt lat="50.3779140" lon="-4.0996120"/>
            <trkpt lat="50.3783460" lon="-4.0986730"/>
            <trkpt lat="50.3784470" lon="-4.0990180"/>
            <trkpt lat="50.3792970" lon="-4.0990290"/>
            <trkpt lat="50.3795730" lon="-4.0992130"/>
            <trkpt lat="50.3796980" lon="-4.0992030"/>
            <trkpt lat="50.3802420" lon="-4.0977250"/>
            <trkpt lat="50.3803900" lon="-4.0967430"/>
            <trkpt lat="50.3808900" lon="-4.0957270"/>
            <trkpt lat="50.3813730" lon="-4.0942690"/>
            <trkpt lat="50.3816400" lon="-4.0938630"/>
            <trkpt lat="50.3820820" lon="-4.0922710"/>
            <trkpt lat="50.3823270" lon="-4.0907780"/>
            <trkpt lat="50.3825830" lon="-4.0897600"/>
            <trkpt lat="50.3835360" lon="-4.0873330"/>
            <trkpt lat="50.3836540" lon="-4.0864860"/>
            <trkpt lat="50.3836600" lon="-4.0858150"/>
            <trkpt lat="50.3835280" lon="-4.0853150"/>
            <trkpt lat="50.3834840" lon="-4.0844990"/>
            <trkpt lat="50.3836540" lon="-4.0838340"/>
            <trkpt lat="50.3840760" lon="-4.0833180"/>
            <trkpt lat="50.3842830" lon="-4.0827570"/>
            <trkpt lat="50.3849570" lon="-4.0836830"/>
            <trkpt lat="50.3854140" lon="-4.0839630"/>
            <trkpt lat="50.3856340" lon="-4.0839560"/>
            <trkpt lat="50.3861790" lon="-4.0837010"/>
            <trkpt lat="50.3864700" lon="-4.0834280"/>
            <trkpt lat="50.3866800" lon="-4.0830340"/>
            <trkpt lat="50.3876420" lon="-4.0830940"/>
            <trkpt lat="50.3881720" lon="-4.0832340"/>
            <trkpt lat="50.3886870" lon="-4.0835920"/>
            <trkpt lat="50.3898200" lon="-4.0848760"/>
            <trkpt lat="50.3903590" lon="-4.0847280"/>
            <trkpt lat="50.3907110" lon="-4.0849400"/>
            <trkpt lat="50.3916330" lon="-4.0841060"/>
            <trkpt lat="50.3914220" lon="-4.0821570"/>
            <trkpt lat="50.3915660" lon="-4.0821390"/>
            <trkpt lat="50.3915810" lon="-4.0819460"/>
            <trkpt lat="50.3922410" lon="-4.0817230"/>
            <trkpt lat="50.3931740" lon="-4.0816900"/>
            <trkpt lat="50.3941720" lon="-4.0822630"/>
            <trkpt lat="50.3944740" lon="-4.0825730"/>
            <trkpt lat="50.3945520" lon="-4.0827650"/>
            <trkpt lat="50.3949510" lon="-4.0830980"/>
            <trkpt lat="50.3956830" lon="-4.0834140"/>
            <trkpt lat="50.3961550" lon="-4.0837580"/>
            <trkpt lat="50.3969760" lon="-4.0836710"/>
            <trkpt lat="50.3988220" lon="-4.0846200"/>
            <trkpt lat="50.3998380" lon="-4.0856380"/>
            <trkpt lat="50.4002670" lon="-4.0859120"/>
            <trkpt lat="50.4006260" lon="-4.0862800"/>
            <trkpt lat="50.4014090" lon="-4.0873070"/>
            <trkpt lat="50.4015920" lon="-4.0873530"/>
            <trkpt lat="50.4018640" lon="-4.0871440"/>
            <trkpt lat="50.4023330" lon="-4.0863770"/>
            <trkpt lat="50.4037850" lon="-4.0858820"/>
            <trkpt lat="50.4041800" lon="-4.0856180"/>
            <trkpt lat="50.4041440" lon="-4.0855180"/>
            <trkpt lat="50.4046790" lon="-4.0850320"/>
            <trkpt lat="50.4054410" lon="-4.0840800"/>
            <trkpt lat="50.4063250" lon="-4.0834750"/>
            <trkpt lat="50.4073100" lon="-4.0825590"/>
            <trkpt lat="50.4075070" lon="-4.0822910"/>
            <trkpt lat="50.4078650" lon="-4.0814380"/>
            <trkpt lat="50.4081280" lon="-4.0797820"/>
            <trkpt lat="50.4085970" lon="-4.0787260"/>
            <trkpt lat="50.4088160" lon="-4.0785390"/>
            <trkpt lat="50.4089440" lon="-4.0785370"/>
            <trkpt lat="50.4088970" lon="-4.0789580"/>
            <trkpt lat="50.4094540" lon="-4.0780120"/>
            <trkpt lat="50.4102980" lon="-4.0770950"/>
            <trkpt lat="50.4113390" lon="-4.0765160"/>
            <trkpt lat="50.4124650" lon="-4.0762410"/>
            <trkpt lat="50.4133960" lon="-4.0764670"/>
            <trkpt lat="50.4142180" lon="-4.0770050"/>
            <trkpt lat="50.4146900" lon="-4.0774800"/>
            <trkpt lat="50.4160720" lon="-4.0793880"/>
            <trkpt lat="50.4164590" lon="-4.0797270"/>
            <trkpt lat="50.4186670" lon="-4.0807560"/>
            <trkpt lat="50.4197020" lon="-4.0813320"/>
            <trkpt lat="50.4228260" lon="-4.0838160"/>
            <trkpt lat="50.4246000" lon="-4.0848470"/>
            <trkpt lat="50.4259790" lon="-4.0858640"/>
            <trkpt lat="50.4265930" lon="-4.0862270"/>
            <trkpt lat="50.4276310" lon="-4.0865160"/>
            <trkpt lat="50.4283300" lon="-4.0864900"/>
            <trkpt lat="50.4293070" lon="-4.0861280"/>
            <trkpt lat="50.4337200" lon="-4.0830840"/>
            <trkpt lat="50.4360090" lon="-4.0813770"/>
            <trkpt lat="50.4366800" lon="-4.0805310"/>
            <trkpt lat="50.4377100" lon="-4.0787760"/>
            <trkpt lat="50.4382280" lon="-4.0780530"/>
            <trkpt lat="50.4387410" lon="-4.0774570"/>
            <trkpt lat="50.4393260" lon="-4.0770220"/>
            <trkpt lat="50.4399760" lon="-4.0767330"/>
            <trkpt lat="50.4410210" lon="-4.0766910"/>
            <trkpt lat="50.4422390" lon="-4.0770930"/>
            <trkpt lat="50.4432250" lon="-4.0776230"/>
            <trkpt lat="50.4437100" lon="-4.0779980"/>
            <trkpt lat="50.4447550" lon="-4.0781860"/>
            <trkpt lat="50.4449300" lon="-4.0784310"/>
            <trkpt lat="50.4458830" lon="-4.0782850"/>
            <trkpt lat="50.4466080" lon="-4.0779960"/>
            <trkpt lat="50.4476000" lon="-4.0772900"/>
            <trkpt lat="50.4485120" lon="-4.0764480"/>
            <trkpt lat="50.4490420" lon="-4.0762410"/>
            <trkpt lat="50.4518650" lon="-4.0758390"/>
            <trkpt lat="50.4539450" lon="-4.0757970"/>
            <trkpt lat="50.4547000" lon="-4.0754770"/>
            <trkpt lat="50.4552920" lon="-4.0749910"/>
            <trkpt lat="50.4559260" lon="-4.0742030"/>
            <trkpt lat="50.4570530" lon="-4.0725900"/>
            <trkpt lat="50.4580700" lon="-4.0717890"/>
            <trkpt lat="50.4583890" lon="-4.0716790"/>
            <trkpt lat="50.4599810" lon="-4.0718190"/>
            <trkpt lat="50.4607830" lon="-4.0723360"/>
            <trkpt lat="50.4621260" lon="-4.0738090"/>
            <trkpt lat="50.4632820" lon="-4.0757480"/>
            <trkpt lat="50.4640280" lon="-4.0766320"/>
            <trkpt lat="50.4648850" lon="-4.0772620"/>
            <trkpt lat="50.4658310" lon="-4.0776190"/>
            <trkpt lat="50.4669220" lon="-4.0781910"/>
            <trkpt lat="50.4678460" lon="-4.0788410"/>
            <trkpt lat="50.4688530" lon="-4.0797790"/>
            <trkpt lat="50.4696120" lon="-4.0800460"/>
            <trkpt lat="50.4704890" lon="-4.0801920"/>
            <trkpt lat="50.4706780" lon="-4.0803620"/>
            <trkpt lat="50.4708650" lon="-4.0807600"/>
            <trkpt lat="50.4711050" lon="-4.0810680"/>
            <trkpt lat="50.4712610" lon="-4.0815460"/>
            <trkpt lat="50.4713950" lon="-4.0816720"/>
            <trkpt lat="50.4714240" lon="-4.0824630"/>
            <trkpt lat="50.4713220" lon="-4.0836400"/>
            <trkpt lat="50.4714070" lon="-4.0838530"/>
            <trkpt lat="50.4707410" lon="-4.0855250"/>
            <trkpt lat="50.4704550" lon="-4.0859910"/>
            <trkpt lat="50.4668650" lon="-4.0890190"/>
            <trkpt lat="50.4675510" lon="-4.0912280"/>
            <trkpt lat="50.4682660" lon="-4.0927260"/>
            <trkpt lat="50.4685380" lon="-4.0930110"/>
            <trkpt lat="50.4687390" lon="-4.0930500"/>
            <trkpt lat="50.4690070" lon="-4.0929420"/>
            <trkpt lat="50.4702160" lon="-4.0914280"/>
            <trkpt lat="50.4711330" lon="-4.0906700"/>
            <trkpt lat="50.4718720" lon="-4.0895050"/>
            <trkpt lat="50.4723770" lon="-4.0889400"/>
            <trkpt lat="50.4734450" lon="-4.0884750"/>
            <trkpt lat="50.4736080" lon="-4.0884820"/>
            <trkpt lat="50.4746490" lon="-4.0894470"/>
            <trkpt lat="50.4751920" lon="-4.0896350"/>
            <trkpt lat="50.4754480" lon="-4.0895180"/>
            <trkpt lat="50.4757250" lon="-4.0892330"/>
            <trkpt lat="50.4762900" lon="-4.0878550"/>
            <trkpt lat="50.4767460" lon="-4.0874610"/>
            <trkpt lat="50.4769280" lon="-4.0874890"/>
            <trkpt lat="50.4777490" lon="-4.0879780"/>
            <trkpt lat="50.4781810" lon="-4.0880600"/>
            <trkpt lat="50.4785840" lon="-4.0879600"/>
            <trkpt lat="50.4791600" lon="-4.0875560"/>
            <trkpt lat="50.4796160" lon="-4.0874080"/>
            <trkpt lat="50.4804210" lon="-4.0875880"/>
            <trkpt lat="50.4819740" lon="-4.0874570"/>
            <trkpt lat="50.4824480" lon="-4.0875680"/>
            <trkpt lat="50.4829990" lon="-4.0879750"/>
            <trkpt lat="50.4833330" lon="-4.0883930"/>
            <trkpt lat="50.4836620" lon="-4.0889850"/>
            <trkpt lat="50.4840820" lon="-4.0899850"/>
            <trkpt lat="50.4844460" lon="-4.0905280"/>
            <trkpt lat="50.4851990" lon="-4.0912630"/>
            <trkpt lat="50.4856090" lon="-4.0914360"/>
            <trkpt lat="50.4856320" lon="-4.0916800"/>
            <trkpt lat="50.4858220" lon="-4.0917680"/>
            <trkpt lat="50.4862600" lon="-4.0915080"/>
            <trkpt lat="50.4870660" lon="-4.0915870"/>
            <trkpt lat="50.4871470" lon="-4.0915430"/>
            <trkpt lat="50.4871460" lon="-4.0914090"/>
            <trkpt lat="50.4884860" lon="-4.0903450"/>
            <trkpt lat="50.4892140" lon="-4.0900380"/>
            <trkpt lat="50.4897010" lon="-4.0896990"/>
            <trkpt lat="50.4907060" lon="-4.0880740"/>
            <trkpt lat="50.4907360" lon="-4.0878860"/>
            <trkpt lat="50.4909480" lon="-4.0877120"/>
            <trkpt lat="50.4913640" lon="-4.0867900"/>
            <trkpt lat="50.4914280" lon="-4.0867890"/>
            <trkpt lat="50.4915340" lon="-4.0869990"/>
            <trkpt lat="50.4916600" lon="-4.0867000"/>
            <trkpt lat="50.4919960" lon="-4.0870240"/>
            <trkpt lat="50.4921290" lon="-4.0872690"/>
            <trkpt lat="50.4923520" lon="-4.0880800"/>
            <trkpt lat="50.4924600" lon="-4.0896320"/>
            <trkpt lat="50.4924090" lon="-4.0897770"/>
            <trkpt lat="50.4922420" lon="-4.0898310"/>
            <trkpt lat="50.4924360" lon="-4.0924620"/>
            <trkpt lat="50.4925110" lon="-4.0928040"/>
            <trkpt lat="50.4928150" lon="-4.0930780"/>
            <trkpt lat="50.4931180" lon="-4.0962110"/>
            <trkpt lat="50.4931770" lon="-4.0963770"/>
            <trkpt lat="50.4935080" lon="-4.0967290"/>
            <trkpt lat="50.4949270" lon="-4.0978260"/>
            <trkpt lat="50.4950980" lon="-4.0978150"/>
            <trkpt lat="50.4954190" lon="-4.0976160"/>
            <trkpt lat="50.4957220" lon="-4.0976430"/>
            <trkpt lat="50.4965510" lon="-4.0980400"/>
            <trkpt lat="50.4972070" lon="-4.0981080"/>
            <trkpt lat="50.4977800" lon="-4.0983240"/>
            <trkpt lat="50.4986860" lon="-4.0991000"/>
            <trkpt lat="50.5001720" lon="-4.1007050"/>
            <trkpt lat="50.5008050" lon="-4.1011430"/>
            <trkpt lat="50.5014890" lon="-4.1011780"/>
            <trkpt lat="50.5017880" lon="-4.1015520"/>
            <trkpt lat="50.5019720" lon="-4.1016550"/>
            <trkpt lat="50.5021020" lon="-4.1018830"/>
            <trkpt lat="50.5024070" lon="-4.1015770"/>
            <trkpt lat="50.5025340" lon="-4.1015620"/>
            <trkpt lat="50.5029080" lon="-4.1011380"/>
            <trkpt lat="50.5036860" lon="-4.1008380"/>
            <trkpt lat="50.5037550" lon="-4.1006630"/>
            <trkpt lat="50.5046550" lon="-4.1005180"/>
            <trkpt lat="50.5052140" lon="-4.1009960"/>
            <trkpt lat="50.5055530" lon="-4.1014340"/>
            <trkpt lat="50.5057430" lon="-4.1017210"/>
            <trkpt lat="50.5058750" lon="-4.1022190"/>
            <trkpt lat="50.5063770" lon="-4.1028290"/>
            <trkpt lat="50.5073620" lon="-4.1045130"/>
            <trkpt lat="50.5080550" lon="-4.1053900"/>
            <trkpt lat="50.5094910" lon="-4.1069180"/>
            <trkpt lat="50.5098730" lon="-4.1075740"/>
            <trkpt lat="50.5102930" lon="-4.1086680"/>
            <trkpt lat="50.5120820" lon="-4.1153980"/>
            <trkpt lat="50.5123320" lon="-4.1168930"/>
            <trkpt lat="50.5125730" lon="-4.1197250"/>
            <trkpt lat="50.5127180" lon="-4.1205620"/>
            <trkpt lat="50.5129400" lon="-4.1212600"/>
            <trkpt lat="50.5138620" lon="-4.1230970"/>
            <trkpt lat="50.5157270" lon="-4.1246620"/>
            <trkpt lat="50.5162770" lon="-4.1250320"/>
            <trkpt lat="50.5165460" lon="-4.1256410"/>
            <trkpt lat="50.5171630" lon="-4.1258370"/>
            <trkpt lat="50.5175470" lon="-4.1262550"/>
            <trkpt lat="50.5179440" lon="-4.1262980"/>
            <trkpt lat="50.5180890" lon="-4.1261600"/>
            <trkpt lat="50.5183210" lon="-4.1257330"/>
            <trkpt lat="50.5184890" lon="-4.1255890"/>
            <trkpt lat="50.5195850" lon="-4.1251710"/>
            <trkpt lat="50.5203390" lon="-4.1250550"/>
            <trkpt lat="50.5213910" lon="-4.1251080"/>
            <trkpt lat="50.5221380" lon="-4.1254240"/>
            <trkpt lat="50.5254140" lon="-4.1272190"/>
            <trkpt lat="50.5266350" lon="-4.1281710"/>
            <trkpt lat="50.5283100" lon="-4.1299770"/>
            <trkpt lat="50.5283790" lon="-4.1308290"/>
            <trkpt lat="50.5288150" lon="-4.1316810"/>
            <trkpt lat="50.5293790" lon="-4.1322360"/>
            <trkpt lat="50.5300180" lon="-4.1333390"/>
            <trkpt lat="50.5300590" lon="-4.1335850"/>
            <trkpt lat="50.5303080" lon="-4.1336740"/>
            <trkpt lat="50.5305760" lon="-4.1342190"/>
            <trkpt lat="50.5308970" lon="-4.1344230"/>
            <trkpt lat="50.5310460" lon="-4.1346500"/>
            <trkpt lat="50.5314830" lon="-4.1350170"/>
            <trkpt lat="50.5318080" lon="-4.1350980"/>
            <trkpt lat="50.5322880" lon="-4.1350140"/>
            <trkpt lat="50.5325970" lon="-4.1355260"/>
            <trkpt lat="50.5327470" lon="-4.1355260"/>
            <trkpt lat="50.5331690" lon="-4.1358700"/>
            <trkpt lat="50.5333700" lon="-4.1358920"/>
            <trkpt lat="50.5337200" lon="-4.1362930"/>
            <trkpt lat="50.5339680" lon="-4.1361380"/>
            <trkpt lat="50.5341560" lon="-4.1369070"/>
            <trkpt lat="50.5343140" lon="-4.1371130"/>
            <trkpt lat="50.5344900" lon="-4.1377860"/>
            <trkpt lat="50.5344700" lon="-4.1382330"/>
            <trkpt lat="50.5346070" lon="-4.1382960"/>
            <trkpt lat="50.5349110" lon="-4.1387920"/>
            <trkpt lat="50.5351950" lon="-4.1390300"/>
            <trkpt lat="50.5353480" lon="-4.1390460"/>
            <trkpt lat="50.5354440" lon="-4.1397590"/>
            <trkpt lat="50.5361490" lon="-4.1415690"/>
            <trkpt lat="50.5360410" lon="-4.1416470"/>
            <trkpt lat="50.5365060" lon="-4.1427620"/>
            <trkpt lat="50.5368750" lon="-4.1434640"/>
            <trkpt lat="50.5372200" lon="-4.1448070"/>
            <trkpt lat="50.5375110" lon="-4.1454180"/>
            <trkpt lat="50.5374010" lon="-4.1455680"/>
            <trkpt lat="50.5379520" lon="-4.1467500"/>
            <trkpt lat="50.5380180" lon="-4.1477040"/>
            <trkpt lat="50.5382220" lon="-4.1479240"/>
            <trkpt lat="50.5382390" lon="-4.1480440"/>
            <trkpt lat="50.5380200" lon="-4.1492350"/>
            <trkpt lat="50.5382810" lon="-4.1492050"/>
            <trkpt lat="50.5382260" lon="-4.1511420"/>
            <trkpt lat="50.5385280" lon="-4.1524040"/>
            <trkpt lat="50.5384650" lon="-4.1524640"/>
            <trkpt lat="50.5386640" lon="-4.1533790"/>
            <trkpt lat="50.5392630" lon="-4.1535270"/>
            <trkpt lat="50.5398610" lon="-4.1540070"/>
            <trkpt lat="50.5402530" lon="-4.1553670"/>
            <trkpt lat="50.5405780" lon="-4.1558570"/>
            <trkpt lat="50.5408090" lon="-4.1559120"/>
            <trkpt lat="50.5410140" lon="-4.1557320"/>
            <trkpt lat="50.5418470" lon="-4.1553480"/>
            <trkpt lat="50.5443840" lon="-4.1528310"/>
            <trkpt lat="50.5445300" lon="-4.1525430"/>
            <trkpt lat="50.5451120" lon="-4.1502040"/>
            <trkpt lat="50.5451050" lon="-4.1498890"/>
            <trkpt lat="50.5461380" lon="-4.1482810"/>
            <trkpt lat="50.5458930" lon="-4.1479610"/>
            <trkpt lat="50.5461940" lon="-4.1471440"/>
            <trkpt lat="50.5467720" lon="-4.1459900"/>
            <trkpt lat="50.5476350" lon="-4.1448660"/>
            <trkpt lat="50.5486300" lon="-4.1433130"/>
            <trkpt lat="50.5489070" lon="-4.1432650"/>
            <trkpt lat="50.5489890" lon="-4.1435790"/>
            <trkpt lat="50.5491200" lon="-4.1437690"/>
            <trkpt lat="50.5518380" lon="-4.1432000"/>
            <trkpt lat="50.5526620" lon="-4.1413900"/>
            <trkpt lat="50.5530510" lon="-4.1408550"/>
            <trkpt lat="50.5532820" lon="-4.1407400"/>
            <trkpt lat="50.5537460" lon="-4.1402230"/>
            <trkpt lat="50.5542260" lon="-4.1390310"/>
            <trkpt lat="50.5544600" lon="-4.1387050"/>
            <trkpt lat="50.5550960" lon="-4.1382370"/>
            <trkpt lat="50.5565940" lon="-4.1379240"/>
            <trkpt lat="50.5570980" lon="-4.1374380"/>
            <trkpt lat="50.5573020" lon="-4.1371230"/>
            <trkpt lat="50.5575570" lon="-4.1364280"/>
            <trkpt lat="50.5578720" lon="-4.1346350"/>
            <trkpt lat="50.5577230" lon="-4.1345510"/>
            <trkpt lat="50.5577600" lon="-4.1343920"/>
            <trkpt lat="50.5585940" lon="-4.1330800"/>
            <trkpt lat="50.5590870" lon="-4.1324400"/>
            <trkpt lat="50.5597950" lon="-4.1316830"/>
            <trkpt lat="50.5607960" lon="-4.1308330"/>
            <trkpt lat="50.5608160" lon="-4.1304440"/>
            <trkpt lat="50.5609140" lon="-4.1302350"/>
            <trkpt lat="50.5613380" lon="-4.1300930"/>
            <trkpt lat="50.5613530" lon="-4.1299720"/>
            <trkpt lat="50.5619830" lon="-4.1299920"/>
            <trkpt lat="50.5632800" lon="-4.1296580"/>
            <trkpt lat="50.5641490" lon="-4.1290990"/>
            <trkpt lat="50.5649390" lon="-4.1287270"/>
            <trkpt lat="50.5651780" lon="-4.1284270"/>
            <trkpt lat="50.5655870" lon="-4.1284170"/>
            <trkpt lat="50.5665100" lon="-4.1278940"/>
            <trkpt lat="50.5666600" lon="-4.1275900"/>
            <trkpt lat="50.5667530" lon="-4.1269160"/>
            <trkpt lat="50.5645070" lon="-4.1251290"/>
            <trkpt lat="50.5655420" lon="-4.1237730"/>
            <trkpt lat="50.5665720" lon="-4.1217960"/>
            <trkpt lat="50.5672580" lon="-4.1210580"/>
            <trkpt lat="50.5677190" lon="-4.1204060"/>
            <trkpt lat="50.5683120" lon="-4.1199470"/>
            <trkpt lat="50.5696560" lon="-4.1193210"/>
            <trkpt lat="50.5699120" lon="-4.1185510"/>
            <trkpt lat="50.5696230" lon="-4.1185140"/>
            <trkpt lat="50.5695670" lon="-4.1182630"/>
            <trkpt lat="50.5697190" lon="-4.1177280"/>
            <trkpt lat="50.5702140" lon="-4.1166730"/>
            <trkpt lat="50.5707290" lon="-4.1160460"/>
            <trkpt lat="50.5710270" lon="-4.1157930"/>
            <trkpt lat="50.5710500" lon="-4.1156540"/>
            <trkpt lat="50.5711170" lon="-4.1156750"/>
            <trkpt lat="50.5715260" lon="-4.1137000"/>
            <trkpt lat="50.5715660" lon="-4.1123420"/>
            <trkpt lat="50.5714240" lon="-4.1119020"/>
            <trkpt lat="50.5713470" lon="-4.1112040"/>
            <trkpt lat="50.5714480" lon="-4.1104040"/>
            <trkpt lat="50.5720530" lon="-4.1079890"/>
            <trkpt lat="50.5720560" lon="-4.1058140"/>
            <trkpt lat="50.5727980" lon="-4.1051960"/>
            <trkpt lat="50.5733340" lon="-4.1050220"/>
            <trkpt lat="50.5736760" lon="-4.1046500"/>
            <trkpt lat="50.5745170" lon="-4.1047260"/>
            <trkpt lat="50.5759490" lon="-4.1039440"/>
            <trkpt lat="50.5761440" lon="-4.1037310"/>
            <trkpt lat="50.5767180" lon="-4.1021520"/>
            <trkpt lat="50.5782350" lon="-4.1001140"/>
            <trkpt lat="50.5790410" lon="-4.1001820"/>
            <trkpt lat="50.5792180" lon="-4.1003940"/>
            <trkpt lat="50.5796680" lon="-4.1005850"/>
            <trkpt lat="50.5798050" lon="-4.1007990"/>
            <trkpt lat="50.5805040" lon="-4.1027020"/>
            <trkpt lat="50.5805720" lon="-4.1035860"/>
            <trkpt lat="50.5807240" lon="-4.1035870"/>
            <trkpt lat="50.5811980" lon="-4.1040090"/>
            <trkpt lat="50.5815130" lon="-4.1041400"/>
            <trkpt lat="50.5816140" lon="-4.1042950"/>
            <trkpt lat="50.5817090" lon="-4.1046750"/>
            <trkpt lat="50.5819100" lon="-4.1049570"/>
            <trkpt lat="50.5823980" lon="-4.1052590"/>
            <trkpt lat="50.5832850" lon="-4.1060680"/>
            <trkpt lat="50.5841950" lon="-4.1061210"/>
            <trkpt lat="50.5847420" lon="-4.1063940"/>
            <trkpt lat="50.5853020" lon="-4.1064980"/>
            <trkpt lat="50.5857350" lon="-4.1063380"/>
            <trkpt lat="50.5864820" lon="-4.1056240"/>
            <trkpt lat="50.5865980" lon="-4.1056160"/>
            <trkpt lat="50.5866920" lon="-4.1058170"/>
            <trkpt lat="50.5871800" lon="-4.1058520"/>
            <trkpt lat="50.5873220" lon="-4.1061100"/>
            <trkpt lat="50.5873160" lon="-4.1062240"/>
            <trkpt lat="50.5871170" lon="-4.1068000"/>
            <trkpt lat="50.5874980" lon="-4.1074010"/>
            <trkpt lat="50.5877720" lon="-4.1076380"/>
            <trkpt lat="50.5883700" lon="-4.1078170"/>
            <trkpt lat="50.5892090" lon="-4.1077950"/>
            <trkpt lat="50.5901380" lon="-4.1086280"/>
            <trkpt lat="50.5905940" lon="-4.1094870"/>
            <trkpt lat="50.5912270" lon="-4.1096320"/>
            <trkpt lat="50.5917780" lon="-4.1099720"/>
            <trkpt lat="50.5922810" lon="-4.1104750"/>
            <trkpt lat="50.5939260" lon="-4.1115100"/>
            <trkpt lat="50.5951370" lon="-4.1125960"/>
            <trkpt lat="50.5952710" lon="-4.1128900"/>
            <trkpt lat="50.5952890" lon="-4.1136150"/>
            <trkpt lat="50.5959810" lon="-4.1142720"/>
            <trkpt lat="50.5969600" lon="-4.1170320"/>
            <trkpt lat="50.5964440" lon="-4.1187610"/>
            <trkpt lat="50.5963140" lon="-4.1188860"/>
            <trkpt lat="50.5963320" lon="-4.1191210"/>
            <trkpt lat="50.5981100" lon="-4.1213060"/>
            <trkpt lat="50.6003250" lon="-4.1247690"/>
            <trkpt lat="50.6005480" lon="-4.1253440"/>
            <trkpt lat="50.6006130" lon="-4.1260840"/>
            <trkpt lat="50.6005030" lon="-4.1358770"/>
            <trkpt lat="50.6006090" lon="-4.1371400"/>
            <trkpt lat="50.6007460" lon="-4.1378870"/>
            <trkpt lat="50.6011040" lon="-4.1383510"/>
            <trkpt lat="50.6015550" lon="-4.1385770"/>
            <trkpt lat="50.6069000" lon="-4.1388660"/>
            <trkpt lat="50.6087710" lon="-4.1398550"/>
            <trkpt lat="50.6098450" lon="-4.1400200"/>
            <trkpt lat="50.6110480" lon="-4.1412110"/>
            <trkpt lat="50.6108880" lon="-4.1423070"/>
            <trkpt lat="50.6109230" lon="-4.1431900"/>
            <trkpt lat="50.6112720" lon="-4.1451190"/>
            <trkpt lat="50.6114390" lon="-4.1456790"/>
            <trkpt lat="50.6116290" lon="-4.1459800"/>
            <trkpt lat="50.6125300" lon="-4.1469550"/>
            <trkpt lat="50.6128690" lon="-4.1481260"/>
            <trkpt lat="50.6133750" lon="-4.1476740"/>
            <trkpt lat="50.6135330" lon="-4.1470840"/>
            <trkpt lat="50.6135640" lon="-4.1463940"/>
            <trkpt lat="50.6136680" lon="-4.1461270"/>
            <trkpt lat="50.6150310" lon="-4.1455820"/>
            <trkpt lat="50.6170520" lon="-4.1444740"/>
            <trkpt lat="50.6175590" lon="-4.1440960"/>
            <trkpt lat="50.6179530" lon="-4.1435050"/>
            <trkpt lat="50.6181270" lon="-4.1435830"/>
            <trkpt lat="50.6194380" lon="-4.1474530"/>
            <trkpt lat="50.6198500" lon="-4.1471510"/>
            <trkpt lat="50.6219150" lon="-4.1451470"/>
            <trkpt lat="50.6237800" lon="-4.1430020"/>
            <trkpt lat="50.6242180" lon="-4.1421540"/>
            <trkpt lat="50.6248230" lon="-4.1406190"/>
            <trkpt lat="50.6251560" lon="-4.1395500"/>
            <trkpt lat="50.6261100" lon="-4.1356220"/>
            <trkpt lat="50.6271370" lon="-4.1331380"/>
            <trkpt lat="50.6279140" lon="-4.1317150"/>
            <trkpt lat="50.6282700" lon="-4.1307730"/>
            <trkpt lat="50.6286320" lon="-4.1294700"/>
            <trkpt lat="50.6293380" lon="-4.1258730"/>
            <trkpt lat="50.6293910" lon="-4.1250120"/>
            <trkpt lat="50.6292860" lon="-4.1225350"/>
            <trkpt lat="50.6291720" lon="-4.1219490"/>
            <trkpt lat="50.6288390" lon="-4.1208600"/>
            <trkpt lat="50.6287520" lon="-4.1201370"/>
            <trkpt lat="50.6283300" lon="-4.1194070"/>
            <trkpt lat="50.6283160" lon="-4.1191600"/>
            <trkpt lat="50.6284400" lon="-4.1186590"/>
            <trkpt lat="50.6286590" lon="-4.1184800"/>
            <trkpt lat="50.6296710" lon="-4.1185320"/>
            <trkpt lat="50.6304100" lon="-4.1180910"/>
            <trkpt lat="50.6308720" lon="-4.1175550"/>
            <trkpt lat="50.6320870" lon="-4.1148920"/>
            <trkpt lat="50.6325830" lon="-4.1142570"/>
            <trkpt lat="50.6328830" lon="-4.1140140"/>
            <trkpt lat="50.6345020" lon="-4.1131820"/>
            <trkpt lat="50.6361670" lon="-4.1118680"/>
            <trkpt lat="50.6386450" lon="-4.1086570"/>
            <trkpt lat="50.6389110" lon="-4.1088610"/>
            <trkpt lat="50.6396920" lon="-4.1088710"/>
            <trkpt lat="50.6410890" lon="-4.1096150"/>
            <trkpt lat="50.6415000" lon="-4.1096350"/>
            <trkpt lat="50.6416960" lon="-4.1097570"/>
            <trkpt lat="50.6418890" lon="-4.1100200"/>
            <trkpt lat="50.6420510" lon="-4.1104670"/>
            <trkpt lat="50.6423090" lon="-4.1106230"/>
            <trkpt lat="50.6426200" lon="-4.1103830"/>
            <trkpt lat="50.6429460" lon="-4.1097000"/>
            <trkpt lat="50.6435400" lon="-4.1089800"/>
            <trkpt lat="50.6447350" lon="-4.1070400"/>
            <trkpt lat="50.6453080" lon="-4.1064760"/>
            <trkpt lat="50.6466460" lon="-4.1044720"/>
            <trkpt lat="50.6469350" lon="-4.1038870"/>
            <trkpt lat="50.6472680" lon="-4.1028320"/>
            <trkpt lat="50.6479540" lon="-4.0995740"/>
            <trkpt lat="50.6481130" lon="-4.0994610"/>
            <trkpt lat="50.6489350" lon="-4.0989950"/>
            <trkpt lat="50.6575520" lon="-4.0956860"/>
            <trkpt lat="50.6590610" lon="-4.0953740"/>
            <trkpt lat="50.6610230" lon="-4.0953310"/>
            <trkpt lat="50.6619690" lon="-4.0951860"/>
            <trkpt lat="50.6631390" lon="-4.0947190"/>
            <trkpt lat="50.6641530" lon="-4.0939880"/>
            <trkpt lat="50.6648620" lon="-4.0931600"/>
            <trkpt lat="50.6649480" lon="-4.0929770"/>
            <trkpt lat="50.6650310" lon="-4.0923780"/>
            <trkpt lat="50.6654440" lon="-4.0915890"/>
            <trkpt lat="50.6664500" lon="-4.0904340"/>
            <trkpt lat="50.6668030" lon="-4.0902610"/>
            <trkpt lat="50.6674330" lon="-4.0891430"/>
            <trkpt lat="50.6684630" lon="-4.0877090"/>
            <trkpt lat="50.6691370" lon="-4.0870720"/>
            <trkpt lat="50.6713520" lon="-4.0856940"/>
            <trkpt lat="50.6732290" lon="-4.0841670"/>
            <trkpt lat="50.6742830" lon="-4.0828080"/>
            <trkpt lat="50.6758250" lon="-4.0804550"/>
            <trkpt lat="50.6766280" lon="-4.0793790"/>
            <trkpt lat="50.6777960" lon="-4.0782920"/>
            <trkpt lat="50.6785200" lon="-4.0778120"/>
            <trkpt lat="50.6790840" lon="-4.0775700"/>
            <trkpt lat="50.6806420" lon="-4.0771610"/>
            <trkpt lat="50.6811480" lon="-4.0771420"/>
            <trkpt lat="50.6825970" lon="-4.0774740"/>
            <trkpt lat="50.6842150" lon="-4.0783700"/>
            <trkpt lat="50.6848540" lon="-4.0786180"/>
            <trkpt lat="50.6856940" lon="-4.0787840"/>
            <trkpt lat="50.6864650" lon="-4.0787870"/>
            <trkpt lat="50.6871960" lon="-4.0785490"/>
            <trkpt lat="50.6880730" lon="-4.0780740"/>
            <trkpt lat="50.6890840" lon="-4.0776900"/>
            <trkpt lat="50.6907490" lon="-4.0765880"/>
            <trkpt lat="50.6908940" lon="-4.0763730"/>
            <trkpt lat="50.6914400" lon="-4.0759100"/>
            <trkpt lat="50.6970890" lon="-4.0695300"/>
            <trkpt lat="50.6976340" lon="-4.0690100"/>
            <trkpt lat="50.6995090" lon="-4.0668650"/>
            <trkpt lat="50.6997110" lon="-4.0667180"/>
            <trkpt lat="50.7000930" lon="-4.0661980"/>
            <trkpt lat="50.7009810" lon="-4.0653520"/>
            <trkpt lat="50.7009980" lon="-4.0650700"/>
            <trkpt lat="50.7011290" lon="-4.0648850"/>
            <trkpt lat="50.7014460" lon="-4.0648570"/>
            <trkpt lat="50.7019280" lon="-4.0641440"/>
            <trkpt lat="50.7042760" lon="-4.0615670"/>
            <trkpt lat="50.7055060" lon="-4.0600810"/>
            <trkpt lat="50.7062830" lon="-4.0588770"/>
            <trkpt lat="50.7070460" lon="-4.0575240"/>
            <trkpt lat="50.7078680" lon="-4.0559340"/>
            <trkpt lat="50.7084910" lon="-4.0545320"/>
            <trkpt lat="50.7095140" lon="-4.0516780"/>
            <trkpt lat="50.7102600" lon="-4.0490050"/>
            <trkpt lat="50.7109160" lon="-4.0459300"/>
            <trkpt lat="50.7119110" lon="-4.0380310"/>
            <trkpt lat="50.7122210" lon="-4.0362670"/>
            <trkpt lat="50.7124420" lon="-4.0356020"/>
            <trkpt lat="50.7133030" lon="-4.0337670"/>
            <trkpt lat="50.7137350" lon="-4.0331120"/>
            <trkpt lat="50.7146950" lon="-4.0321480"/>
            <trkpt lat="50.7165500" lon="-4.0309310"/>
            <trkpt lat="50.7171490" lon="-4.0304370"/>
            <trkpt lat="50.7188810" lon="-4.0284600"/>
            <trkpt lat="50.7194950" lon="-4.0275250"/>
            <trkpt lat="50.7204950" lon="-4.0256460"/>
            <trkpt lat="50.7224300" lon="-4.0212280"/>
            <trkpt lat="50.7228190" lon="-4.0205410"/>
            <trkpt lat="50.7234500" lon="-4.0208970"/>
            <trkpt lat="50.7243240" lon="-4.0173930"/>
            <trkpt lat="50.7243730" lon="-4.0167380"/>
            <trkpt lat="50.7247010" lon="-4.0158750"/>
            <trkpt lat="50.7249910" lon="-4.0147750"/>
            <trkpt lat="50.7252810" lon="-4.0131650"/>
            <trkpt lat="50.7255830" lon="-4.0100710"/>
            <trkpt lat="50.7258830" lon="-4.0087710"/>
            <trkpt lat="50.7263060" lon="-4.0075880"/>
            <trkpt lat="50.7269730" lon="-4.0063000"/>
            <trkpt lat="50.7277330" lon="-4.0052480"/>
            <trkpt lat="50.7298980" lon="-4.0034440"/>
            <trkpt lat="50.7301940" lon="-4.0031100"/>
            <trkpt lat="50.7304420" lon="-4.0030860"/>
            <trkpt lat="50.7309380" lon="-4.0022850"/>
            <trkpt lat="50.7311220" lon="-4.0022140"/>
            <trkpt lat="50.7313100" lon="-4.0017440"/>
            <trkpt lat="50.7320190" lon="-3.9992860"/>
            <trkpt lat="50.7320150" lon="-3.9995080"/>
            <trkpt lat="50.7320740" lon="-3.9995550"/>
            <trkpt lat="50.7323400" lon="-3.9980640"/>
            <trkpt lat="50.7333430" lon="-4.0004100"/>
            <trkpt lat="50.7336480" lon="-4.0014900"/>
            <trkpt lat="50.7340620" lon="-4.0015370"/>
            <trkpt lat="50.7348360" lon="-4.0018020"/>
            <trkpt lat="50.7356690" lon="-4.0022140"/>
            <trkpt lat="50.7364000" lon="-4.0023330"/>
            <trkpt lat="50.7373930" lon="-4.0023320"/>
            <trkpt lat="50.7376530" lon="-4.0021920"/>
            <trkpt lat="50.7378080" lon="-4.0024690"/>
            <trkpt lat="50.7393620" lon="-4.0016080"/>
            <trkpt lat="50.7395100" lon="-4.0016960"/>
            <trkpt lat="50.7396770" lon="-4.0010390"/>
            <trkpt lat="50.7407610" lon="-4.0020520"/>
            <trkpt lat="50.7409750" lon="-4.0021590"/>
            <trkpt lat="50.7411870" lon="-4.0021420"/>
            <trkpt lat="50.7418640" lon="-4.0016610"/>
            <trkpt lat="50.7427600" lon="-4.0007090"/>
            <trkpt lat="50.7441990" lon="-3.9987670"/>
            <trkpt lat="50.7457730" lon="-3.9978960"/>
            <trkpt lat="50.7472710" lon="-3.9960510"/>
            <trkpt lat="50.7482090" lon="-3.9951810"/>
            <trkpt lat="50.7485980" lon="-3.9950420"/>
            <trkpt lat="50.7491870" lon="-3.9951930"/>
            <trkpt lat="50.7491520" lon="-3.9962990"/>
            <trkpt lat="50.7492590" lon="-3.9968990"/>
            <trkpt lat="50.7495690" lon="-3.9977060"/>
            <trkpt lat="50.7495220" lon="-3.9986180"/>
            <trkpt lat="50.7496830" lon="-3.9993140"/>
            <trkpt lat="50.7496620" lon="-4.0003020"/>
            <trkpt lat="50.7500250" lon="-4.0014500"/>
            <trkpt lat="50.7503380" lon="-4.0028000"/>
            <trkpt lat="50.7504750" lon="-4.0030300"/>
            <trkpt lat="50.7512620" lon="-4.0028390"/>
            <trkpt lat="50.7516540" lon="-4.0029970"/>
            <trkpt lat="50.7526770" lon="-4.0031540"/>
            <trkpt lat="50.7591550" lon="-4.0028130"/>
            <trkpt lat="50.7655740" lon="-4.0014220"/>
            <trkpt lat="50.7660100" lon="-4.0013840"/>
            <trkpt lat="50.7668900" lon="-4.0016260"/>
            <trkpt lat="50.7688130" lon="-4.0009060"/>
            <trkpt lat="50.7705650" lon="-3.9998200"/>
            <trkpt lat="50.7716580" lon="-3.9994100"/>
            <trkpt lat="50.7728890" lon="-3.9987840"/>
            <trkpt lat="50.7755830" lon="-3.9981520"/>
            <trkpt lat="50.7782340" lon="-3.9980620"/>
            <trkpt lat="50.7789930" lon="-3.9979100"/>
            <trkpt lat="50.7819480" lon="-3.9988030"/>
            <trkpt lat="50.7833970" lon="-3.9996020"/>
            <trkpt lat="50.7843790" lon="-4.0000260"/>
            <trkpt lat="50.7868240" lon="-4.0016770"/>
            <trkpt lat="50.7896980" lon="-4.0039550"/>
            <trkpt lat="50.7901940" lon="-4.0040700"/>
            <trkpt lat="50.7913220" lon="-4.0035360"/>
            <trkpt lat="50.7920390" lon="-4.0034740"/>
            <trkpt lat="50.7931310" lon="-4.0042780"/>
            <trkpt lat="50.7937050" lon="-4.0048700"/>
            <trkpt lat="50.7950130" lon="-4.0055250"/>
            <trkpt lat="50.7963890" lon="-4.0065630"/>
            <trkpt lat="50.7965060" lon="-4.0062140"/>
            <trkpt lat="50.7966300" lon="-4.0061760"/>
            <trkpt lat="50.7969490" lon="-4.0068860"/>
            <trkpt lat="50.7971170" lon="-4.0076980"/>
            <trkpt lat="50.7973340" lon="-4.0081620"/>
            <trkpt lat="50.7979020" lon="-4.0081960"/>
            <trkpt lat="50.7981900" lon="-4.0080890"/>
            <trkpt lat="50.7983670" lon="-4.0082500"/>
            <trkpt lat="50.7987950" lon="-4.0083910"/>
            <trkpt lat="50.8007600" lon="-4.0095510"/>
            <trkpt lat="50.8016420" lon="-4.0099480"/>
            <trkpt lat="50.8039740" lon="-4.0115980"/>
            <trkpt lat="50.8047860" lon="-4.0119970"/>
            <trkpt lat="50.8060280" lon="-4.0121680"/>
            <trkpt lat="50.8064720" lon="-4.0125340"/>
            <trkpt lat="50.8065560" lon="-4.0123950"/>
            <trkpt lat="50.8066840" lon="-4.0115490"/>
            <trkpt lat="50.8087480" lon="-4.0117920"/>
            <trkpt lat="50.8089110" lon="-4.0116360"/>
            <trkpt lat="50.8091810" lon="-4.0108250"/>
            <trkpt lat="50.8093880" lon="-4.0107920"/>
            <trkpt lat="50.8108540" lon="-4.0117210"/>
            <trkpt lat="50.8118180" lon="-4.0128860"/>
            <trkpt lat="50.8117340" lon="-4.0133660"/>
            <trkpt lat="50.8118680" lon="-4.0139260"/>
            <trkpt lat="50.8126930" lon="-4.0149150"/>
            <trkpt lat="50.8129900" lon="-4.0160220"/>
            <trkpt lat="50.8131740" lon="-4.0172110"/>
            <trkpt lat="50.8132430" lon="-4.0189900"/>
            <trkpt lat="50.8131120" lon="-4.0213570"/>
            <trkpt lat="50.8134990" lon="-4.0220610"/>
            <trkpt lat="50.8137580" lon="-4.0237990"/>
            <trkpt lat="50.8141160" lon="-4.0241710"/>
            <trkpt lat="50.8139170" lon="-4.0256610"/>
            <trkpt lat="50.8136520" lon="-4.0259860"/>
            <trkpt lat="50.8136240" lon="-4.0263000"/>
            <trkpt lat="50.8140500" lon="-4.0275700"/>
            <trkpt lat="50.8141680" lon="-4.0288550"/>
            <trkpt lat="50.8140830" lon="-4.0295400"/>
            <trkpt lat="50.8142510" lon="-4.0305300"/>
            <trkpt lat="50.8150820" lon="-4.0329760"/>
            <trkpt lat="50.8153660" lon="-4.0341730"/>
            <trkpt lat="50.8155700" lon="-4.0362690"/>
            <trkpt lat="50.8156280" lon="-4.0381600"/>
            <trkpt lat="50.8159520" lon="-4.0387800"/>
            <trkpt lat="50.8159610" lon="-4.0398310"/>
            <trkpt lat="50.8158350" lon="-4.0408900"/>
            <trkpt lat="50.8158840" lon="-4.0411910"/>
            <trkpt lat="50.8165720" lon="-4.0423470"/>
            <trkpt lat="50.8172720" lon="-4.0431150"/>
            <trkpt lat="50.8188120" lon="-4.0451710"/>
            <trkpt lat="50.8223230" lon="-4.0511630"/>
            <trkpt lat="50.8221800" lon="-4.0609190"/>
            <trkpt lat="50.8217930" lon="-4.0625860"/>
            <trkpt lat="50.8216460" lon="-4.0638120"/>
            <trkpt lat="50.8214860" lon="-4.0644230"/>
            <trkpt lat="50.8214260" lon="-4.0662690"/>
            <trkpt lat="50.8211340" lon="-4.0672600"/>
            <trkpt lat="50.8209980" lon="-4.0684150"/>
            <trkpt lat="50.8204890" lon="-4.0702360"/>
            <trkpt lat="50.8199270" lon="-4.0711050"/>
            <trkpt lat="50.8198310" lon="-4.0716360"/>
            <trkpt lat="50.8194850" lon="-4.0724870"/>
            <trkpt lat="50.8194920" lon="-4.0726960"/>
            <trkpt lat="50.8190800" lon="-4.0729020"/>
            <trkpt lat="50.8187610" lon="-4.0728890"/>
            <trkpt lat="50.8185920" lon="-4.0734880"/>
            <trkpt lat="50.8182310" lon="-4.0742110"/>
            <trkpt lat="50.8179480" lon="-4.0746210"/>
            <trkpt lat="50.8172730" lon="-4.0751930"/>
            <trkpt lat="50.8160810" lon="-4.0780200"/>
            <trkpt lat="50.8157730" lon="-4.0785290"/>
            <trkpt lat="50.8154170" lon="-4.0794820"/>
            <trkpt lat="50.8166020" lon="-4.0820680"/>
            <trkpt lat="50.8176260" lon="-4.0846160"/>
            <trkpt lat="50.8179700" lon="-4.0858020"/>
            <trkpt lat="50.8190960" lon="-4.0911090"/>
            <trkpt lat="50.8192530" lon="-4.0915430"/>
            <trkpt lat="50.8150980" lon="-4.0952940"/>
            <trkpt lat="50.8139900" lon="-4.0965760"/>
            <trkpt lat="50.8134700" lon="-4.0975690"/>
            <trkpt lat="50.8130720" lon="-4.0986500"/>
            <trkpt lat="50.8127230" lon="-4.1001970"/>
            <trkpt lat="50.8126230" lon="-4.1018520"/>
            <trkpt lat="50.8127970" lon="-4.1036300"/>
            <trkpt lat="50.8136050" lon="-4.1076420"/>
            <trkpt lat="50.8135780" lon="-4.1079760"/>
            <trkpt lat="50.8138460" lon="-4.1099440"/>
            <trkpt lat="50.8138400" lon="-4.1130630"/>
            <trkpt lat="50.8154090" lon="-4.1130080"/>
            <trkpt lat="50.8157590" lon="-4.1130670"/>
            <trkpt lat="50.8163720" lon="-4.1136760"/>
            <trkpt lat="50.8173420" lon="-4.1144220"/>
            <trkpt lat="50.8176100" lon="-4.1145370"/>
            <trkpt lat="50.8185670" lon="-4.1145380"/>
            <trkpt lat="50.8188150" lon="-4.1146270"/>
            <trkpt lat="50.8191880" lon="-4.1152610"/>
            <trkpt lat="50.8196950" lon="-4.1171170"/>
            <trkpt lat="50.8199620" lon="-4.1172710"/>
            <trkpt lat="50.8206920" lon="-4.1172470"/>
            <trkpt lat="50.8221150" lon="-4.1175790"/>
            <trkpt lat="50.8230690" lon="-4.1172720"/>
            <trkpt lat="50.8232600" lon="-4.1173080"/>
            <trkpt lat="50.8233400" lon="-4.1174470"/>
            <trkpt lat="50.8231380" lon="-4.1195230"/>
            <trkpt lat="50.8229950" lon="-4.1230780"/>
            <trkpt lat="50.8233500" lon="-4.1261120"/>
            <trkpt lat="50.8234700" lon="-4.1281530"/>
            <trkpt lat="50.8237240" lon="-4.1305650"/>
            <trkpt lat="50.8239550" lon="-4.1315630"/>
            <trkpt lat="50.8241200" lon="-4.1336500"/>
            <trkpt lat="50.8237310" lon="-4.1358260"/>
            <trkpt lat="50.8234240" lon="-4.1365690"/>
            <trkpt lat="50.8232020" lon="-4.1374260"/>
            <trkpt lat="50.8230650" lon="-4.1396300"/>
            <trkpt lat="50.8228160" lon="-4.1407360"/>
            <trkpt lat="50.8226520" lon="-4.1419670"/>
            <trkpt lat="50.8225760" lon="-4.1436250"/>
            <trkpt lat="50.8223390" lon="-4.1445820"/>
            <trkpt lat="50.8219090" lon="-4.1459170"/>
            <trkpt lat="50.8212360" lon="-4.1473760"/>
            <trkpt lat="50.8197290" lon="-4.1494610"/>
            <trkpt lat="50.8191100" lon="-4.1507560"/>
            <trkpt lat="50.8183310" lon="-4.1534650"/>
            <trkpt lat="50.8181340" lon="-4.1543960"/>
            <trkpt lat="50.8202020" lon="-4.1541930"/>
            <trkpt lat="50.8207080" lon="-4.1543000"/>
            <trkpt lat="50.8208930" lon="-4.1544320"/>
            <trkpt lat="50.8219530" lon="-4.1556660"/>
            <trkpt lat="50.8227050" lon="-4.1562410"/>
            <trkpt lat="50.8245930" lon="-4.1558790"/>
            <trkpt lat="50.8258570" lon="-4.1560740"/>
            <trkpt lat="50.8263460" lon="-4.1558820"/>
            <trkpt lat="50.8298470" lon="-4.1518920"/>
            <trkpt lat="50.8302190" lon="-4.1512110"/>
            <trkpt lat="50.8309990" lon="-4.1508640"/>
            <trkpt lat="50.8312460" lon="-4.1511450"/>
            <trkpt lat="50.8315890" lon="-4.1510900"/>
            <trkpt lat="50.8319740" lon="-4.1511640"/>
            <trkpt lat="50.8332420" lon="-4.1521320"/>
            <trkpt lat="50.8335100" lon="-4.1522390"/>
            <trkpt lat="50.8336460" lon="-4.1521910"/>
            <trkpt lat="50.8341950" lon="-4.1514990"/>
            <trkpt lat="50.8346100" lon="-4.1512330"/>
            <trkpt lat="50.8355580" lon="-4.1510660"/>
            <trkpt lat="50.8366930" lon="-4.1510170"/>
            <trkpt lat="50.8374700" lon="-4.1512700"/>
            <trkpt lat="50.8378750" lon="-4.1512650"/>
            <trkpt lat="50.8390470" lon="-4.1508120"/>
            <trkpt lat="50.8401230" lon="-4.1512810"/>
            <trkpt lat="50.8403190" lon="-4.1512940"/>
            <trkpt lat="50.8413640" lon="-4.1508690"/>
            <trkpt lat="50.8419320" lon="-4.1507940"/>
            <trkpt lat="50.8436850" lon="-4.1510580"/>
            <trkpt lat="50.8444780" lon="-4.1507290"/>
            <trkpt lat="50.8454060" lon="-4.1500610"/>
            <trkpt lat="50.8457990" lon="-4.1501130"/>
            <trkpt lat="50.8465350" lon="-4.1499250"/>
            <trkpt lat="50.8474780" lon="-4.1498920"/>
            <trkpt lat="50.8482560" lon="-4.1496330"/>
            <trkpt lat="50.8492500" lon="-4.1503260"/>
            <trkpt lat="50.8505740" lon="-4.1510340"/>
            <trkpt lat="50.8505860" lon="-4.1514140"/>
            <trkpt lat="50.8506680" lon="-4.1515640"/>
            <trkpt lat="50.8508630" lon="-4.1516870"/>
            <trkpt lat="50.8518190" lon="-4.1519400"/>
            <trkpt lat="50.8522830" lon="-4.1522150"/>
            <trkpt lat="50.8543250" lon="-4.1530600"/>
            <trkpt lat="50.8550980" lon="-4.1535500"/>
            <trkpt lat="50.8562700" lon="-4.1539170"/>
            <trkpt lat="50.8565400" lon="-4.1539190"/>
            <trkpt lat="50.8577700" lon="-4.1535670"/>
            <trkpt lat="50.8595230" lon="-4.1534540"/>
            <trkpt lat="50.8614720" lon="-4.1524790"/>
            <trkpt lat="50.8613230" lon="-4.1465420"/>
            <trkpt lat="50.8613060" lon="-4.1451620"/>
            <trkpt lat="50.8613690" lon="-4.1436640"/>
            <trkpt lat="50.8613280" lon="-4.1407000"/>
            <trkpt lat="50.8613790" lon="-4.1399770"/>
            <trkpt lat="50.8620930" lon="-4.1366340"/>
            <trkpt lat="50.8621480" lon="-4.1355070"/>
            <trkpt lat="50.8620030" lon="-4.1345070"/>
            <trkpt lat="50.8616350" lon="-4.1332290"/>
            <trkpt lat="50.8618340" lon="-4.1317280"/>
            <trkpt lat="50.8628170" lon="-4.1289680"/>
            <trkpt lat="50.8636720" lon="-4.1270730"/>
            <trkpt lat="50.8644180" lon="-4.1238130"/>
            <trkpt lat="50.8651530" lon="-4.1225900"/>
            <trkpt lat="50.8667100" lon="-4.1191290"/>
            <trkpt lat="50.8673630" lon="-4.1182890"/>
            <trkpt lat="50.8686360" lon="-4.1176040"/>
            <trkpt lat="50.8688230" lon="-4.1172450"/>
            <trkpt lat="50.8689260" lon="-4.1166810"/>
            <trkpt lat="50.8693380" lon="-4.1157500"/>
            <trkpt lat="50.8697760" lon="-4.1140360"/>
            <trkpt lat="50.8700110" lon="-4.1135200"/>
            <trkpt lat="50.8703580" lon="-4.1130180"/>
            <trkpt lat="50.8717550" lon="-4.1121200"/>
            <trkpt lat="50.8723330" lon="-4.1121730"/>
            <trkpt lat="50.8727630" lon="-4.1119660"/>
            <trkpt lat="50.8734190" lon="-4.1109960"/>
            <trkpt lat="50.8747200" lon="-4.1099570"/>
            <trkpt lat="50.8750400" lon="-4.1098460"/>
            <trkpt lat="50.8755640" lon="-4.1099640"/>
            <trkpt lat="50.8756320" lon="-4.1097760"/>
            <trkpt lat="50.8776410" lon="-4.1118730"/>
            <trkpt lat="50.8782220" lon="-4.1128250"/>
            <trkpt lat="50.8790870" lon="-4.1147460"/>
            <trkpt lat="50.8796970" lon="-4.1155980"/>
            <trkpt lat="50.8802410" lon="-4.1160430"/>
            <trkpt lat="50.8808210" lon="-4.1163800"/>
            <trkpt lat="50.8820270" lon="-4.1167880"/>
            <trkpt lat="50.8828210" lon="-4.1172110"/>
            <trkpt lat="50.8835490" lon="-4.1177880"/>
            <trkpt lat="50.8843790" lon="-4.1187730"/>
            <trkpt lat="50.8849610" lon="-4.1197060"/>
            <trkpt lat="50.8867090" lon="-4.1232430"/>
            <trkpt lat="50.8869860" lon="-4.1240760"/>
            <trkpt lat="50.8875000" lon="-4.1262280"/>
            <trkpt lat="50.8881100" lon="-4.1280300"/>
            <trkpt lat="50.8885600" lon="-4.1291180"/>
            <trkpt lat="50.8891400" lon="-4.1300510"/>
            <trkpt lat="50.8898990" lon="-4.1307500"/>
            <trkpt lat="50.8905460" lon="-4.1311110"/>
            <trkpt lat="50.8917990" lon="-4.1314940"/>
            <trkpt lat="50.8925630" lon="-4.1315580"/>
            <trkpt lat="50.8933940" lon="-4.1313970"/>
            <trkpt lat="50.8938040" lon="-4.1312200"/>
            <trkpt lat="50.8968040" lon="-4.1290720"/>
            <trkpt lat="50.8975720" lon="-4.1286490"/>
            <trkpt lat="50.8984320" lon="-4.1284540"/>
            <trkpt lat="50.8995070" lon="-4.1286420"/>
            <trkpt lat="50.9005880" lon="-4.1290930"/>
            <trkpt lat="50.9020020" lon="-4.1300360"/>
            <trkpt lat="50.9028910" lon="-4.1302120"/>
            <trkpt lat="50.9035490" lon="-4.1307860"/>
            <trkpt lat="50.9047220" lon="-4.1330370"/>
            <trkpt lat="50.9083660" lon="-4.1389840"/>
            <trkpt lat="50.9091620" lon="-4.1409460"/>
            <trkpt lat="50.9093870" lon="-4.1419360"/>
            <trkpt lat="50.9095340" lon="-4.1430440"/>
            <trkpt lat="50.9098410" lon="-4.1472040"/>
            <trkpt lat="50.9100880" lon="-4.1478170"/>
            <trkpt lat="50.9099660" lon="-4.1479840"/>
            <trkpt lat="50.9098850" lon="-4.1484150"/>
            <trkpt lat="50.9099720" lon="-4.1497650"/>
            <trkpt lat="50.9103790" lon="-4.1520920"/>
            <trkpt lat="50.9105010" lon="-4.1552210"/>
            <trkpt lat="50.9108220" lon="-4.1563450"/>
            <trkpt lat="50.9111750" lon="-4.1569780"/>
            <trkpt lat="50.9118600" lon="-4.1577730"/>
            <trkpt lat="50.9120680" lon="-4.1581810"/>
            <trkpt lat="50.9125730" lon="-4.1600210"/>
            <trkpt lat="50.9129290" lon="-4.1606520"/>
            <trkpt lat="50.9133950" lon="-4.1610900"/>
            <trkpt lat="50.9139710" lon="-4.1612550"/>
            <trkpt lat="50.9144810" lon="-4.1611320"/>
            <trkpt lat="50.9149020" lon="-4.1607700"/>
            <trkpt lat="50.9159160" lon="-4.1594010"/>
            <trkpt lat="50.9166060" lon="-4.1589820"/>
            <trkpt lat="50.9182400" lon="-4.1582280"/>
            <trkpt lat="50.9186910" lon="-4.1581500"/>
            <trkpt lat="50.9191530" lon="-4.1580880"/>
            <trkpt lat="50.9199790" lon="-4.1584980"/>
            <trkpt lat="50.9202410" lon="-4.1588730"/>
            <trkpt lat="50.9204600" lon="-4.1594620"/>
            <trkpt lat="50.9206070" lon="-4.1600280"/>
            <trkpt lat="50.9207040" lon="-4.1612020"/>
            <trkpt lat="50.9208610" lon="-4.1619280"/>
            <trkpt lat="50.9212060" lon="-4.1626460"/>
            <trkpt lat="50.9217030" lon="-4.1631880"/>
            <trkpt lat="50.9241880" lon="-4.1650910"/>
            <trkpt lat="50.9253210" lon="-4.1666560"/>
            <trkpt lat="50.9265390" lon="-4.1688460"/>
            <trkpt lat="50.9275440" lon="-4.1699880"/>
            <trkpt lat="50.9280700" lon="-4.1710510"/>
            <trkpt lat="50.9291610" lon="-4.1721900"/>
            <trkpt lat="50.9302450" lon="-4.1740920"/>
            <trkpt lat="50.9310810" lon="-4.1753340"/>
            <trkpt lat="50.9320950" lon="-4.1765960"/>
            <trkpt lat="50.9327510" lon="-4.1772580"/>
            <trkpt lat="50.9331000" lon="-4.1774360"/>
            <trkpt lat="50.9336960" lon="-4.1779320"/>
            <trkpt lat="50.9355530" lon="-4.1804520"/>
            <trkpt lat="50.9359730" lon="-4.1808720"/>
            <trkpt lat="50.9365290" lon="-4.1811160"/>
            <trkpt lat="50.9372420" lon="-4.1811450"/>
            <trkpt lat="50.9372700" lon="-4.1810210"/>
            <trkpt lat="50.9379250" lon="-4.1806960"/>
            <trkpt lat="50.9391850" lon="-4.1802490"/>
            <trkpt lat="50.9401240" lon="-4.1795330"/>
            <trkpt lat="50.9410450" lon="-4.1780760"/>
            <trkpt lat="50.9415340" lon="-4.1777220"/>
            <trkpt lat="50.9422020" lon="-4.1776970"/>
            <trkpt lat="50.9424530" lon="-4.1777880"/>
            <trkpt lat="50.9427570" lon="-4.1780400"/>
            <trkpt lat="50.9436330" lon="-4.1790350"/>
            <trkpt lat="50.9438010" lon="-4.1791500"/>
            <trkpt lat="50.9444080" lon="-4.1792760"/>
            <trkpt lat="50.9446910" lon="-4.1792340"/>
            <trkpt lat="50.9450330" lon="-4.1790210"/>
            <trkpt lat="50.9463520" lon="-4.1777100"/>
            <trkpt lat="50.9481200" lon="-4.1771800"/>
            <trkpt lat="50.9485020" lon="-4.1769850"/>
            <trkpt lat="50.9491430" lon="-4.1762800"/>
            <trkpt lat="50.9495560" lon="-4.1754570"/>
            <trkpt lat="50.9496680" lon="-4.1751120"/>
            <trkpt lat="50.9499380" lon="-4.1731810"/>
            <trkpt lat="50.9503100" lon="-4.1719300"/>
            <trkpt lat="50.9513250" lon="-4.1701660"/>
            <trkpt lat="50.9519430" lon="-4.1688770"/>
            <trkpt lat="50.9525920" lon="-4.1678360"/>
            <trkpt lat="50.9534910" lon="-4.1660610"/>
            <trkpt lat="50.9539740" lon="-4.1653520"/>
            <trkpt lat="50.9543340" lon="-4.1650550"/>
            <trkpt lat="50.9555060" lon="-4.1645810"/>
            <trkpt lat="50.9558600" lon="-4.1645490"/>
            <trkpt lat="50.9563560" lon="-4.1646840"/>
            <trkpt lat="50.9569330" lon="-4.1651230"/>
            <trkpt lat="50.9630850" lon="-4.1718630"/>
            <trkpt lat="50.9637990" lon="-4.1725840"/>
            <trkpt lat="50.9650260" lon="-4.1733990"/>
            <trkpt lat="50.9657940" lon="-4.1736260"/>
            <trkpt lat="50.9670310" lon="-4.1736470"/>
            <trkpt lat="50.9677820" lon="-4.1734310"/>
            <trkpt lat="50.9684500" lon="-4.1730730"/>
            <trkpt lat="50.9696010" lon="-4.1722480"/>
            <trkpt lat="50.9708640" lon="-4.1717550"/>
            <trkpt lat="50.9715880" lon="-4.1717690"/>
            <trkpt lat="50.9722450" lon="-4.1719050"/>
            <trkpt lat="50.9727130" lon="-4.1721050"/>
            <trkpt lat="50.9737040" lon="-4.1728640"/>
            <trkpt lat="50.9744330" lon="-4.1737810"/>
            <trkpt lat="50.9747560" lon="-4.1742850"/>
            <trkpt lat="50.9750900" lon="-4.1750070"/>
            <trkpt lat="50.9754350" lon="-4.1760670"/>
            <trkpt lat="50.9756750" lon="-4.1771390"/>
            <trkpt lat="50.9758210" lon="-4.1783500"/>
            <trkpt lat="50.9758330" lon="-4.1792930"/>
            <trkpt lat="50.9755330" lon="-4.1818340"/>
            <trkpt lat="50.9754910" lon="-4.1838740"/>
            <trkpt lat="50.9757470" lon="-4.1855690"/>
            <trkpt lat="50.9759880" lon="-4.1866660"/>
            <trkpt lat="50.9764370" lon="-4.1878400"/>
            <trkpt lat="50.9771330" lon="-4.1889260"/>
            <trkpt lat="50.9777770" lon="-4.1895180"/>
            <trkpt lat="50.9783520" lon="-4.1898250"/>
            <trkpt lat="50.9801660" lon="-4.1904760"/>
            <trkpt lat="50.9818030" lon="-4.1916220"/>
            <trkpt lat="50.9830290" lon="-4.1930080"/>
            <trkpt lat="50.9858630" lon="-4.1964740"/>
            <trkpt lat="50.9869920" lon="-4.1973400"/>
            <trkpt lat="50.9877480" lon="-4.1977980"/>
            <trkpt lat="50.9887570" lon="-4.1981030"/>
            <trkpt lat="50.9897990" lon="-4.1982250"/>
            <trkpt lat="50.9907950" lon="-4.1981280"/>
            <trkpt lat="50.9918650" lon="-4.1977570"/>
            <trkpt lat="50.9925820" lon="-4.1973170"/>
            <trkpt lat="50.9933680" lon="-4.1966880"/>
            <trkpt lat="50.9952210" lon="-4.1947730"/>
            <trkpt lat="50.9966920" lon="-4.1935150"/>
            <trkpt lat="50.9978880" lon="-4.1928670"/>
            <trkpt lat="50.9990770" lon="-4.1926000"/>
            <trkpt lat="51.0000660" lon="-4.1927290"/>
            <trkpt lat="51.0008560" lon="-4.1930090"/>
            <trkpt lat="51.0016400" lon="-4.1935010"/>
            <trkpt lat="51.0023670" lon="-4.1941780"/>
            <trkpt lat="51.0029280" lon="-4.1948720"/>
            <trkpt lat="51.0034440" lon="-4.1957590"/>
            <trkpt lat="51.0039770" lon="-4.1968370"/>
            <trkpt lat="51.0050720" lon="-4.1996450"/>
            <trkpt lat="51.0056850" lon="-4.2006940"/>
            <trkpt lat="51.0061290" lon="-4.2012440"/>
            <trkpt lat="51.0068580" lon="-4.2019210"/>
            <trkpt lat="51.0074970" lon="-4.2023530"/>
            <trkpt lat="51.0082700" lon="-4.2027110"/>
            <trkpt lat="51.0086320" lon="-4.2027860"/>
            <trkpt lat="51.0095760" lon="-4.2028440"/>
            <trkpt lat="51.0115860" lon="-4.2026540"/>
            <trkpt lat="51.0131050" lon="-4.2024550"/>
            <trkpt lat="51.0138570" lon="-4.2022170"/>
            <trkpt lat="51.0157940" lon="-4.2010500"/>
            <trkpt lat="51.0158090" lon="-4.2009720"/>
            <trkpt lat="51.0168560" lon="-4.2002130"/>
            <trkpt lat="51.0178030" lon="-4.1999210"/>
            <trkpt lat="51.0187680" lon="-4.1998780"/>
            <trkpt lat="51.0195110" lon="-4.1995860"/>
            <trkpt lat="51.0199990" lon="-4.1992220"/>
            <trkpt lat="51.0215850" lon="-4.1976240"/>
            <trkpt lat="51.0226370" lon="-4.1970650"/>
            <trkpt lat="51.0233820" lon="-4.1968570"/>
            <trkpt lat="51.0238370" lon="-4.1968240"/>
            <trkpt lat="51.0244590" lon="-4.1969390"/>
            <trkpt lat="51.0248120" lon="-4.1970970"/>
            <trkpt lat="51.0261660" lon="-4.1980480"/>
            <trkpt lat="51.0269570" lon="-4.1983900"/>
            <trkpt lat="51.0277150" lon="-4.1984580"/>
            <trkpt lat="51.0288010" lon="-4.1981810"/>
            <trkpt lat="51.0324150" lon="-4.1966980"/>
            <trkpt lat="51.0336540" lon="-4.1957180"/>
            <trkpt lat="51.0342580" lon="-4.1950240"/>
            <trkpt lat="51.0344920" lon="-4.1946360"/>
            <trkpt lat="51.0374470" lon="-4.1891420"/>
            <trkpt lat="51.0381800" lon="-4.1880540"/>
            <trkpt lat="51.0387640" lon="-4.1875080"/>
            <trkpt lat="51.0395720" lon="-4.1869070"/>
            <trkpt lat="51.0411780" lon="-4.1862460"/>
            <trkpt lat="51.0418320" lon="-4.1858140"/>
            <trkpt lat="51.0424320" lon="-4.1852070"/>
            <trkpt lat="51.0435340" lon="-4.1837360"/>
            <trkpt lat="51.0443170" lon="-4.1828470"/>
            <trkpt lat="51.0462060" lon="-4.1812620"/>
            <trkpt lat="51.0475510" lon="-4.1799770"/>
            <trkpt lat="51.0482280" lon="-4.1794910"/>
            <trkpt lat="51.0486640" lon="-4.1792810"/>
            <trkpt lat="51.0494440" lon="-4.1791420"/>
            <trkpt lat="51.0503080" lon="-4.1792130"/>
            <trkpt lat="51.0510100" lon="-4.1794310"/>
            <trkpt lat="51.0517470" lon="-4.1798110"/>
            <trkpt lat="51.0524440" lon="-4.1800000"/>
            <trkpt lat="51.0529750" lon="-4.1799980"/>
            <trkpt lat="51.0534360" lon="-4.1798900"/>
            <trkpt lat="51.0579060" lon="-4.1778970"/>
            <trkpt lat="51.0636610" lon="-4.1751540"/>
            <trkpt lat="51.0645790" lon="-4.1745690"/>
            <trkpt lat="51.0657800" lon="-4.1735220"/>
            <trkpt lat="51.0670690" lon="-4.1721050"/>
            <trkpt lat="51.0685540" lon="-4.1696720"/>
            <trkpt lat="51.0696690" lon="-4.1669860"/>
            <trkpt lat="51.0701620" lon="-4.1654270"/>
            <trkpt lat="51.0710130" lon="-4.1613460"/>
            <trkpt lat="51.0784490" lon="-4.1231950"/>
            <trkpt lat="51.0786010" lon="-4.1225790"/>
            <trkpt lat="51.0789530" lon="-4.1216000"/>
            <trkpt lat="51.0794440" lon="-4.1207120"/>
            <trkpt lat="51.0794960" lon="-4.1204950"/>
            <trkpt lat="51.0804930" lon="-4.1190670"/>
            <trkpt lat="51.0809950" lon="-4.1180150"/>
            <trkpt lat="51.0813890" lon="-4.1168190"/>
            <trkpt lat="51.0816930" lon="-4.1150400"/>
            <trkpt lat="51.0820370" lon="-4.1108100"/>
            <trkpt lat="51.0820760" lon="-4.1090890"/>
            <trkpt lat="51.0820010" lon="-4.1078770"/>
            <trkpt lat="51.0810460" lon="-4.1025770"/>
            <trkpt lat="51.0805600" lon="-4.0993640"/>
            <trkpt lat="51.0801160" lon="-4.0961440"/>
            <trkpt lat="51.0798170" lon="-4.0930340"/>
            <trkpt lat="51.0796000" lon="-4.0915870"/>
            <trkpt lat="51.0756080" lon="-4.0706210"/>
            <trkpt lat="51.0756060" lon="-4.0701250"/>
            <trkpt lat="51.0753080" lon="-4.0686160"/>
            <trkpt lat="51.0753280" lon="-4.0684180"/>
            <trkpt lat="51.0755480" lon="-4.0679620"/>
            <trkpt lat="51.0757010" lon="-4.0678330"/>
            <trkpt lat="51.0759140" lon="-4.0678110"/>
            <trkpt lat="51.0763610" lon="-4.0680210"/>
            <trkpt lat="51.0763440" lon="-4.0683440"/>
            <trkpt lat="51.0764030" lon="-4.0685510"/>
            <trkpt lat="51.0765340" lon="-4.0687020"/>
            <trkpt lat="51.0767140" lon="-4.0687070"/>
            <trkpt lat="51.0768240" lon="-4.0686130"/>
            <trkpt lat="51.0769500" lon="-4.0682530"/>
            <trkpt lat="51.0817730" lon="-4.0728620"/>
            <trkpt lat="51.0813980" lon="-4.0726910"/>
            <trkpt lat="51.0812120" lon="-4.0730290"/>
            <trkpt lat="51.0809230" lon="-4.0731840"/>
            <trkpt lat="51.0810970" lon="-4.0744360"/>
            <trkpt lat="51.0814980" lon="-4.0757390"/>
            <trkpt lat="51.0824210" lon="-4.0772740"/>
            <trkpt lat="51.0827190" lon="-4.0781740"/>
            <trkpt lat="51.0841240" lon="-4.0841630"/>
            <trkpt lat="51.0847460" lon="-4.0858370"/>
            <trkpt lat="51.0855960" lon="-4.0874340"/>
            <trkpt lat="51.0861630" lon="-4.0891660"/>
            <trkpt lat="51.0865770" lon="-4.0914040"/>
            <trkpt lat="51.0874440" lon="-4.0945880"/>
            <trkpt lat="51.0906660" lon="-4.1018440"/>
            <trkpt lat="51.0913430" lon="-4.1031550"/>
            <trkpt lat="51.0926710" lon="-4.1050020"/>
            <trkpt lat="51.0932960" lon="-4.1060750"/>
            <trkpt lat="51.0937150" lon="-4.1071650"/>
            <trkpt lat="51.0941480" lon="-4.1088750"/>
            <trkpt lat="51.0945670" lon="-4.1118890"/>
            <trkpt lat="51.0947090" lon="-4.1142450"/>
            <trkpt lat="51.0947540" lon="-4.1177580"/>
            <trkpt lat="51.0947170" lon="-4.1192410"/>
            <trkpt lat="51.0945140" lon="-4.1212690"/>
            <trkpt lat="51.0943010" lon="-4.1223260"/>
            <trkpt lat="51.0941020" lon="-4.1254730"/>
            <trkpt lat="51.0934830" lon="-4.1294020"/>
            <trkpt lat="51.0934210" lon="-4.1343180"/>
            <trkpt lat="51.0935120" lon="-4.1425350"/>
            <trkpt lat="51.0938520" lon="-4.1461560"/>
            <trkpt lat="51.0943480" lon="-4.1487170"/>
            <trkpt lat="51.0948240" lon="-4.1507380"/>
            <trkpt lat="51.0957100" lon="-4.1536000"/>
            <trkpt lat="51.0960210" lon="-4.1543270"/>
            <trkpt lat="51.0963590" lon="-4.1555570"/>
            <trkpt lat="51.0967900" lon="-4.1564510"/>
            <trkpt lat="51.0970010" lon="-4.1563650"/>
            <trkpt lat="51.0975250" lon="-4.1574710"/>
            <trkpt lat="51.0984330" lon="-4.1589720"/>
            <trkpt lat="51.0995530" lon="-4.1605640"/>
            <trkpt lat="51.1003620" lon="-4.1615010"/>
            <trkpt lat="51.1013490" lon="-4.1623010"/>
            <trkpt lat="51.1014020" lon="-4.1625090"/>
            <trkpt lat="51.1015580" lon="-4.1624770"/>
            <trkpt lat="51.1019380" lon="-4.1627650"/>
            <trkpt lat="51.1019730" lon="-4.1626480"/>
            <trkpt lat="51.1033300" lon="-4.1631730"/>
            <trkpt lat="51.1049040" lon="-4.1635410"/>
            <trkpt lat="51.1058230" lon="-4.1635600"/>
            <trkpt lat="51.1058720" lon="-4.1633190"/>
            <trkpt lat="51.1068330" lon="-4.1633110"/>
            <trkpt lat="51.1068350" lon="-4.1634530"/>
            <trkpt lat="51.1069090" lon="-4.1634790"/>
            <trkpt lat="51.1069250" lon="-4.1637730"/>
            <trkpt lat="51.1069910" lon="-4.1638480"/>
            <trkpt lat="51.1072590" lon="-4.1637180"/>
            <trkpt lat="51.1074730" lon="-4.1637500"/>
            <trkpt lat="51.1079150" lon="-4.1633980"/>
            <trkpt lat="51.1084960" lon="-4.1635530"/>
            <trkpt lat="51.1087020" lon="-4.1632540"/>
            <trkpt lat="51.1086980" lon="-4.1629740"/>
            <trkpt lat="51.1090190" lon="-4.1630690"/>
            <trkpt lat="51.1094820" lon="-4.1630180"/>
            <trkpt lat="51.1096070" lon="-4.1628550"/>
            <trkpt lat="51.1099370" lon="-4.1627570"/>
            <trkpt lat="51.1100480" lon="-4.1627350"/>
            <trkpt lat="51.1100760" lon="-4.1628640"/>
            <trkpt lat="51.1133090" lon="-4.1620930"/>
            <trkpt lat="51.1134370" lon="-4.1626720"/>
            <trkpt lat="51.1145810" lon="-4.1639390"/>
            <trkpt lat="51.1148000" lon="-4.1640640"/>
            <trkpt lat="51.1152080" lon="-4.1645120"/>
            <trkpt lat="51.1158380" lon="-4.1654780"/>
            <trkpt lat="51.1161010" lon="-4.1665030"/>
            <trkpt lat="51.1163040" lon="-4.1676220"/>
            <trkpt lat="51.1165260" lon="-4.1682160"/>
            <trkpt lat="51.1171860" lon="-4.1693290"/>
            <trkpt lat="51.1173150" lon="-4.1697430"/>
            <trkpt lat="51.1174230" lon="-4.1712380"/>
            <trkpt lat="51.1176810" lon="-4.1722300"/>
            <trkpt lat="51.1175750" lon="-4.1740020"/>
            <trkpt lat="51.1182640" lon="-4.1743380"/>
            <trkpt lat="51.1190500" lon="-4.1750440"/>
            <trkpt lat="51.1201030" lon="-4.1761610"/>
            <trkpt lat="51.1212620" lon="-4.1769280"/>
            <trkpt lat="51.1212930" lon="-4.1768760"/>
            <trkpt lat="51.1223270" lon="-4.1772070"/>
            <trkpt lat="51.1237280" lon="-4.1769450"/>
            <trkpt lat="51.1258300" lon="-4.1772380"/>
            <trkpt lat="51.1263840" lon="-4.1770410"/>
            <trkpt lat="51.1276130" lon="-4.1762210"/>
            <trkpt lat="51.1281880" lon="-4.1761420"/>
            <trkpt lat="51.1318990" lon="-4.1776800"/>
            <trkpt lat="51.1328720" lon="-4.1779560"/>
            <trkpt lat="51.1334830" lon="-4.1782730"/>
            <trkpt lat="51.1345520" lon="-4.1790520"/>
            <trkpt lat="51.1348770" lon="-4.1793770"/>
            <trkpt lat="51.1359540" lon="-4.1807780"/>
            <trkpt lat="51.1364360" lon="-4.1812410"/>
            <trkpt lat="51.1386300" lon="-4.1823860"/>
            <trkpt lat="51.1399420" lon="-4.1836060"/>
            <trkpt lat="51.1404230" lon="-4.1838960"/>
            <trkpt lat="51.1403720" lon="-4.1842040"/>
            <trkpt lat="51.1412610" lon="-4.1848550"/>
            <trkpt lat="51.1419450" lon="-4.1857100"/>
            <trkpt lat="51.1448120" lon="-4.1889020"/>
            <trkpt lat="51.1456190" lon="-4.1895870"/>
            <trkpt lat="51.1458430" lon="-4.1898840"/>
            <trkpt lat="51.1472500" lon="-4.1909560"/>
            <trkpt lat="51.1497930" lon="-4.1915450"/>
            <trkpt lat="51.1504230" lon="-4.1915960"/>
            <trkpt lat="51.1534260" lon="-4.1913540"/>
            <trkpt lat="51.1542510" lon="-4.1914540"/>
            <trkpt lat="51.1545800" lon="-4.1915820"/>
            <trkpt lat="51.1555220" lon="-4.1921230"/>
            <trkpt lat="51.1562560" lon="-4.1931450"/>
            <trkpt lat="51.1572930" lon="-4.1948780"/>
            <trkpt lat="51.1573820" lon="-4.1949340"/>
            <trkpt lat="51.1598700" lon="-4.1941640"/>
            <trkpt lat="51.1610670" lon="-4.1918540"/>
            <trkpt lat="51.1614770" lon="-4.1909080"/>
            <trkpt lat="51.1619240" lon="-4.1893820"/>
            <trkpt lat="51.1629970" lon="-4.1861860"/>
            <trkpt lat="51.1636220" lon="-4.1839140"/>
            <trkpt lat="51.1639200" lon="-4.1824880"/>
            <trkpt lat="51.1643370" lon="-4.1819270"/>
            <trkpt lat="51.1652660" lon="-4.1814200"/>
            <trkpt lat="51.1654110" lon="-4.1812020"/>
            <trkpt lat="51.1656220" lon="-4.1795120"/>
            <trkpt lat="51.1659320" lon="-4.1784650"/>
            <trkpt lat="51.1667680" lon="-4.1748340"/>
            <trkpt lat="51.1671680" lon="-4.1703080"/>
            <trkpt lat="51.1675230" lon="-4.1690110"/>
            <trkpt lat="51.1675210" lon="-4.1685900"/>
            <trkpt lat="51.1674330" lon="-4.1681760"/>
            <trkpt lat="51.1675280" lon="-4.1681190"/>
            <trkpt lat="51.1682720" lon="-4.1695160"/>
            <trkpt lat="51.1691780" lon="-4.1704840"/>
            <trkpt lat="51.1694360" lon="-4.1706610"/>
            <trkpt lat="51.1710250" lon="-4.1708950"/>
            <trkpt lat="51.1722650" lon="-4.1705200"/>
            <trkpt lat="51.1747920" lon="-4.1695480"/>
            <trkpt lat="51.1755700" lon="-4.1693460"/>
            <trkpt lat="51.1758910" lon="-4.1691140"/>
            <trkpt lat="51.1767610" lon="-4.1679490"/>
            <trkpt lat="51.1798720" lon="-4.1610620"/>
            <trkpt lat="51.1803410" lon="-4.1596960"/>
            <trkpt lat="51.1805020" lon="-4.1587780"/>
            <trkpt lat="51.1805710" lon="-4.1569060"/>
            <trkpt lat="51.1803870" lon="-4.1554420"/>
            <trkpt lat="51.1804590" lon="-4.1538290"/>
            <trkpt lat="51.1806060" lon="-4.1530750"/>
            <trkpt lat="51.1813290" lon="-4.1507490"/>
            <trkpt lat="51.1816370" lon="-4.1479840"/>
            <trkpt lat="51.1823140" lon="-4.1450050"/>
            <trkpt lat="51.1826960" lon="-4.1439000"/>
            <trkpt lat="51.1830590" lon="-4.1432860"/>
            <trkpt lat="51.1838520" lon="-4.1423210"/>
            <trkpt lat="51.1845460" lon="-4.1417330"/>
            <trkpt lat="51.1856510" lon="-4.1410310"/>
            <trkpt lat="51.1866980" lon="-4.1396490"/>
            <trkpt lat="51.1875170" lon="-4.1389540"/>
            <trkpt lat="51.1882530" lon="-4.1387890"/>
            <trkpt lat="51.1893310" lon="-4.1389050"/>
            <trkpt lat="51.1898350" lon="-4.1388240"/>
            <trkpt lat="51.1902590" lon="-4.1386250"/>
            <trkpt lat="51.1906430" lon="-4.1382900"/>
            <trkpt lat="51.1911810" lon="-4.1376470"/>
            <trkpt lat="51.1915940" lon="-4.1366700"/>
            <trkpt lat="51.1918140" lon="-4.1353040"/>
            <trkpt lat="51.1917910" lon="-4.1340400"/>
            <trkpt lat="51.1916440" lon="-4.1323400"/>
            <trkpt lat="51.1917220" lon="-4.1316940"/>
            <trkpt lat="51.1918660" lon="-4.1308850"/>
            <trkpt lat="51.1921020" lon="-4.1301220"/>
            <trkpt lat="51.1923520" lon="-4.1295720"/>
            <trkpt lat="51.1926280" lon="-4.1291700"/>
            <trkpt lat="51.1935400" lon="-4.1283740"/>
            <trkpt lat="51.1940580" lon="-4.1281830"/>
            <trkpt lat="51.1950670" lon="-4.1278950"/>
            <trkpt lat="51.1967280" lon="-4.1277930"/>
            <trkpt lat="51.1971060" lon="-4.1275570"/>
            <trkpt lat="51.1972480" lon="-4.1273120"/>
            <trkpt lat="51.1973960" lon="-4.1272180"/>
            <trkpt lat="51.1978380" lon="-4.1272390"/>
            <trkpt lat="51.1980300" lon="-4.1270900"/>
            <trkpt lat="51.1984210" lon="-4.1273090"/>
            <trkpt lat="51.1987530" lon="-4.1272810"/>
            <trkpt lat="51.1989180" lon="-4.1272200"/>
            <trkpt lat="51.1989790" lon="-4.1268450"/>
            <trkpt lat="51.1990630" lon="-4.1267950"/>
            <trkpt lat="51.1996950" lon="-4.1268920"/>
            <trkpt lat="51.2000760" lon="-4.1274410"/>
            <trkpt lat="51.2004030" lon="-4.1274240"/>
            <trkpt lat="51.2008390" lon="-4.1270730"/>
            <trkpt lat="51.2012150" lon="-4.1270290"/>
            <trkpt lat="51.2018020" lon="-4.1273510"/>
            <trkpt lat="51.2028880" lon="-4.1272650"/>
            <trkpt lat="51.2027540" lon="-4.1287290"/>
            <trkpt lat="51.2036950" lon="-4.1285780"/>
            <trkpt lat="51.2043520" lon="-4.1288940"/>
            <trkpt lat="51.2047150" lon="-4.1289130"/>
            <trkpt lat="51.2051130" lon="-4.1287600"/>
            <trkpt lat="51.2051300" lon="-4.1288860"/>
            <trkpt lat="51.2052190" lon="-4.1289620"/>
            <trkpt lat="51.2060420" lon="-4.1290040"/>
            <trkpt lat="51.2061120" lon="-4.1290550"/>
            <trkpt lat="51.2061320" lon="-4.1292500"/>
            <trkpt lat="51.2061240" lon="-4.1299360"/>
            <trkpt lat="51.2065570" lon="-4.1300950"/>
            <trkpt lat="51.2068730" lon="-4.1305780"/>
            <trkpt lat="51.2084900" lon="-4.1282320"/>
            <trkpt lat="51.2087240" lon="-4.1275400"/>
            <trkpt lat="51.2088730" lon="-4.1268060"/>
            <trkpt lat="51.2092240" lon="-4.1264880"/>
            <trkpt lat="51.2095290" lon="-4.1256900"/>
            <trkpt lat="51.2096400" lon="-4.1251720"/>
            <trkpt lat="51.2096140" lon="-4.1250340"/>
            <trkpt lat="51.2093130" lon="-4.1247700"/>
            <trkpt lat="51.2094810" lon="-4.1241850"/>
            <trkpt lat="51.2095540" lon="-4.1233540"/>
            <trkpt lat="51.2097860" lon="-4.1224190"/>
            <trkpt lat="51.2101680" lon="-4.1214560"/>
            <trkpt lat="51.2102930" lon="-4.1206470"/>
            <trkpt lat="51.2102940" lon="-4.1196820"/>
            <trkpt lat="51.2103390" lon="-4.1190910"/>
            <trkpt lat="51.2103870" lon="-4.1190190"/>
            <trkpt lat="51.2101130" lon="-4.1164990"/>
            <trkpt lat="51.2100460" lon="-4.1162660"/>
            <trkpt lat="51.2105780" lon="-4.1158910"/>
            <trkpt lat="51.2106120" lon="-4.1156970"/>
            <trkpt lat="51.2104750" lon="-4.1138500"/>
            <trkpt lat="51.2108370" lon="-4.1117800"/>
            <trkpt lat="51.2107930" lon="-4.1116000"/>
            <trkpt lat="51.2108670" lon="-4.1111410"/>
            <extensions>
                <gs:line>
                    <gs:color>000000</gs:color>
                    <gs:opacity>1.0</gs:opacity>
                    <gs:width>4.0</gs:width>
                </gs:line>
            </extensions>
        </trkseg>
    </trk>
</gpx>
