<?xml version="1.0" encoding="UTF-8" standalone="yes"?>
<gpx version="1.1" creator="OS Maps - Web" xmlns="http://www.topografix.com/GPX/1/1"
xmlns:xsi="http://www.w3.org/2001/XMLSchema-instance"
xsi:schemaLocation="http://www.topografix.com/GPX/1/1 http://www.topografix.com/GPX/1/1/gpx.xsd"
xmlns:gs="http://www.topografix.com/GPX/gpx_style/0/2"
xmlns:gh="https://graphhopper.com/public/schema/gpx/1.1"
xmlns:os="https://ordnancesurvey.co.uk/public/schema/route/0.1">
    <metadata>
        <name>CoastandCastles</name>
        <desc>Converted from a KML file KML2GPX.COM</desc>
        <bounds minlat="55.0168994" minlon="-3.2176404" maxlat="56.0024381" maxlon="-1.4199907"/>
    </metadata>
    <wpt lat="55.0168994" lon="-1.4199907">
        <name>1</name>
    </wpt>
    <wpt lat="55.0195997" lon="-1.4213436">
        <name>2</name>
    </wpt>
    <wpt lat="55.0212981" lon="-1.4206532">
        <name>3</name>
    </wpt>
    <wpt lat="55.0226743" lon="-1.4226497">
        <name>4</name>
    </wpt>
    <wpt lat="55.0234306" lon="-1.4244140">
        <name>5</name>
    </wpt>
    <wpt lat="55.0248101" lon="-1.4278097">
        <name>6</name>
    </wpt>
    <wpt lat="55.0275255" lon="-1.4287960">
        <name>7</name>
    </wpt>
    <wpt lat="55.0308879" lon="-1.4305842">
        <name>8</name>
    </wpt>
    <wpt lat="55.0340044" lon="-1.4330912">
        <name>9</name>
    </wpt>
    <wpt lat="55.0360040" lon="-1.4318590">
        <name>10</name>
    </wpt>
    <wpt lat="55.0374233" lon="-1.4328582">
        <name>11</name>
    </wpt>
    <wpt lat="55.0404512" lon="-1.4319544">
        <name>12</name>
    </wpt>
    <wpt lat="55.0422785" lon="-1.4359627">
        <name>13</name>
    </wpt>
    <wpt lat="55.0438760" lon="-1.4387032">
        <name>14</name>
    </wpt>
    <wpt lat="55.0460175" lon="-1.4429221">
        <name>15</name>
    </wpt>
    <wpt lat="55.0477525" lon="-1.4464231">
        <name>16</name>
    </wpt>
    <wpt lat="55.0478806" lon="-1.4478477">
        <name>17</name>
    </wpt>
    <wpt lat="55.0502463" lon="-1.4494359">
        <name>18</name>
    </wpt>
    <wpt lat="55.0511709" lon="-1.4487617">
        <name>19</name>
    </wpt>
    <wpt lat="55.0566676" lon="-1.4522024">
        <name>20</name>
    </wpt>
    <wpt lat="55.0576149" lon="-1.4523961">
        <name>21</name>
    </wpt>
    <wpt lat="55.0583933" lon="-1.4542711">
        <name>22</name>
    </wpt>
    <wpt lat="55.0600311" lon="-1.4559811">
        <name>23</name>
    </wpt>
    <wpt lat="55.0643906" lon="-1.4581134">
        <name>24</name>
    </wpt>
    <wpt lat="55.0652874" lon="-1.4552877">
        <name>25</name>
    </wpt>
    <wpt lat="55.0659456" lon="-1.4540443">
        <name>26</name>
    </wpt>
    <wpt lat="55.0688423" lon="-1.4554205">
        <name>27</name>
    </wpt>
    <wpt lat="55.0701517" lon="-1.4572091">
        <name>28</name>
    </wpt>
    <wpt lat="55.0734253" lon="-1.4612618">
        <name>29</name>
    </wpt>
    <wpt lat="55.0752105" lon="-1.4626604">
        <name>30</name>
    </wpt>
    <wpt lat="55.0754631" lon="-1.4668673">
        <name>31</name>
    </wpt>
    <wpt lat="55.0769283" lon="-1.4686185">
        <name>32</name>
    </wpt>
    <wpt lat="55.0791919" lon="-1.4691741">
        <name>33</name>
    </wpt>
    <wpt lat="55.0831093" lon="-1.4710213">
        <name>34</name>
    </wpt>
    <wpt lat="55.0836589" lon="-1.4745767">
        <name>35</name>
    </wpt>
    <wpt lat="55.0846231" lon="-1.4763064">
        <name>36</name>
    </wpt>
    <wpt lat="55.0856431" lon="-1.4795499">
        <name>37</name>
    </wpt>
    <wpt lat="55.0879494" lon="-1.4819408">
        <name>38</name>
    </wpt>
    <wpt lat="55.0916396" lon="-1.4866653">
        <name>39</name>
    </wpt>
    <wpt lat="55.0918615" lon="-1.4879065">
        <name>40</name>
    </wpt>
    <wpt lat="55.0986961" lon="-1.4942760">
        <name>41</name>
    </wpt>
    <wpt lat="55.1055180" lon="-1.4979828">
        <name>42</name>
    </wpt>
    <wpt lat="55.1099729" lon="-1.4993068">
        <name>43</name>
    </wpt>
    <wpt lat="55.1158617" lon="-1.5000062">
        <name>44</name>
    </wpt>
    <wpt lat="55.1232159" lon="-1.5009938">
        <name>45</name>
    </wpt>
    <wpt lat="55.1239291" lon="-1.4996067">
        <name>46</name>
    </wpt>
    <wpt lat="55.1248855" lon="-1.4990076">
        <name>47</name>
    </wpt>
    <wpt lat="55.1254316" lon="-1.4976561">
        <name>48</name>
    </wpt>
    <wpt lat="55.1268882" lon="-1.4993713">
        <name>49</name>
    </wpt>
    <wpt lat="55.1283680" lon="-1.5016908">
        <name>50</name>
    </wpt>
    <wpt lat="55.1291667" lon="-1.5039440">
        <name>51</name>
    </wpt>
    <wpt lat="55.1287948" lon="-1.5057689">
        <name>52</name>
    </wpt>
    <wpt lat="55.1292288" lon="-1.5107815">
        <name>53</name>
    </wpt>
    <wpt lat="55.1319716" lon="-1.5137285">
        <name>54</name>
    </wpt>
    <wpt lat="55.1325479" lon="-1.5142973">
        <name>55</name>
    </wpt>
    <wpt lat="55.1336634" lon="-1.5166615">
        <name>56</name>
    </wpt>
    <wpt lat="55.1336270" lon="-1.5209445">
        <name>57</name>
    </wpt>
    <wpt lat="55.1328618" lon="-1.5242859">
        <name>58</name>
    </wpt>
    <wpt lat="55.1317208" lon="-1.5285213">
        <name>59</name>
    </wpt>
    <wpt lat="55.1335826" lon="-1.5290301">
        <name>60</name>
    </wpt>
    <wpt lat="55.1362619" lon="-1.5287060">
        <name>61</name>
    </wpt>
    <wpt lat="55.1361475" lon="-1.5283193">
        <name>62</name>
    </wpt>
    <wpt lat="55.1343897" lon="-1.5363204">
        <name>63</name>
    </wpt>
    <wpt lat="55.1337349" lon="-1.5407071">
        <name>64</name>
    </wpt>
    <wpt lat="55.1320057" lon="-1.5438588">
        <name>65</name>
    </wpt>
    <wpt lat="55.1334233" lon="-1.5451540">
        <name>66</name>
    </wpt>
    <wpt lat="55.1340755" lon="-1.5479154">
        <name>67</name>
    </wpt>
    <wpt lat="55.1334337" lon="-1.5504534">
        <name>68</name>
    </wpt>
    <wpt lat="55.1333591" lon="-1.5546522">
        <name>69</name>
    </wpt>
    <wpt lat="55.1333373" lon="-1.5584033">
        <name>70</name>
    </wpt>
    <wpt lat="55.1338824" lon="-1.5617146">
        <name>71</name>
    </wpt>
    <wpt lat="55.1332368" lon="-1.5636637">
        <name>72</name>
    </wpt>
    <wpt lat="55.1318993" lon="-1.5673001">
        <name>73</name>
    </wpt>
    <wpt lat="55.1321414" lon="-1.5680719">
        <name>74</name>
    </wpt>
    <wpt lat="55.1344585" lon="-1.5674133">
        <name>75</name>
    </wpt>
    <wpt lat="55.1351447" lon="-1.5634794">
        <name>76</name>
    </wpt>
    <wpt lat="55.1353627" lon="-1.5607980">
        <name>77</name>
    </wpt>
    <wpt lat="55.1369389" lon="-1.5647766">
        <name>78</name>
    </wpt>
    <wpt lat="55.1393716" lon="-1.5674034">
        <name>79</name>
    </wpt>
    <wpt lat="55.1412651" lon="-1.5606973">
        <name>80</name>
    </wpt>
    <wpt lat="55.1419311" lon="-1.5563395">
        <name>81</name>
    </wpt>
    <wpt lat="55.1430222" lon="-1.5530191">
        <name>82</name>
    </wpt>
    <wpt lat="55.1448263" lon="-1.5497909">
        <name>83</name>
    </wpt>
    <wpt lat="55.1469846" lon="-1.5487543">
        <name>84</name>
    </wpt>
    <wpt lat="55.1450706" lon="-1.5388647">
        <name>85</name>
    </wpt>
    <wpt lat="55.1440070" lon="-1.5272414">
        <name>86</name>
    </wpt>
    <wpt lat="55.1439445" lon="-1.5195468">
        <name>87</name>
    </wpt>
    <wpt lat="55.1508747" lon="-1.5237022">
        <name>88</name>
    </wpt>
    <wpt lat="55.1540258" lon="-1.5244959">
        <name>89</name>
    </wpt>
    <wpt lat="55.1571613" lon="-1.5242446">
        <name>90</name>
    </wpt>
    <wpt lat="55.1577936" lon="-1.5263000">
        <name>91</name>
    </wpt>
    <wpt lat="55.1569242" lon="-1.5312447">
        <name>92</name>
    </wpt>
    <wpt lat="55.1557268" lon="-1.5353990">
        <name>93</name>
    </wpt>
    <wpt lat="55.1563992" lon="-1.5420416">
        <name>94</name>
    </wpt>
    <wpt lat="55.1644174" lon="-1.5374165">
        <name>95</name>
    </wpt>
    <wpt lat="55.1706315" lon="-1.5323032">
        <name>96</name>
    </wpt>
    <wpt lat="55.1712732" lon="-1.5328744">
        <name>97</name>
    </wpt>
    <wpt lat="55.1722107" lon="-1.5312087">
        <name>98</name>
    </wpt>
    <wpt lat="55.1754065" lon="-1.5300686">
        <name>99</name>
    </wpt>
    <wpt lat="55.1781936" lon="-1.5313347">
        <name>100</name>
    </wpt>
    <wpt lat="55.1801074" lon="-1.5334611">
        <name>101</name>
    </wpt>
    <wpt lat="55.1824880" lon="-1.5359173">
        <name>102</name>
    </wpt>
    <wpt lat="55.1864908" lon="-1.5384871">
        <name>103</name>
    </wpt>
    <wpt lat="55.1869530" lon="-1.5402658">
        <name>104</name>
    </wpt>
    <wpt lat="55.1882641" lon="-1.5385697">
        <name>105</name>
    </wpt>
    <wpt lat="55.1895460" lon="-1.5385514">
        <name>106</name>
    </wpt>
    <wpt lat="55.1914081" lon="-1.5380222">
        <name>107</name>
    </wpt>
    <wpt lat="55.1930389" lon="-1.5345028">
        <name>108</name>
    </wpt>
    <wpt lat="55.1941994" lon="-1.5321306">
        <name>109</name>
    </wpt>
    <wpt lat="55.1976326" lon="-1.5311736">
        <name>110</name>
    </wpt>
    <wpt lat="55.2005896" lon="-1.5267451">
        <name>111</name>
    </wpt>
    <wpt lat="55.2026834" lon="-1.5264463">
        <name>112</name>
    </wpt>
    <wpt lat="55.2039919" lon="-1.5286511">
        <name>113</name>
    </wpt>
    <wpt lat="55.2050991" lon="-1.5320047">
        <name>114</name>
    </wpt>
    <wpt lat="55.2063275" lon="-1.5339230">
        <name>115</name>
    </wpt>
    <wpt lat="55.2081409" lon="-1.5353154">
        <name>116</name>
    </wpt>
    <wpt lat="55.2103973" lon="-1.5389835">
        <name>117</name>
    </wpt>
    <wpt lat="55.2118786" lon="-1.5367733">
        <name>118</name>
    </wpt>
    <wpt lat="55.2089597" lon="-1.5315505">
        <name>119</name>
    </wpt>
    <wpt lat="55.2086774" lon="-1.5276255">
        <name>120</name>
    </wpt>
    <wpt lat="55.2102600" lon="-1.5260612">
        <name>121</name>
    </wpt>
    <wpt lat="55.2120612" lon="-1.5280479">
        <name>122</name>
    </wpt>
    <wpt lat="55.2175001" lon="-1.5290851">
        <name>123</name>
    </wpt>
    <wpt lat="55.2221622" lon="-1.5298661">
        <name>124</name>
    </wpt>
    <wpt lat="55.2258080" lon="-1.5283290">
        <name>125</name>
    </wpt>
    <wpt lat="55.2283232" lon="-1.5289773">
        <name>126</name>
    </wpt>
    <wpt lat="55.2305303" lon="-1.5315406">
        <name>127</name>
    </wpt>
    <wpt lat="55.2331175" lon="-1.5343596">
        <name>128</name>
    </wpt>
    <wpt lat="55.2355657" lon="-1.5386451">
        <name>129</name>
    </wpt>
    <wpt lat="55.2356612" lon="-1.5399242">
        <name>130</name>
    </wpt>
    <wpt lat="55.2372142" lon="-1.5455236">
        <name>131</name>
    </wpt>
    <wpt lat="55.2398192" lon="-1.5499126">
        <name>132</name>
    </wpt>
    <wpt lat="55.2438835" lon="-1.5545680">
        <name>133</name>
    </wpt>
    <wpt lat="55.2492594" lon="-1.5601401">
        <name>134</name>
    </wpt>
    <wpt lat="55.2551057" lon="-1.5644249">
        <name>135</name>
    </wpt>
    <wpt lat="55.2575033" lon="-1.5664350">
        <name>136</name>
    </wpt>
    <wpt lat="55.2643884" lon="-1.5690500">
        <name>137</name>
    </wpt>
    <wpt lat="55.2694101" lon="-1.5708169">
        <name>138</name>
    </wpt>
    <wpt lat="55.2721245" lon="-1.5715373">
        <name>139</name>
    </wpt>
    <wpt lat="55.2760776" lon="-1.5748943">
        <name>140</name>
    </wpt>
    <wpt lat="55.2773071" lon="-1.5732809">
        <name>141</name>
    </wpt>
    <wpt lat="55.2825012" lon="-1.5732032">
        <name>142</name>
    </wpt>
    <wpt lat="55.2894756" lon="-1.5729946">
        <name>143</name>
    </wpt>
    <wpt lat="55.2901720" lon="-1.5715446">
        <name>144</name>
    </wpt>
    <wpt lat="55.2937139" lon="-1.5702207">
        <name>145</name>
    </wpt>
    <wpt lat="55.2974761" lon="-1.5670728">
        <name>146</name>
    </wpt>
    <wpt lat="55.3021427" lon="-1.5609543">
        <name>147</name>
    </wpt>
    <wpt lat="55.3063595" lon="-1.5593188">
        <name>148</name>
    </wpt>
    <wpt lat="55.3083392" lon="-1.5570505">
        <name>149</name>
    </wpt>
    <wpt lat="55.3115980" lon="-1.5506905">
        <name>150</name>
    </wpt>
    <wpt lat="55.3136936" lon="-1.5513122">
        <name>151</name>
    </wpt>
    <wpt lat="55.3160863" lon="-1.5514915">
        <name>152</name>
    </wpt>
    <wpt lat="55.3194399" lon="-1.5506849">
        <name>153</name>
    </wpt>
    <wpt lat="55.3216239" lon="-1.5500196">
        <name>154</name>
    </wpt>
    <wpt lat="55.3237842" lon="-1.5533873">
        <name>155</name>
    </wpt>
    <wpt lat="55.3246298" lon="-1.5559892">
        <name>156</name>
    </wpt>
    <wpt lat="55.3265928" lon="-1.5601464">
        <name>157</name>
    </wpt>
    <wpt lat="55.3282111" lon="-1.5618007">
        <name>158</name>
    </wpt>
    <wpt lat="55.3304901" lon="-1.5638651">
        <name>159</name>
    </wpt>
    <wpt lat="55.3317896" lon="-1.5671861">
        <name>160</name>
    </wpt>
    <wpt lat="55.3335900" lon="-1.5703312">
        <name>161</name>
    </wpt>
    <wpt lat="55.3343786" lon="-1.5741805">
        <name>162</name>
    </wpt>
    <wpt lat="55.3351679" lon="-1.5758394">
        <name>163</name>
    </wpt>
    <wpt lat="55.3344169" lon="-1.5779765">
        <name>164</name>
    </wpt>
    <wpt lat="55.3332016" lon="-1.5838669">
        <name>165</name>
    </wpt>
    <wpt lat="55.3358696" lon="-1.5870111">
        <name>166</name>
    </wpt>
    <wpt lat="55.3358222" lon="-1.5903808">
        <name>167</name>
    </wpt>
    <wpt lat="55.3392267" lon="-1.5949796">
        <name>168</name>
    </wpt>
    <wpt lat="55.3422129" lon="-1.6013743">
        <name>169</name>
    </wpt>
    <wpt lat="55.3438674" lon="-1.6070059">
        <name>170</name>
    </wpt>
    <wpt lat="55.3435526" lon="-1.6096259">
        <name>171</name>
    </wpt>
    <wpt lat="55.3457054" lon="-1.6101922">
        <name>172</name>
    </wpt>
    <wpt lat="55.3482196" lon="-1.6078749">
        <name>173</name>
    </wpt>
    <wpt lat="55.3491788" lon="-1.6098267">
        <name>174</name>
    </wpt>
    <wpt lat="55.3527034" lon="-1.6077891">
        <name>175</name>
    </wpt>
    <wpt lat="55.3569955" lon="-1.6082915">
        <name>176</name>
    </wpt>
    <wpt lat="55.3584062" lon="-1.6083688">
        <name>177</name>
    </wpt>
    <wpt lat="55.3607049" lon="-1.6117505">
        <name>178</name>
    </wpt>
    <wpt lat="55.3692703" lon="-1.6165582">
        <name>179</name>
    </wpt>
    <wpt lat="55.3730438" lon="-1.6202367">
        <name>180</name>
    </wpt>
    <wpt lat="55.3779653" lon="-1.6225154">
        <name>181</name>
    </wpt>
    <wpt lat="55.3838824" lon="-1.6255365">
        <name>182</name>
    </wpt>
    <wpt lat="55.3891499" lon="-1.6278902">
        <name>183</name>
    </wpt>
    <wpt lat="55.3904272" lon="-1.6239109">
        <name>184</name>
    </wpt>
    <wpt lat="55.3925058" lon="-1.6235822">
        <name>185</name>
    </wpt>
    <wpt lat="55.3903429" lon="-1.6127194">
        <name>186</name>
    </wpt>
    <wpt lat="55.3945610" lon="-1.6079097">
        <name>187</name>
    </wpt>
    <wpt lat="55.3968364" lon="-1.6059229">
        <name>188</name>
    </wpt>
    <wpt lat="55.4010361" lon="-1.6086289">
        <name>189</name>
    </wpt>
    <wpt lat="55.4022623" lon="-1.6112147">
        <name>190</name>
    </wpt>
    <wpt lat="55.4050550" lon="-1.6010215">
        <name>191</name>
    </wpt>
    <wpt lat="55.4061793" lon="-1.5992980">
        <name>192</name>
    </wpt>
    <wpt lat="55.4066629" lon="-1.5960159">
        <name>193</name>
    </wpt>
    <wpt lat="55.4054172" lon="-1.5935527">
        <name>194</name>
    </wpt>
    <wpt lat="55.4057023" lon="-1.5905108">
        <name>195</name>
    </wpt>
    <wpt lat="55.4069329" lon="-1.5883556">
        <name>196</name>
    </wpt>
    <wpt lat="55.4104134" lon="-1.5879873">
        <name>197</name>
    </wpt>
    <wpt lat="55.4157316" lon="-1.5879339">
        <name>198</name>
    </wpt>
    <wpt lat="55.4201035" lon="-1.5814573">
        <name>199</name>
    </wpt>
    <wpt lat="55.4225379" lon="-1.5813952">
        <name>200</name>
    </wpt>
    <wpt lat="55.4247396" lon="-1.5798393">
        <name>201</name>
    </wpt>
    <wpt lat="55.4312663" lon="-1.5778997">
        <name>202</name>
    </wpt>
    <wpt lat="55.4334314" lon="-1.5863363">
        <name>203</name>
    </wpt>
    <wpt lat="55.4371750" lon="-1.5907166">
        <name>204</name>
    </wpt>
    <wpt lat="55.4418138" lon="-1.5929246">
        <name>205</name>
    </wpt>
    <wpt lat="55.4492889" lon="-1.5919056">
        <name>206</name>
    </wpt>
    <wpt lat="55.4577396" lon="-1.5918995">
        <name>207</name>
    </wpt>
    <wpt lat="55.4638533" lon="-1.5965035">
        <name>208</name>
    </wpt>
    <wpt lat="55.4692316" lon="-1.6062801">
        <name>209</name>
    </wpt>
    <wpt lat="55.4714760" lon="-1.5994393">
        <name>210</name>
    </wpt>
    <wpt lat="55.4737082" lon="-1.6052687">
        <name>211</name>
    </wpt>
    <wpt lat="55.4759144" lon="-1.6103212">
        <name>212</name>
    </wpt>
    <wpt lat="55.4793062" lon="-1.6048477">
        <name>213</name>
    </wpt>
    <wpt lat="55.4926141" lon="-1.6163722">
        <name>214</name>
    </wpt>
    <wpt lat="55.4924576" lon="-1.6189604">
        <name>215</name>
    </wpt>
    <wpt lat="55.4945211" lon="-1.6211577">
        <name>216</name>
    </wpt>
    <wpt lat="55.4924586" lon="-1.6261988">
        <name>217</name>
    </wpt>
    <wpt lat="55.4968911" lon="-1.6334160">
        <name>218</name>
    </wpt>
    <wpt lat="55.4961438" lon="-1.6374406">
        <name>219</name>
    </wpt>
    <wpt lat="55.5024313" lon="-1.6428151">
        <name>220</name>
    </wpt>
    <wpt lat="55.5048228" lon="-1.6501750">
        <name>221</name>
    </wpt>
    <wpt lat="55.5037567" lon="-1.6572028">
        <name>222</name>
    </wpt>
    <wpt lat="55.5029025" lon="-1.6596050">
        <name>223</name>
    </wpt>
    <wpt lat="55.5109148" lon="-1.6781785">
        <name>224</name>
    </wpt>
    <wpt lat="55.5149696" lon="-1.6807681">
        <name>225</name>
    </wpt>
    <wpt lat="55.5131412" lon="-1.6948073">
        <name>226</name>
    </wpt>
    <wpt lat="55.5204087" lon="-1.7015688">
        <name>227</name>
    </wpt>
    <wpt lat="55.5202901" lon="-1.7050669">
        <name>228</name>
    </wpt>
    <wpt lat="55.5245413" lon="-1.7068907">
        <name>229</name>
    </wpt>
    <wpt lat="55.5368765" lon="-1.7052732">
        <name>230</name>
    </wpt>
    <wpt lat="55.5406485" lon="-1.6917444">
        <name>231</name>
    </wpt>
    <wpt lat="55.5453511" lon="-1.6965214">
        <name>232</name>
    </wpt>
    <wpt lat="55.5483331" lon="-1.6920152">
        <name>233</name>
    </wpt>
    <wpt lat="55.5500193" lon="-1.6939996">
        <name>234</name>
    </wpt>
    <wpt lat="55.5573931" lon="-1.6841276">
        <name>235</name>
    </wpt>
    <wpt lat="55.5587672" lon="-1.6852010">
        <name>236</name>
    </wpt>
    <wpt lat="55.5639838" lon="-1.6798218">
        <name>237</name>
    </wpt>
    <wpt lat="55.5678474" lon="-1.6816875">
        <name>238</name>
    </wpt>
    <wpt lat="55.5690048" lon="-1.6760091">
        <name>239</name>
    </wpt>
    <wpt lat="55.5720663" lon="-1.6678661">
        <name>240</name>
    </wpt>
    <wpt lat="55.5753714" lon="-1.6701843">
        <name>241</name>
    </wpt>
    <wpt lat="55.5777451" lon="-1.6674649">
        <name>242</name>
    </wpt>
    <wpt lat="55.5790357" lon="-1.6769686">
        <name>243</name>
    </wpt>
    <wpt lat="55.5784447" lon="-1.6832933">
        <name>244</name>
    </wpt>
    <wpt lat="55.5838615" lon="-1.6923322">
        <name>245</name>
    </wpt>
    <wpt lat="55.5849077" lon="-1.6954814">
        <name>246</name>
    </wpt>
    <wpt lat="55.5898014" lon="-1.7031803">
        <name>247</name>
    </wpt>
    <wpt lat="55.5949124" lon="-1.7071647">
        <name>248</name>
    </wpt>
    <wpt lat="55.6020647" lon="-1.7104868">
        <name>249</name>
    </wpt>
    <wpt lat="55.6064271" lon="-1.7156595">
        <name>250</name>
    </wpt>
    <wpt lat="55.5969608" lon="-1.7277042">
        <name>251</name>
    </wpt>
    <wpt lat="55.5890089" lon="-1.7425169">
        <name>252</name>
    </wpt>
    <wpt lat="55.5938953" lon="-1.7471966">
        <name>253</name>
    </wpt>
    <wpt lat="55.5924591" lon="-1.7603893">
        <name>254</name>
    </wpt>
    <wpt lat="55.5954231" lon="-1.7661083">
        <name>255</name>
    </wpt>
    <wpt lat="55.5954268" lon="-1.7717811">
        <name>256</name>
    </wpt>
    <wpt lat="55.6018826" lon="-1.7772192">
        <name>257</name>
    </wpt>
    <wpt lat="55.6007277" lon="-1.7781041">
        <name>258</name>
    </wpt>
    <wpt lat="55.6048261" lon="-1.7806438">
        <name>259</name>
    </wpt>
    <wpt lat="55.6076980" lon="-1.7975507">
        <name>260</name>
    </wpt>
    <wpt lat="55.6087163" lon="-1.8087636">
        <name>261</name>
    </wpt>
    <wpt lat="55.6013081" lon="-1.8223330">
        <name>262</name>
    </wpt>
    <wpt lat="55.6105472" lon="-1.8333268">
        <name>263</name>
    </wpt>
    <wpt lat="55.6207755" lon="-1.8420774">
        <name>264</name>
    </wpt>
    <wpt lat="55.6216665" lon="-1.8650179">
        <name>265</name>
    </wpt>
    <wpt lat="55.6469126" lon="-1.9011440">
        <name>266</name>
    </wpt>
    <wpt lat="55.6523973" lon="-1.8926544">
        <name>267</name>
    </wpt>
    <wpt lat="55.6563011" lon="-1.9011455">
        <name>268</name>
    </wpt>
    <wpt lat="55.6590713" lon="-1.9048084">
        <name>269</name>
    </wpt>
    <wpt lat="55.6639681" lon="-1.9011126">
        <name>270</name>
    </wpt>
    <wpt lat="55.6647131" lon="-1.9102860">
        <name>271</name>
    </wpt>
    <wpt lat="55.6713442" lon="-1.9135204">
        <name>272</name>
    </wpt>
    <wpt lat="55.6759784" lon="-1.9060255">
        <name>273</name>
    </wpt>
    <wpt lat="55.6775520" lon="-1.8922928">
        <name>274</name>
    </wpt>
    <wpt lat="55.6857262" lon="-1.8853420">
        <name>275</name>
    </wpt>
    <wpt lat="55.6860785" lon="-1.8771491">
        <name>276</name>
    </wpt>
    <wpt lat="55.6933628" lon="-1.8832853">
        <name>277</name>
    </wpt>
    <wpt lat="55.6993291" lon="-1.8935616">
        <name>278</name>
    </wpt>
    <wpt lat="55.7047772" lon="-1.9179513">
        <name>279</name>
    </wpt>
    <wpt lat="55.7062471" lon="-1.9227064">
        <name>280</name>
    </wpt>
    <wpt lat="55.7027175" lon="-1.9366149">
        <name>281</name>
    </wpt>
    <wpt lat="55.7059625" lon="-1.9405803">
        <name>282</name>
    </wpt>
    <wpt lat="55.7106798" lon="-1.9476767">
        <name>283</name>
    </wpt>
    <wpt lat="55.7163041" lon="-1.9346908">
        <name>284</name>
    </wpt>
    <wpt lat="55.7338784" lon="-1.9543052">
        <name>285</name>
    </wpt>
    <wpt lat="55.7410848" lon="-1.9677614">
        <name>286</name>
    </wpt>
    <wpt lat="55.7541797" lon="-1.9821744">
        <name>287</name>
    </wpt>
    <wpt lat="55.7626096" lon="-1.9975144">
        <name>288</name>
    </wpt>
    <wpt lat="55.7654049" lon="-2.0066491">
        <name>289</name>
    </wpt>
    <wpt lat="55.7682656" lon="-2.0076876">
        <name>290</name>
    </wpt>
    <wpt lat="55.7681743" lon="-2.0011447">
        <name>291</name>
    </wpt>
    <wpt lat="55.7697342" lon="-2.0007363">
        <name>292</name>
    </wpt>
    <wpt lat="55.7734228" lon="-2.0070644">
        <name>293</name>
    </wpt>
    <wpt lat="55.7747151" lon="-2.0089528">
        <name>294</name>
    </wpt>
    <wpt lat="55.7753154" lon="-2.0117389">
        <name>295</name>
    </wpt>
    <wpt lat="55.7757940" lon="-2.0152522">
        <name>296</name>
    </wpt>
    <wpt lat="55.7781329" lon="-2.0228509">
        <name>297</name>
    </wpt>
    <wpt lat="55.7754887" lon="-2.0316004">
        <name>298</name>
    </wpt>
    <wpt lat="55.7708223" lon="-2.0427900">
        <name>299</name>
    </wpt>
    <wpt lat="55.7763697" lon="-2.0467308">
        <name>300</name>
    </wpt>
    <wpt lat="55.7770608" lon="-2.0534490">
        <name>301</name>
    </wpt>
    <wpt lat="55.7754082" lon="-2.0719620">
        <name>302</name>
    </wpt>
    <wpt lat="55.7749434" lon="-2.0860378">
        <name>303</name>
    </wpt>
    <wpt lat="55.7831680" lon="-2.0854659">
        <name>304</name>
    </wpt>
    <wpt lat="55.7860638" lon="-2.0889824">
        <name>305</name>
    </wpt>
    <wpt lat="55.7931395" lon="-2.0867846">
        <name>306</name>
    </wpt>
    <wpt lat="55.8004807" lon="-2.0818475">
        <name>307</name>
    </wpt>
    <wpt lat="55.8145961" lon="-2.0809797">
        <name>308</name>
    </wpt>
    <wpt lat="55.8215974" lon="-2.0771044">
        <name>309</name>
    </wpt>
    <wpt lat="55.8245609" lon="-2.0878129">
        <name>310</name>
    </wpt>
    <wpt lat="55.8257610" lon="-2.0912908">
        <name>311</name>
    </wpt>
    <wpt lat="55.8334691" lon="-2.0979886">
        <name>312</name>
    </wpt>
    <wpt lat="55.8364345" lon="-2.1071469">
        <name>313</name>
    </wpt>
    <wpt lat="55.8366948" lon="-2.1117169">
        <name>314</name>
    </wpt>
    <wpt lat="55.8416881" lon="-2.1223388">
        <name>315</name>
    </wpt>
    <wpt lat="55.8466758" lon="-2.1171063">
        <name>316</name>
    </wpt>
    <wpt lat="55.8553640" lon="-2.1033257">
        <name>317</name>
    </wpt>
    <wpt lat="55.8617598" lon="-2.0991835">
        <name>318</name>
    </wpt>
    <wpt lat="55.8704428" lon="-2.0880610">
        <name>319</name>
    </wpt>
    <wpt lat="55.8730558" lon="-2.0913817">
        <name>320</name>
    </wpt>
    <wpt lat="55.8698494" lon="-2.1030833">
        <name>321</name>
    </wpt>
    <wpt lat="55.8675658" lon="-2.1128552">
        <name>322</name>
    </wpt>
    <wpt lat="55.8643001" lon="-2.1181190">
        <name>323</name>
    </wpt>
    <wpt lat="55.8629046" lon="-2.1246358">
        <name>324</name>
    </wpt>
    <wpt lat="55.8619804" lon="-2.1356176">
        <name>325</name>
    </wpt>
    <wpt lat="55.8694159" lon="-2.1644562">
        <name>326</name>
    </wpt>
    <wpt lat="55.8638192" lon="-2.1730175">
        <name>327</name>
    </wpt>
    <wpt lat="55.8769039" lon="-2.2021663">
        <name>328</name>
    </wpt>
    <wpt lat="55.8935064" lon="-2.2264669">
        <name>329</name>
    </wpt>
    <wpt lat="55.9050256" lon="-2.2509316">
        <name>330</name>
    </wpt>
    <wpt lat="55.9078708" lon="-2.2647527">
        <name>331</name>
    </wpt>
    <wpt lat="55.9133425" lon="-2.2807165">
        <name>332</name>
    </wpt>
    <wpt lat="55.9169326" lon="-2.3040859">
        <name>333</name>
    </wpt>
    <wpt lat="55.9219280" lon="-2.3143082">
        <name>334</name>
    </wpt>
    <wpt lat="55.9234598" lon="-2.3237500">
        <name>335</name>
    </wpt>
    <wpt lat="55.9277334" lon="-2.3305193">
        <name>336</name>
    </wpt>
    <wpt lat="55.9296328" lon="-2.3351847">
        <name>337</name>
    </wpt>
    <wpt lat="55.9338705" lon="-2.3473122">
        <name>338</name>
    </wpt>
    <wpt lat="55.9416340" lon="-2.3622261">
        <name>339</name>
    </wpt>
    <wpt lat="55.9462248" lon="-2.3763598">
        <name>340</name>
    </wpt>
    <wpt lat="55.9534823" lon="-2.3920047">
        <name>341</name>
    </wpt>
    <wpt lat="55.9605128" lon="-2.4033471">
        <name>342</name>
    </wpt>
    <wpt lat="55.9683870" lon="-2.4247585">
        <name>343</name>
    </wpt>
    <wpt lat="55.9725714" lon="-2.4418556">
        <name>344</name>
    </wpt>
    <wpt lat="55.9783290" lon="-2.4664959">
        <name>345</name>
    </wpt>
    <wpt lat="55.9835048" lon="-2.4861342">
        <name>346</name>
    </wpt>
    <wpt lat="55.9915409" lon="-2.4954327">
        <name>347</name>
    </wpt>
    <wpt lat="56.0011545" lon="-2.5098233">
        <name>348</name>
    </wpt>
    <wpt lat="56.0024381" lon="-2.5233790">
        <name>349</name>
    </wpt>
    <wpt lat="55.9985095" lon="-2.5459207">
        <name>350</name>
    </wpt>
    <wpt lat="55.9934664" lon="-2.5556082">
        <name>351</name>
    </wpt>
    <wpt lat="55.9887492" lon="-2.6133088">
        <name>352</name>
    </wpt>
    <wpt lat="55.9834842" lon="-2.6444025">
        <name>353</name>
    </wpt>
    <wpt lat="55.9832833" lon="-2.6524097">
        <name>354</name>
    </wpt>
    <wpt lat="55.9667446" lon="-2.6766304">
        <name>355</name>
    </wpt>
    <wpt lat="55.9573996" lon="-2.7299763">
        <name>356</name>
    </wpt>
    <wpt lat="55.9552263" lon="-2.7622508">
        <name>357</name>
    </wpt>
    <wpt lat="55.9548831" lon="-2.7878545">
        <name>358</name>
    </wpt>
    <wpt lat="55.9519513" lon="-2.8103169">
        <name>359</name>
    </wpt>
    <wpt lat="55.9605193" lon="-2.8337137">
        <name>360</name>
    </wpt>
    <wpt lat="55.9718912" lon="-2.8510874">
        <name>361</name>
    </wpt>
    <wpt lat="55.9774598" lon="-2.8613852">
        <name>362</name>
    </wpt>
    <wpt lat="55.9744394" lon="-2.8845464">
        <name>363</name>
    </wpt>
    <wpt lat="55.9822778" lon="-2.8878537">
        <name>364</name>
    </wpt>
    <wpt lat="55.9731323" lon="-2.9064812">
        <name>365</name>
    </wpt>
    <wpt lat="55.9746546" lon="-2.9300903">
        <name>366</name>
    </wpt>
    <wpt lat="55.9707814" lon="-2.9430601">
        <name>367</name>
    </wpt>
    <wpt lat="55.9623996" lon="-2.9692759">
        <name>368</name>
    </wpt>
    <wpt lat="55.9584091" lon="-2.9782507">
        <name>369</name>
    </wpt>
    <wpt lat="55.9519258" lon="-3.0074732">
        <name>370</name>
    </wpt>
    <wpt lat="55.9477925" lon="-3.0176636">
        <name>371</name>
    </wpt>
    <wpt lat="55.9488276" lon="-3.0182067">
        <name>372</name>
    </wpt>
    <wpt lat="55.9434086" lon="-3.0240882">
        <name>373</name>
    </wpt>
    <wpt lat="55.9450065" lon="-3.0346842">
        <name>374</name>
    </wpt>
    <wpt lat="55.9441001" lon="-3.0384210">
        <name>375</name>
    </wpt>
    <wpt lat="55.9419261" lon="-3.0469550">
        <name>376</name>
    </wpt>
    <wpt lat="55.9384698" lon="-3.0538790">
        <name>377</name>
    </wpt>
    <wpt lat="55.9386646" lon="-3.0634598">
        <name>378</name>
    </wpt>
    <wpt lat="55.9365513" lon="-3.0679927">
        <name>379</name>
    </wpt>
    <wpt lat="55.9325301" lon="-3.0689293">
        <name>380</name>
    </wpt>
    <wpt lat="55.9324945" lon="-3.0691091">
        <name>381</name>
    </wpt>
    <wpt lat="55.9319818" lon="-3.0737280">
        <name>382</name>
    </wpt>
    <wpt lat="55.9305328" lon="-3.0779301">
        <name>383</name>
    </wpt>
    <wpt lat="55.9312211" lon="-3.0844207">
        <name>384</name>
    </wpt>
    <wpt lat="55.9317112" lon="-3.0881716">
        <name>385</name>
    </wpt>
    <wpt lat="55.9337825" lon="-3.0915878">
        <name>386</name>
    </wpt>
    <wpt lat="55.9367247" lon="-3.0905165">
        <name>387</name>
    </wpt>
    <wpt lat="55.9375571" lon="-3.0909785">
        <name>388</name>
    </wpt>
    <wpt lat="55.9374887" lon="-3.0944229">
        <name>389</name>
    </wpt>
    <wpt lat="55.9384967" lon="-3.0966533">
        <name>390</name>
    </wpt>
    <wpt lat="55.9394838" lon="-3.0957527">
        <name>391</name>
    </wpt>
    <wpt lat="55.9398275" lon="-3.0964805">
        <name>392</name>
    </wpt>
    <wpt lat="55.9406775" lon="-3.0986814">
        <name>393</name>
    </wpt>
    <wpt lat="55.9422432" lon="-3.1005708">
        <name>394</name>
    </wpt>
    <wpt lat="55.9426864" lon="-3.1006688">
        <name>395</name>
    </wpt>
    <wpt lat="55.9441228" lon="-3.1016448">
        <name>396</name>
    </wpt>
    <wpt lat="55.9402798" lon="-3.1051105">
        <name>397</name>
    </wpt>
    <wpt lat="55.9402467" lon="-3.1092271">
        <name>398</name>
    </wpt>
    <wpt lat="55.9397742" lon="-3.1139615">
        <name>399</name>
    </wpt>
    <wpt lat="55.9377574" lon="-3.1197706">
        <name>400</name>
    </wpt>
    <wpt lat="55.9366936" lon="-3.1243125">
        <name>401</name>
    </wpt>
    <wpt lat="55.9365783" lon="-3.1280666">
        <name>402</name>
    </wpt>
    <wpt lat="55.9357625" lon="-3.1344844">
        <name>403</name>
    </wpt>
    <wpt lat="55.9364754" lon="-3.1404079">
        <name>404</name>
    </wpt>
    <wpt lat="55.9366193" lon="-3.1468282">
        <name>405</name>
    </wpt>
    <wpt lat="55.9384488" lon="-3.1559807">
        <name>406</name>
    </wpt>
    <wpt lat="55.9387947" lon="-3.1623776">
        <name>407</name>
    </wpt>
    <wpt lat="55.9401824" lon="-3.1670254">
        <name>408</name>
    </wpt>
    <wpt lat="55.9409077" lon="-3.1708397">
        <name>409</name>
    </wpt>
    <wpt lat="55.9424739" lon="-3.1760076">
        <name>410</name>
    </wpt>
    <wpt lat="55.9418231" lon="-3.1781666">
        <name>411</name>
    </wpt>
    <wpt lat="55.9425079" lon="-3.1788782">
        <name>412</name>
    </wpt>
    <wpt lat="55.9413580" lon="-3.1832427">
        <name>413</name>
    </wpt>
    <wpt lat="55.9417043" lon="-3.1867550">
        <name>414</name>
    </wpt>
    <wpt lat="55.9423496" lon="-3.1909573">
        <name>415</name>
    </wpt>
    <wpt lat="55.9419378" lon="-3.1970499">
        <name>416</name>
    </wpt>
    <wpt lat="55.9420948" lon="-3.1981134">
        <name>417</name>
    </wpt>
    <wpt lat="55.9417735" lon="-3.2006718">
        <name>418</name>
    </wpt>
    <wpt lat="55.9415072" lon="-3.2045022">
        <name>419</name>
    </wpt>
    <wpt lat="55.9412851" lon="-3.2056410">
        <name>420</name>
    </wpt>
    <wpt lat="55.9409907" lon="-3.2107716">
        <name>421</name>
    </wpt>
    <wpt lat="55.9420076" lon="-3.2123678">
        <name>422</name>
    </wpt>
    <wpt lat="55.9426259" lon="-3.2151579">
        <name>423</name>
    </wpt>
    <wpt lat="55.9455140" lon="-3.2176404">
        <name>424</name>
    </wpt>
    <trk>
        <name>CoastandCastles</name>
        <trkseg>
            <trkpt lat="55.0168994" lon="-1.4199907"><ele>28.0</ele></trkpt>
            <trkpt lat="55.0195997" lon="-1.4213436"><ele>30.0</ele></trkpt>
            <trkpt lat="55.0212981" lon="-1.4206532"><ele>21.0</ele></trkpt>
            <trkpt lat="55.0226743" lon="-1.4226497"><ele>0.0</ele></trkpt>
            <trkpt lat="55.0234306" lon="-1.4244140"><ele>0.0</ele></trkpt>
            <trkpt lat="55.0248101" lon="-1.4278097"><ele>21.0</ele></trkpt>
            <trkpt lat="55.0275255" lon="-1.4287960"><ele>20.0</ele></trkpt>
            <trkpt lat="55.0308879" lon="-1.4305842"><ele>18.0</ele></trkpt>
            <trkpt lat="55.0340044" lon="-1.4330912"><ele>21.0</ele></trkpt>
            <trkpt lat="55.0360040" lon="-1.4318590"><ele>16.0</ele></trkpt>
            <trkpt lat="55.0374233" lon="-1.4328582"><ele>17.0</ele></trkpt>
            <trkpt lat="55.0404512" lon="-1.4319544"><ele>13.0</ele></trkpt>
            <trkpt lat="55.0422785" lon="-1.4359627"><ele>0.0</ele></trkpt>
            <trkpt lat="55.0438760" lon="-1.4387032"><ele>0.0</ele></trkpt>
            <trkpt lat="55.0460175" lon="-1.4429221"><ele>0.0</ele></trkpt>
            <trkpt lat="55.0477525" lon="-1.4464231"><ele>11.0</ele></trkpt>
            <trkpt lat="55.0478806" lon="-1.4478477"><ele>13.0</ele></trkpt>
            <trkpt lat="55.0502463" lon="-1.4494359"><ele>11.0</ele></trkpt>
            <trkpt lat="55.0511709" lon="-1.4487617"><ele>11.0</ele></trkpt>
            <trkpt lat="55.0566676" lon="-1.4522024"><ele>0.0</ele></trkpt>
            <trkpt lat="55.0576149" lon="-1.4523961"><ele>0.0</ele></trkpt>
            <trkpt lat="55.0583933" lon="-1.4542711"><ele>14.0</ele></trkpt>
            <trkpt lat="55.0600311" lon="-1.4559811"><ele>14.0</ele></trkpt>
            <trkpt lat="55.0643906" lon="-1.4581134"><ele>15.0</ele></trkpt>
            <trkpt lat="55.0652874" lon="-1.4552877"><ele>12.0</ele></trkpt>
            <trkpt lat="55.0659456" lon="-1.4540443"><ele>11.0</ele></trkpt>
            <trkpt lat="55.0688423" lon="-1.4554205"><ele>13.0</ele></trkpt>
            <trkpt lat="55.0701517" lon="-1.4572091"><ele>13.0</ele></trkpt>
            <trkpt lat="55.0734253" lon="-1.4612618"><ele>0.0</ele></trkpt>
            <trkpt lat="55.0752105" lon="-1.4626604"><ele>21.0</ele></trkpt>
            <trkpt lat="55.0754631" lon="-1.4668673"><ele>31.0</ele></trkpt>
            <trkpt lat="55.0769283" lon="-1.4686185"><ele>27.0</ele></trkpt>
            <trkpt lat="55.0791919" lon="-1.4691741"><ele>18.0</ele></trkpt>
            <trkpt lat="55.0831093" lon="-1.4710213"><ele>15.0</ele></trkpt>
            <trkpt lat="55.0836589" lon="-1.4745767"><ele>7.0</ele></trkpt>
            <trkpt lat="55.0846231" lon="-1.4763064"><ele>11.0</ele></trkpt>
            <trkpt lat="55.0856431" lon="-1.4795499"><ele>11.0</ele></trkpt>
            <trkpt lat="55.0879494" lon="-1.4819408"><ele>8.0</ele></trkpt>
            <trkpt lat="55.0916396" lon="-1.4866653"><ele>6.0</ele></trkpt>
            <trkpt lat="55.0918615" lon="-1.4879065"><ele>5.0</ele></trkpt>
            <trkpt lat="55.0986961" lon="-1.4942760"><ele>5.0</ele></trkpt>
            <trkpt lat="55.1055180" lon="-1.4979828"><ele>8.0</ele></trkpt>
            <trkpt lat="55.1099729" lon="-1.4993068"><ele>7.0</ele></trkpt>
            <trkpt lat="55.1158617" lon="-1.5000062"><ele>6.0</ele></trkpt>
            <trkpt lat="55.1232159" lon="-1.5009938"><ele>10.0</ele></trkpt>
            <trkpt lat="55.1239291" lon="-1.4996067"><ele>10.0</ele></trkpt>
            <trkpt lat="55.1248855" lon="-1.4990076"><ele>8.0</ele></trkpt>
            <trkpt lat="55.1254316" lon="-1.4976561"><ele>3.0</ele></trkpt>
            <trkpt lat="55.1268882" lon="-1.4993713"><ele>0.0</ele></trkpt>
            <trkpt lat="55.1283680" lon="-1.5016908"><ele>0.0</ele></trkpt>
            <trkpt lat="55.1291667" lon="-1.5039440"><ele>0.0</ele></trkpt>
            <trkpt lat="55.1287948" lon="-1.5057689"><ele>5.0</ele></trkpt>
            <trkpt lat="55.1292288" lon="-1.5107815"><ele>5.0</ele></trkpt>
            <trkpt lat="55.1319716" lon="-1.5137285"><ele>5.0</ele></trkpt>
            <trkpt lat="55.1325479" lon="-1.5142973"><ele>3.0</ele></trkpt>
            <trkpt lat="55.1336634" lon="-1.5166615"><ele>4.0</ele></trkpt>
            <trkpt lat="55.1336270" lon="-1.5209445"><ele>5.0</ele></trkpt>
            <trkpt lat="55.1328618" lon="-1.5242859"><ele>6.0</ele></trkpt>
            <trkpt lat="55.1317208" lon="-1.5285213"><ele>5.0</ele></trkpt>
            <trkpt lat="55.1335826" lon="-1.5290301"><ele>6.0</ele></trkpt>
            <trkpt lat="55.1362619" lon="-1.5287060"><ele>2.0</ele></trkpt>
            <trkpt lat="55.1361475" lon="-1.5283193"><ele>2.0</ele></trkpt>
            <trkpt lat="55.1343897" lon="-1.5363204"><ele>1.0</ele></trkpt>
            <trkpt lat="55.1337349" lon="-1.5407071"><ele>1.0</ele></trkpt>
            <trkpt lat="55.1320057" lon="-1.5438588"><ele>8.0</ele></trkpt>
            <trkpt lat="55.1334233" lon="-1.5451540"><ele>1.0</ele></trkpt>
            <trkpt lat="55.1340755" lon="-1.5479154"><ele>5.0</ele></trkpt>
            <trkpt lat="55.1334337" lon="-1.5504534"><ele>1.0</ele></trkpt>
            <trkpt lat="55.1333591" lon="-1.5546522"><ele>1.0</ele></trkpt>
            <trkpt lat="55.1333373" lon="-1.5584033"><ele>1.0</ele></trkpt>
            <trkpt lat="55.1338824" lon="-1.5617146"><ele>5.0</ele></trkpt>
            <trkpt lat="55.1332368" lon="-1.5636637"><ele>15.0</ele></trkpt>
            <trkpt lat="55.1318993" lon="-1.5673001"><ele>8.0</ele></trkpt>
            <trkpt lat="55.1321414" lon="-1.5680719"><ele>24.0</ele></trkpt>
            <trkpt lat="55.1344585" lon="-1.5674133"><ele>24.0</ele></trkpt>
            <trkpt lat="55.1351447" lon="-1.5634794"><ele>21.0</ele></trkpt>
            <trkpt lat="55.1353627" lon="-1.5607980"><ele>18.0</ele></trkpt>
            <trkpt lat="55.1369389" lon="-1.5647766"><ele>23.0</ele></trkpt>
            <trkpt lat="55.1393716" lon="-1.5674034"><ele>27.0</ele></trkpt>
            <trkpt lat="55.1412651" lon="-1.5606973"><ele>20.0</ele></trkpt>
            <trkpt lat="55.1419311" lon="-1.5563395"><ele>14.0</ele></trkpt>
            <trkpt lat="55.1430222" lon="-1.5530191"><ele>11.0</ele></trkpt>
            <trkpt lat="55.1448263" lon="-1.5497909"><ele>14.0</ele></trkpt>
            <trkpt lat="55.1469846" lon="-1.5487543"><ele>15.0</ele></trkpt>
            <trkpt lat="55.1450706" lon="-1.5388647"><ele>9.0</ele></trkpt>
            <trkpt lat="55.1440070" lon="-1.5272414"><ele>5.0</ele></trkpt>
            <trkpt lat="55.1439445" lon="-1.5195468"><ele>5.0</ele></trkpt>
            <trkpt lat="55.1508747" lon="-1.5237022"><ele>8.0</ele></trkpt>
            <trkpt lat="55.1540258" lon="-1.5244959"><ele>10.0</ele></trkpt>
            <trkpt lat="55.1571613" lon="-1.5242446"><ele>8.0</ele></trkpt>
            <trkpt lat="55.1577936" lon="-1.5263000"><ele>9.0</ele></trkpt>
            <trkpt lat="55.1569242" lon="-1.5312447"><ele>11.0</ele></trkpt>
            <trkpt lat="55.1557268" lon="-1.5353990"><ele>11.0</ele></trkpt>
            <trkpt lat="55.1563992" lon="-1.5420416"><ele>17.0</ele></trkpt>
            <trkpt lat="55.1644174" lon="-1.5374165"><ele>19.0</ele></trkpt>
            <trkpt lat="55.1706315" lon="-1.5323032"><ele>24.0</ele></trkpt>
            <trkpt lat="55.1712732" lon="-1.5328744"><ele>26.0</ele></trkpt>
            <trkpt lat="55.1722107" lon="-1.5312087"><ele>24.0</ele></trkpt>
            <trkpt lat="55.1754065" lon="-1.5300686"><ele>16.0</ele></trkpt>
            <trkpt lat="55.1781936" lon="-1.5313347"><ele>16.0</ele></trkpt>
            <trkpt lat="55.1801074" lon="-1.5334611"><ele>14.0</ele></trkpt>
            <trkpt lat="55.1824880" lon="-1.5359173"><ele>15.0</ele></trkpt>
            <trkpt lat="55.1864908" lon="-1.5384871"><ele>19.0</ele></trkpt>
            <trkpt lat="55.1869530" lon="-1.5402658"><ele>22.0</ele></trkpt>
            <trkpt lat="55.1882641" lon="-1.5385697"><ele>19.0</ele></trkpt>
            <trkpt lat="55.1895460" lon="-1.5385514"><ele>20.0</ele></trkpt>
            <trkpt lat="55.1914081" lon="-1.5380222"><ele>19.0</ele></trkpt>
            <trkpt lat="55.1930389" lon="-1.5345028"><ele>21.0</ele></trkpt>
            <trkpt lat="55.1941994" lon="-1.5321306"><ele>21.0</ele></trkpt>
            <trkpt lat="55.1976326" lon="-1.5311736"><ele>18.0</ele></trkpt>
            <trkpt lat="55.2005896" lon="-1.5267451"><ele>12.0</ele></trkpt>
            <trkpt lat="55.2026834" lon="-1.5264463"><ele>6.0</ele></trkpt>
            <trkpt lat="55.2039919" lon="-1.5286511"><ele>8.0</ele></trkpt>
            <trkpt lat="55.2050991" lon="-1.5320047"><ele>17.0</ele></trkpt>
            <trkpt lat="55.2063275" lon="-1.5339230"><ele>18.0</ele></trkpt>
            <trkpt lat="55.2081409" lon="-1.5353154"><ele>18.0</ele></trkpt>
            <trkpt lat="55.2103973" lon="-1.5389835"><ele>23.0</ele></trkpt>
            <trkpt lat="55.2118786" lon="-1.5367733"><ele>20.0</ele></trkpt>
            <trkpt lat="55.2089597" lon="-1.5315505"><ele>15.0</ele></trkpt>
            <trkpt lat="55.2086774" lon="-1.5276255"><ele>7.0</ele></trkpt>
            <trkpt lat="55.2102600" lon="-1.5260612"><ele>13.0</ele></trkpt>
            <trkpt lat="55.2120612" lon="-1.5280479"><ele>6.0</ele></trkpt>
            <trkpt lat="55.2175001" lon="-1.5290851"><ele>11.0</ele></trkpt>
            <trkpt lat="55.2221622" lon="-1.5298661"><ele>12.0</ele></trkpt>
            <trkpt lat="55.2258080" lon="-1.5283290"><ele>13.0</ele></trkpt>
            <trkpt lat="55.2283232" lon="-1.5289773"><ele>11.0</ele></trkpt>
            <trkpt lat="55.2305303" lon="-1.5315406"><ele>9.0</ele></trkpt>
            <trkpt lat="55.2331175" lon="-1.5343596"><ele>8.0</ele></trkpt>
            <trkpt lat="55.2355657" lon="-1.5386451"><ele>4.0</ele></trkpt>
            <trkpt lat="55.2356612" lon="-1.5399242"><ele>9.0</ele></trkpt>
            <trkpt lat="55.2372142" lon="-1.5455236"><ele>8.0</ele></trkpt>
            <trkpt lat="55.2398192" lon="-1.5499126"><ele>5.0</ele></trkpt>
            <trkpt lat="55.2438835" lon="-1.5545680"><ele>3.0</ele></trkpt>
            <trkpt lat="55.2492594" lon="-1.5601401"><ele>4.0</ele></trkpt>
            <trkpt lat="55.2551057" lon="-1.5644249"><ele>5.0</ele></trkpt>
            <trkpt lat="55.2575033" lon="-1.5664350"><ele>4.0</ele></trkpt>
            <trkpt lat="55.2643884" lon="-1.5690500"><ele>4.0</ele></trkpt>
            <trkpt lat="55.2694101" lon="-1.5708169"><ele>5.0</ele></trkpt>
            <trkpt lat="55.2721245" lon="-1.5715373"><ele>5.0</ele></trkpt>
            <trkpt lat="55.2760776" lon="-1.5748943"><ele>5.0</ele></trkpt>
            <trkpt lat="55.2773071" lon="-1.5732809"><ele>6.0</ele></trkpt>
            <trkpt lat="55.2825012" lon="-1.5732032"><ele>8.0</ele></trkpt>
            <trkpt lat="55.2894756" lon="-1.5729946"><ele>10.0</ele></trkpt>
            <trkpt lat="55.2901720" lon="-1.5715446"><ele>11.0</ele></trkpt>
            <trkpt lat="55.2937139" lon="-1.5702207"><ele>10.0</ele></trkpt>
            <trkpt lat="55.2974761" lon="-1.5670728"><ele>9.0</ele></trkpt>
            <trkpt lat="55.3021427" lon="-1.5609543"><ele>5.0</ele></trkpt>
            <trkpt lat="55.3063595" lon="-1.5593188"><ele>5.0</ele></trkpt>
            <trkpt lat="55.3083392" lon="-1.5570505"><ele>6.0</ele></trkpt>
            <trkpt lat="55.3115980" lon="-1.5506905"><ele>5.0</ele></trkpt>
            <trkpt lat="55.3136936" lon="-1.5513122"><ele>5.0</ele></trkpt>
            <trkpt lat="55.3160863" lon="-1.5514915"><ele>6.0</ele></trkpt>
            <trkpt lat="55.3194399" lon="-1.5506849"><ele>5.0</ele></trkpt>
            <trkpt lat="55.3216239" lon="-1.5500196"><ele>10.0</ele></trkpt>
            <trkpt lat="55.3237842" lon="-1.5533873"><ele>7.0</ele></trkpt>
            <trkpt lat="55.3246298" lon="-1.5559892"><ele>6.0</ele></trkpt>
            <trkpt lat="55.3265928" lon="-1.5601464"><ele>5.0</ele></trkpt>
            <trkpt lat="55.3282111" lon="-1.5618007"><ele>7.0</ele></trkpt>
            <trkpt lat="55.3304901" lon="-1.5638651"><ele>10.0</ele></trkpt>
            <trkpt lat="55.3317896" lon="-1.5671861"><ele>8.0</ele></trkpt>
            <trkpt lat="55.3335900" lon="-1.5703312"><ele>8.0</ele></trkpt>
            <trkpt lat="55.3343786" lon="-1.5741805"><ele>7.0</ele></trkpt>
            <trkpt lat="55.3351679" lon="-1.5758394"><ele>6.0</ele></trkpt>
            <trkpt lat="55.3344169" lon="-1.5779765"><ele>7.0</ele></trkpt>
            <trkpt lat="55.3332016" lon="-1.5838669"><ele>9.0</ele></trkpt>
            <trkpt lat="55.3358696" lon="-1.5870111"><ele>3.0</ele></trkpt>
            <trkpt lat="55.3358222" lon="-1.5903808"><ele>5.0</ele></trkpt>
            <trkpt lat="55.3392267" lon="-1.5949796"><ele>1.0</ele></trkpt>
            <trkpt lat="55.3422129" lon="-1.6013743"><ele>1.0</ele></trkpt>
            <trkpt lat="55.3438674" lon="-1.6070059"><ele>2.0</ele></trkpt>
            <trkpt lat="55.3435526" lon="-1.6096259"><ele>19.0</ele></trkpt>
            <trkpt lat="55.3457054" lon="-1.6101922"><ele>22.0</ele></trkpt>
            <trkpt lat="55.3482196" lon="-1.6078749"><ele>5.0</ele></trkpt>
            <trkpt lat="55.3491788" lon="-1.6098267"><ele>14.0</ele></trkpt>
            <trkpt lat="55.3527034" lon="-1.6077891"><ele>21.0</ele></trkpt>
            <trkpt lat="55.3569955" lon="-1.6082915"><ele>22.0</ele></trkpt>
            <trkpt lat="55.3584062" lon="-1.6083688"><ele>22.0</ele></trkpt>
            <trkpt lat="55.3607049" lon="-1.6117505"><ele>25.0</ele></trkpt>
            <trkpt lat="55.3692703" lon="-1.6165582"><ele>34.0</ele></trkpt>
            <trkpt lat="55.3730438" lon="-1.6202367"><ele>34.0</ele></trkpt>
            <trkpt lat="55.3779653" lon="-1.6225154"><ele>31.0</ele></trkpt>
            <trkpt lat="55.3838824" lon="-1.6255365"><ele>26.0</ele></trkpt>
            <trkpt lat="55.3891499" lon="-1.6278902"><ele>19.0</ele></trkpt>
            <trkpt lat="55.3904272" lon="-1.6239109"><ele>4.0</ele></trkpt>
            <trkpt lat="55.3925058" lon="-1.6235822"><ele>5.0</ele></trkpt>
            <trkpt lat="55.3903429" lon="-1.6127194"><ele>16.0</ele></trkpt>
            <trkpt lat="55.3945610" lon="-1.6079097"><ele>5.0</ele></trkpt>
            <trkpt lat="55.3968364" lon="-1.6059229"><ele>37.0</ele></trkpt>
            <trkpt lat="55.4010361" lon="-1.6086289"><ele>35.0</ele></trkpt>
            <trkpt lat="55.4022623" lon="-1.6112147"><ele>37.0</ele></trkpt>
            <trkpt lat="55.4050550" lon="-1.6010215"><ele>12.0</ele></trkpt>
            <trkpt lat="55.4061793" lon="-1.5992980"><ele>15.0</ele></trkpt>
            <trkpt lat="55.4066629" lon="-1.5960159"><ele>13.0</ele></trkpt>
            <trkpt lat="55.4054172" lon="-1.5935527"><ele>11.0</ele></trkpt>
            <trkpt lat="55.4057023" lon="-1.5905108"><ele>10.0</ele></trkpt>
            <trkpt lat="55.4069329" lon="-1.5883556"><ele>8.0</ele></trkpt>
            <trkpt lat="55.4104134" lon="-1.5879873"><ele>9.0</ele></trkpt>
            <trkpt lat="55.4157316" lon="-1.5879339"><ele>11.0</ele></trkpt>
            <trkpt lat="55.4201035" lon="-1.5814573"><ele>3.0</ele></trkpt>
            <trkpt lat="55.4225379" lon="-1.5813952"><ele>9.0</ele></trkpt>
            <trkpt lat="55.4247396" lon="-1.5798393"><ele>0.0</ele></trkpt>
            <trkpt lat="55.4312663" lon="-1.5778997"><ele>7.0</ele></trkpt>
            <trkpt lat="55.4334314" lon="-1.5863363"><ele>6.0</ele></trkpt>
            <trkpt lat="55.4371750" lon="-1.5907166"><ele>0.0</ele></trkpt>
            <trkpt lat="55.4418138" lon="-1.5929246"><ele>21.0</ele></trkpt>
            <trkpt lat="55.4492889" lon="-1.5919056"><ele>21.0</ele></trkpt>
            <trkpt lat="55.4577396" lon="-1.5918995"><ele>0.0</ele></trkpt>
            <trkpt lat="55.4638533" lon="-1.5965035"><ele>17.0</ele></trkpt>
            <trkpt lat="55.4692316" lon="-1.6062801"><ele>53.0</ele></trkpt>
            <trkpt lat="55.4714760" lon="-1.5994393"><ele>23.0</ele></trkpt>
            <trkpt lat="55.4737082" lon="-1.6052687"><ele>24.0</ele></trkpt>
            <trkpt lat="55.4759144" lon="-1.6103212"><ele>39.0</ele></trkpt>
            <trkpt lat="55.4793062" lon="-1.6048477"><ele>33.0</ele></trkpt>
            <trkpt lat="55.4926141" lon="-1.6163722"><ele>28.0</ele></trkpt>
            <trkpt lat="55.4924576" lon="-1.6189604"><ele>30.0</ele></trkpt>
            <trkpt lat="55.4945211" lon="-1.6211577"><ele>23.0</ele></trkpt>
            <trkpt lat="55.4924586" lon="-1.6261988"><ele>23.0</ele></trkpt>
            <trkpt lat="55.4968911" lon="-1.6334160"><ele>47.0</ele></trkpt>
            <trkpt lat="55.4961438" lon="-1.6374406"><ele>43.0</ele></trkpt>
            <trkpt lat="55.5024313" lon="-1.6428151"><ele>35.0</ele></trkpt>
            <trkpt lat="55.5048228" lon="-1.6501750"><ele>38.0</ele></trkpt>
            <trkpt lat="55.5037567" lon="-1.6572028"><ele>42.0</ele></trkpt>
            <trkpt lat="55.5029025" lon="-1.6596050"><ele>43.0</ele></trkpt>
            <trkpt lat="55.5109148" lon="-1.6781785"><ele>43.0</ele></trkpt>
            <trkpt lat="55.5149696" lon="-1.6807681"><ele>34.0</ele></trkpt>
            <trkpt lat="55.5131412" lon="-1.6948073"><ele>39.0</ele></trkpt>
            <trkpt lat="55.5204087" lon="-1.7015688"><ele>41.0</ele></trkpt>
            <trkpt lat="55.5202901" lon="-1.7050669"><ele>48.0</ele></trkpt>
            <trkpt lat="55.5245413" lon="-1.7068907"><ele>39.0</ele></trkpt>
            <trkpt lat="55.5368765" lon="-1.7052732"><ele>29.0</ele></trkpt>
            <trkpt lat="55.5406485" lon="-1.6917444"><ele>28.0</ele></trkpt>
            <trkpt lat="55.5453511" lon="-1.6965214"><ele>29.0</ele></trkpt>
            <trkpt lat="55.5483331" lon="-1.6920152"><ele>27.0</ele></trkpt>
            <trkpt lat="55.5500193" lon="-1.6939996"><ele>31.0</ele></trkpt>
            <trkpt lat="55.5573931" lon="-1.6841276"><ele>23.0</ele></trkpt>
            <trkpt lat="55.5587672" lon="-1.6852010"><ele>23.0</ele></trkpt>
            <trkpt lat="55.5639838" lon="-1.6798218"><ele>15.0</ele></trkpt>
            <trkpt lat="55.5678474" lon="-1.6816875"><ele>23.0</ele></trkpt>
            <trkpt lat="55.5690048" lon="-1.6760091"><ele>18.0</ele></trkpt>
            <trkpt lat="55.5720663" lon="-1.6678661"><ele>13.0</ele></trkpt>
            <trkpt lat="55.5753714" lon="-1.6701843"><ele>17.0</ele></trkpt>
            <trkpt lat="55.5777451" lon="-1.6674649"><ele>17.0</ele></trkpt>
            <trkpt lat="55.5790357" lon="-1.6769686"><ele>20.0</ele></trkpt>
            <trkpt lat="55.5784447" lon="-1.6832933"><ele>20.0</ele></trkpt>
            <trkpt lat="55.5838615" lon="-1.6923322"><ele>27.0</ele></trkpt>
            <trkpt lat="55.5849077" lon="-1.6954814"><ele>34.0</ele></trkpt>
            <trkpt lat="55.5898014" lon="-1.7031803"><ele>35.0</ele></trkpt>
            <trkpt lat="55.5949124" lon="-1.7071647"><ele>23.0</ele></trkpt>
            <trkpt lat="55.6020647" lon="-1.7104868"><ele>17.0</ele></trkpt>
            <trkpt lat="55.6064271" lon="-1.7156595"><ele>26.0</ele></trkpt>
            <trkpt lat="55.5969608" lon="-1.7277042"><ele>41.0</ele></trkpt>
            <trkpt lat="55.5890089" lon="-1.7425169"><ele>47.0</ele></trkpt>
            <trkpt lat="55.5938953" lon="-1.7471966"><ele>50.0</ele></trkpt>
            <trkpt lat="55.5924591" lon="-1.7603893"><ele>32.0</ele></trkpt>
            <trkpt lat="55.5954231" lon="-1.7661083"><ele>18.0</ele></trkpt>
            <trkpt lat="55.5954268" lon="-1.7717811"><ele>27.0</ele></trkpt>
            <trkpt lat="55.6018826" lon="-1.7772192"><ele>33.0</ele></trkpt>
            <trkpt lat="55.6007277" lon="-1.7781041"><ele>26.0</ele></trkpt>
            <trkpt lat="55.6048261" lon="-1.7806438"><ele>27.0</ele></trkpt>
            <trkpt lat="55.6076980" lon="-1.7975507"><ele>28.0</ele></trkpt>
            <trkpt lat="55.6087163" lon="-1.8087636"><ele>30.0</ele></trkpt>
            <trkpt lat="55.6013081" lon="-1.8223330"><ele>56.0</ele></trkpt>
            <trkpt lat="55.6105472" lon="-1.8333268"><ele>40.0</ele></trkpt>
            <trkpt lat="55.6207755" lon="-1.8420774"><ele>32.0</ele></trkpt>
            <trkpt lat="55.6216665" lon="-1.8650179"><ele>53.0</ele></trkpt>
            <trkpt lat="55.6469126" lon="-1.9011440"><ele>83.0</ele></trkpt>
            <trkpt lat="55.6523973" lon="-1.8926544"><ele>42.0</ele></trkpt>
            <trkpt lat="55.6563011" lon="-1.9011455"><ele>43.0</ele></trkpt>
            <trkpt lat="55.6590713" lon="-1.9048084"><ele>39.0</ele></trkpt>
            <trkpt lat="55.6639681" lon="-1.9011126"><ele>23.0</ele></trkpt>
            <trkpt lat="55.6647131" lon="-1.9102860"><ele>38.0</ele></trkpt>
            <trkpt lat="55.6713442" lon="-1.9135204"><ele>17.0</ele></trkpt>
            <trkpt lat="55.6759784" lon="-1.9060255"><ele>3.0</ele></trkpt>
            <trkpt lat="55.6775520" lon="-1.8922928"><ele>11.0</ele></trkpt>
            <trkpt lat="55.6857262" lon="-1.8853420"><ele>2.0</ele></trkpt>
            <trkpt lat="55.6860785" lon="-1.8771491"><ele>0.0</ele></trkpt>
            <trkpt lat="55.6933628" lon="-1.8832853"><ele>0.0</ele></trkpt>
            <trkpt lat="55.6993291" lon="-1.8935616"><ele>0.0</ele></trkpt>
            <trkpt lat="55.7047772" lon="-1.9179513"><ele>2.0</ele></trkpt>
            <trkpt lat="55.7062471" lon="-1.9227064"><ele>3.0</ele></trkpt>
            <trkpt lat="55.7027175" lon="-1.9366149"><ele>9.0</ele></trkpt>
            <trkpt lat="55.7059625" lon="-1.9405803"><ele>11.0</ele></trkpt>
            <trkpt lat="55.7106798" lon="-1.9476767"><ele>21.0</ele></trkpt>
            <trkpt lat="55.7163041" lon="-1.9346908"><ele>7.0</ele></trkpt>
            <trkpt lat="55.7338784" lon="-1.9543052"><ele>0.0</ele></trkpt>
            <trkpt lat="55.7410848" lon="-1.9677614"><ele>0.0</ele></trkpt>
            <trkpt lat="55.7541797" lon="-1.9821744"><ele>0.0</ele></trkpt>
            <trkpt lat="55.7626096" lon="-1.9975144"><ele>0.0</ele></trkpt>
            <trkpt lat="55.7654049" lon="-2.0066491"><ele>0.0</ele></trkpt>
            <trkpt lat="55.7682656" lon="-2.0076876"><ele>0.0</ele></trkpt>
            <trkpt lat="55.7681743" lon="-2.0011447"><ele>16.0</ele></trkpt>
            <trkpt lat="55.7697342" lon="-2.0007363"><ele>22.0</ele></trkpt>
            <trkpt lat="55.7734228" lon="-2.0070644"><ele>38.0</ele></trkpt>
            <trkpt lat="55.7747151" lon="-2.0089528"><ele>36.0</ele></trkpt>
            <trkpt lat="55.7753154" lon="-2.0117389"><ele>46.0</ele></trkpt>
            <trkpt lat="55.7757940" lon="-2.0152522"><ele>39.0</ele></trkpt>
            <trkpt lat="55.7781329" lon="-2.0228509"><ele>61.0</ele></trkpt>
            <trkpt lat="55.7754887" lon="-2.0316004"><ele>46.0</ele></trkpt>
            <trkpt lat="55.7708223" lon="-2.0427900"><ele>23.0</ele></trkpt>
            <trkpt lat="55.7763697" lon="-2.0467308"><ele>67.0</ele></trkpt>
            <trkpt lat="55.7770608" lon="-2.0534490"><ele>58.0</ele></trkpt>
            <trkpt lat="55.7754082" lon="-2.0719620"><ele>62.0</ele></trkpt>
            <trkpt lat="55.7749434" lon="-2.0860378"><ele>48.0</ele></trkpt>
            <trkpt lat="55.7831680" lon="-2.0854659"><ele>67.0</ele></trkpt>
            <trkpt lat="55.7860638" lon="-2.0889824"><ele>81.0</ele></trkpt>
            <trkpt lat="55.7931395" lon="-2.0867846"><ele>92.0</ele></trkpt>
            <trkpt lat="55.8004807" lon="-2.0818475"><ele>125.0</ele></trkpt>
            <trkpt lat="55.8145961" lon="-2.0809797"><ele>187.0</ele></trkpt>
            <trkpt lat="55.8215974" lon="-2.0771044"><ele>197.0</ele></trkpt>
            <trkpt lat="55.8245609" lon="-2.0878129"><ele>186.0</ele></trkpt>
            <trkpt lat="55.8257610" lon="-2.0912908"><ele>161.0</ele></trkpt>
            <trkpt lat="55.8334691" lon="-2.0979886"><ele>110.0</ele></trkpt>
            <trkpt lat="55.8364345" lon="-2.1071469"><ele>90.0</ele></trkpt>
            <trkpt lat="55.8366948" lon="-2.1117169"><ele>75.0</ele></trkpt>
            <trkpt lat="55.8416881" lon="-2.1223388"><ele>44.0</ele></trkpt>
            <trkpt lat="55.8466758" lon="-2.1171063"><ele>71.0</ele></trkpt>
            <trkpt lat="55.8553640" lon="-2.1033257"><ele>33.0</ele></trkpt>
            <trkpt lat="55.8617598" lon="-2.0991835"><ele>17.0</ele></trkpt>
            <trkpt lat="55.8704428" lon="-2.0880610"><ele>4.0</ele></trkpt>
            <trkpt lat="55.8730558" lon="-2.0913817"><ele>7.0</ele></trkpt>
            <trkpt lat="55.8698494" lon="-2.1030833"><ele>44.0</ele></trkpt>
            <trkpt lat="55.8675658" lon="-2.1128552"><ele>66.0</ele></trkpt>
            <trkpt lat="55.8643001" lon="-2.1181190"><ele>76.0</ele></trkpt>
            <trkpt lat="55.8629046" lon="-2.1246358"><ele>70.0</ele></trkpt>
            <trkpt lat="55.8619804" lon="-2.1356176"><ele>82.0</ele></trkpt>
            <trkpt lat="55.8694159" lon="-2.1644562"><ele>113.0</ele></trkpt>
            <trkpt lat="55.8638192" lon="-2.1730175"><ele>116.0</ele></trkpt>
            <trkpt lat="55.8769039" lon="-2.2021663"><ele>137.0</ele></trkpt>
            <trkpt lat="55.8935064" lon="-2.2264669"><ele>177.0</ele></trkpt>
            <trkpt lat="55.9050256" lon="-2.2509316"><ele>211.0</ele></trkpt>
            <trkpt lat="55.9078708" lon="-2.2647527"><ele>223.0</ele></trkpt>
            <trkpt lat="55.9133425" lon="-2.2807165"><ele>204.0</ele></trkpt>
            <trkpt lat="55.9169326" lon="-2.3040859"><ele>176.0</ele></trkpt>
            <trkpt lat="55.9219280" lon="-2.3143082"><ele>116.0</ele></trkpt>
            <trkpt lat="55.9234598" lon="-2.3237500"><ele>115.0</ele></trkpt>
            <trkpt lat="55.9277334" lon="-2.3305193"><ele>13.0</ele></trkpt>
            <trkpt lat="55.9296328" lon="-2.3351847"><ele>23.0</ele></trkpt>
            <trkpt lat="55.9338705" lon="-2.3473122"><ele>58.0</ele></trkpt>
            <trkpt lat="55.9416340" lon="-2.3622261"><ele>36.0</ele></trkpt>
            <trkpt lat="55.9462248" lon="-2.3763598"><ele>36.0</ele></trkpt>
            <trkpt lat="55.9534823" lon="-2.3920047"><ele>29.0</ele></trkpt>
            <trkpt lat="55.9605128" lon="-2.4033471"><ele>12.0</ele></trkpt>
            <trkpt lat="55.9683870" lon="-2.4247585"><ele>26.0</ele></trkpt>
            <trkpt lat="55.9725714" lon="-2.4418556"><ele>28.0</ele></trkpt>
            <trkpt lat="55.9783290" lon="-2.4664959"><ele>23.0</ele></trkpt>
            <trkpt lat="55.9835048" lon="-2.4861342"><ele>28.0</ele></trkpt>
            <trkpt lat="55.9915409" lon="-2.4954327"><ele>15.0</ele></trkpt>
            <trkpt lat="56.0011545" lon="-2.5098233"><ele>0.0</ele></trkpt>
            <trkpt lat="56.0024381" lon="-2.5233790"><ele>18.0</ele></trkpt>
            <trkpt lat="55.9985095" lon="-2.5459207"><ele>0.0</ele></trkpt>
            <trkpt lat="55.9934664" lon="-2.5556082"><ele>6.0</ele></trkpt>
            <trkpt lat="55.9887492" lon="-2.6133088"><ele>20.0</ele></trkpt>
            <trkpt lat="55.9834842" lon="-2.6444025"><ele>47.0</ele></trkpt>
            <trkpt lat="55.9832833" lon="-2.6524097"><ele>42.0</ele></trkpt>
            <trkpt lat="55.9667446" lon="-2.6766304"><ele>71.0</ele></trkpt>
            <trkpt lat="55.9573996" lon="-2.7299763"><ele>51.0</ele></trkpt>
            <trkpt lat="55.9552263" lon="-2.7622508"><ele>46.0</ele></trkpt>
            <trkpt lat="55.9548831" lon="-2.7878545"><ele>59.0</ele></trkpt>
            <trkpt lat="55.9519513" lon="-2.8103169"><ele>78.0</ele></trkpt>
            <trkpt lat="55.9605193" lon="-2.8337137"><ele>89.0</ele></trkpt>
            <trkpt lat="55.9718912" lon="-2.8510874"><ele>65.0</ele></trkpt>
            <trkpt lat="55.9774598" lon="-2.8613852"><ele>76.0</ele></trkpt>
            <trkpt lat="55.9744394" lon="-2.8845464"><ele>34.0</ele></trkpt>
            <trkpt lat="55.9822778" lon="-2.8878537"><ele>10.0</ele></trkpt>
            <trkpt lat="55.9731323" lon="-2.9064812"><ele>19.0</ele></trkpt>
            <trkpt lat="55.9746546" lon="-2.9300903"><ele>0.0</ele></trkpt>
            <trkpt lat="55.9707814" lon="-2.9430601"><ele>7.0</ele></trkpt>
            <trkpt lat="55.9623996" lon="-2.9692759"><ele>13.0</ele></trkpt>
            <trkpt lat="55.9584091" lon="-2.9782507"><ele>17.0</ele></trkpt>
            <trkpt lat="55.9519258" lon="-3.0074732"><ele>6.0</ele></trkpt>
            <trkpt lat="55.9477925" lon="-3.0176636"><ele>8.0</ele></trkpt>
            <trkpt lat="55.9488276" lon="-3.0182067"><ele>8.0</ele></trkpt>
            <trkpt lat="55.9434086" lon="-3.0240882"><ele>9.0</ele></trkpt>
            <trkpt lat="55.9450065" lon="-3.0346842"><ele>3.0</ele></trkpt>
            <trkpt lat="55.9441001" lon="-3.0384210"><ele>10.0</ele></trkpt>
            <trkpt lat="55.9419261" lon="-3.0469550"><ele>8.0</ele></trkpt>
            <trkpt lat="55.9384698" lon="-3.0538790"><ele>14.0</ele></trkpt>
            <trkpt lat="55.9386646" lon="-3.0634598"><ele>14.0</ele></trkpt>
            <trkpt lat="55.9365513" lon="-3.0679927"><ele>19.0</ele></trkpt>
            <trkpt lat="55.9325301" lon="-3.0689293"><ele>30.0</ele></trkpt>
            <trkpt lat="55.9324945" lon="-3.0691091"><ele>30.0</ele></trkpt>
            <trkpt lat="55.9319818" lon="-3.0737280"><ele>35.0</ele></trkpt>
            <trkpt lat="55.9305328" lon="-3.0779301"><ele>38.0</ele></trkpt>
            <trkpt lat="55.9312211" lon="-3.0844207"><ele>36.0</ele></trkpt>
            <trkpt lat="55.9317112" lon="-3.0881716"><ele>30.0</ele></trkpt>
            <trkpt lat="55.9337825" lon="-3.0915878"><ele>35.0</ele></trkpt>
            <trkpt lat="55.9367247" lon="-3.0905165"><ele>31.0</ele></trkpt>
            <trkpt lat="55.9375571" lon="-3.0909785"><ele>30.0</ele></trkpt>
            <trkpt lat="55.9374887" lon="-3.0944229"><ele>38.0</ele></trkpt>
            <trkpt lat="55.9384967" lon="-3.0966533"><ele>36.0</ele></trkpt>
            <trkpt lat="55.9394838" lon="-3.0957527"><ele>35.0</ele></trkpt>
            <trkpt lat="55.9398275" lon="-3.0964805"><ele>35.0</ele></trkpt>
            <trkpt lat="55.9406775" lon="-3.0986814"><ele>34.0</ele></trkpt>
            <trkpt lat="55.9422432" lon="-3.1005708"><ele>33.0</ele></trkpt>
            <trkpt lat="55.9426864" lon="-3.1006688"><ele>32.0</ele></trkpt>
            <trkpt lat="55.9441228" lon="-3.1016448"><ele>35.0</ele></trkpt>
            <trkpt lat="55.9402798" lon="-3.1051105"><ele>35.0</ele></trkpt>
            <trkpt lat="55.9402467" lon="-3.1092271"><ele>35.0</ele></trkpt>
            <trkpt lat="55.9397742" lon="-3.1139615"><ele>37.0</ele></trkpt>
            <trkpt lat="55.9377574" lon="-3.1197706"><ele>36.0</ele></trkpt>
            <trkpt lat="55.9366936" lon="-3.1243125"><ele>36.0</ele></trkpt>
            <trkpt lat="55.9365783" lon="-3.1280666"><ele>39.0</ele></trkpt>
            <trkpt lat="55.9357625" lon="-3.1344844"><ele>40.0</ele></trkpt>
            <trkpt lat="55.9364754" lon="-3.1404079"><ele>46.0</ele></trkpt>
            <trkpt lat="55.9366193" lon="-3.1468282"><ele>41.0</ele></trkpt>
            <trkpt lat="55.9384488" lon="-3.1559807"><ele>43.0</ele></trkpt>
            <trkpt lat="55.9387947" lon="-3.1623776"><ele>52.0</ele></trkpt>
            <trkpt lat="55.9401824" lon="-3.1670254"><ele>82.0</ele></trkpt>
            <trkpt lat="55.9409077" lon="-3.1708397"><ele>82.0</ele></trkpt>
            <trkpt lat="55.9424739" lon="-3.1760076"><ele>80.0</ele></trkpt>
            <trkpt lat="55.9418231" lon="-3.1781666"><ele>77.0</ele></trkpt>
            <trkpt lat="55.9425079" lon="-3.1788782"><ele>77.0</ele></trkpt>
            <trkpt lat="55.9413580" lon="-3.1832427"><ele>79.0</ele></trkpt>
            <trkpt lat="55.9417043" lon="-3.1867550"><ele>78.0</ele></trkpt>
            <trkpt lat="55.9423496" lon="-3.1909573"><ele>82.0</ele></trkpt>
            <trkpt lat="55.9419378" lon="-3.1970499"><ele>80.0</ele></trkpt>
            <trkpt lat="55.9420948" lon="-3.1981134"><ele>81.0</ele></trkpt>
            <trkpt lat="55.9417735" lon="-3.2006718"><ele>82.0</ele></trkpt>
            <trkpt lat="55.9415072" lon="-3.2045022"><ele>79.0</ele></trkpt>
            <trkpt lat="55.9412851" lon="-3.2056410"><ele>78.0</ele></trkpt>
            <trkpt lat="55.9409907" lon="-3.2107716"><ele>72.0</ele></trkpt>
            <trkpt lat="55.9420076" lon="-3.2123678"><ele>69.0</ele></trkpt>
            <trkpt lat="55.9426259" lon="-3.2151579"><ele>66.0</ele></trkpt>
            <trkpt lat="55.9455140" lon="-3.2176404"><ele>55.0</ele></trkpt>
        </trkseg>
    </trk>
</gpx>
