<?xml version="1.0" encoding="UTF-8"?>
<kml xmlns="http://www.opengis.net/kml/2.2" xmlns:gx="http://www.google.com/kml/ext/2.2" xmlns:kml="http://www.opengis.net/kml/2.2" xmlns:atom="http://www.w3.org/2005/Atom">
<Document id="document">
	<name>Spokeys 2025 - Wiltshire Way</name>
	<gx:CascadingStyle kml:id="__managed_style_0DFAA898003F32B9063B_normal">
		<Style>
			<IconStyle>
				<Icon>
					<href>https://earth.google.com/earth/document/icon?color=1976d2&amp;id=2000&amp;scale=4</href>
				</Icon>
				<hotSpot x="64" y="128" xunits="pixels" yunits="insetPixels"/>
			</IconStyle>
			<LabelStyle>
			</LabelStyle>
			<LineStyle>
				<color>c8d27619</color>
				<width>4.26667</width>
			</LineStyle>
			<PolyStyle>
				<color>40ffffff</color>
			</PolyStyle>
			<BalloonStyle>
				<text></text>
			</BalloonStyle>
		</Style>
	</gx:CascadingStyle>
	<StyleMap id="__managed_style_0DFAA898003F32B9063B">
		<Pair>
			<key>normal</key>
			<styleUrl>#__managed_style_0DFAA898003F32B9063B_normal</styleUrl>
		</Pair>
		<Pair>
			<key>highlight</key>
			<styleUrl>#__managed_style_0DFAA898003F32B9063B_highlight</styleUrl>
		</Pair>
	</StyleMap>
	<gx:CascadingStyle kml:id="__managed_style_0DFAA898003F32B9063B_highlight">
		<Style>
			<IconStyle>
				<scale>1.2</scale>
				<Icon>
					<href>https://earth.google.com/earth/document/icon?color=1976d2&amp;id=2000&amp;scale=4</href>
				</Icon>
				<hotSpot x="64" y="128" xunits="pixels" yunits="insetPixels"/>
			</IconStyle>
			<LabelStyle>
			</LabelStyle>
			<LineStyle>
				<color>c8d27619</color>
				<width>6.4</width>
			</LineStyle>
			<PolyStyle>
				<color>40ffffff</color>
			</PolyStyle>
			<BalloonStyle>
				<text></text>
			</BalloonStyle>
		</Style>
	</gx:CascadingStyle>
	<gx:CascadingStyle kml:id="__managed_style_191A58DD093F32B9063B_highlight">
		<styleUrl>https://earth.google.com/balloon_components/base/1.1.0.0/card_template.kml#main</styleUrl>
		<Style>
			<IconStyle>
				<scale>1.2</scale>
				<Icon>
					<href>https://earth.google.com/earth/document/icon?color=1976d2&amp;id=2000&amp;scale=4</href>
				</Icon>
				<hotSpot x="64" y="128" xunits="pixels" yunits="insetPixels"/>
			</IconStyle>
			<LabelStyle>
			</LabelStyle>
			<LineStyle>
				<color>ff2dc0fb</color>
				<width>3.2</width>
			</LineStyle>
			<PolyStyle>
				<color>40ffffff</color>
			</PolyStyle>
			<BalloonStyle>
			</BalloonStyle>
		</Style>
	</gx:CascadingStyle>
	<gx:CascadingStyle kml:id="__managed_style_191A58DD093F32B9063B_normal">
		<styleUrl>https://earth.google.com/balloon_components/base/1.1.0.0/card_template.kml#main</styleUrl>
		<Style>
			<IconStyle>
				<Icon>
					<href>https://earth.google.com/earth/document/icon?color=1976d2&amp;id=2000&amp;scale=4</href>
				</Icon>
				<hotSpot x="64" y="128" xunits="pixels" yunits="insetPixels"/>
			</IconStyle>
			<LabelStyle>
			</LabelStyle>
			<LineStyle>
				<color>ff2dc0fb</color>
				<width>2.13333</width>
			</LineStyle>
			<PolyStyle>
				<color>40ffffff</color>
			</PolyStyle>
			<BalloonStyle>
			</BalloonStyle>
		</Style>
	</gx:CascadingStyle>
	<StyleMap id="__managed_style_191A58DD093F32B9063B">
		<Pair>
			<key>normal</key>
			<styleUrl>#__managed_style_191A58DD093F32B9063B_normal</styleUrl>
		</Pair>
		<Pair>
			<key>highlight</key>
			<styleUrl>#__managed_style_191A58DD093F32B9063B_highlight</styleUrl>
		</Pair>
	</StyleMap>
	<Folder id="058DFB279A3F32B90624">
		<name>2025 - Wiltshire Way</name>
		<open>1</open>
		<snippet></snippet>
		<description><![CDATA[<div>Year: 2025<br></div><div><br></div><div>Riders: Anita, Charlie, Tom<br></div>]]></description>
		<styleUrl>#__managed_style_191A58DD093F32B9063B</styleUrl>
		<Placemark id="10190016AA3F32B90624">
			<name>Wiltshire Ride</name>
			<snippet></snippet>
			<styleUrl>#__managed_style_0DFAA898003F32B9063B</styleUrl>
			<LineString>
				<extrude>1</extrude>
				<tessellate>1</tessellate>
				<coordinates>
					-1.8482,51.07820899999999,0 -1.846685,51.07852199999999,0 -1.845315,51.078565,0 -1.843707,51.078782,0 -1.841974,51.07882200000001,0 -1.840875,51.078757,0 -1.838453,51.07838000000001,0 -1.838464,51.078302,0 -1.835002,51.07633000000001,0 -1.832208,51.075292,0 -1.830042,51.074237,0 -1.8297,51.074183,0 -1.828472,51.074208,0 -1.827217,51.074017,0 -1.82372,51.073895,0 -1.82265,51.07378600000001,0 -1.82168,51.073595,0 -1.821224,51.073397,0 -1.820811,51.07309,0 -1.820713,51.072605,0 -1.820428,51.072487,0 -1.819259,51.07223399999999,0 -1.818746,51.071945,0 -1.818076,51.071701,0 -1.813468,51.07118200000001,0 -1.80628,51.069884,0 -1.804683,51.069477,0 -1.805125,51.068885,0 -1.805101,51.06864100000001,0 -1.80483,51.068434,0 -1.804474,51.068316,0 -1.804301,51.068192,0 -1.803894,51.06808600000001,0 -1.803368,51.06810000000001,0 -1.803333,51.068198,0 -1.802576,51.068268,0 -1.801647,51.068555,0 -1.801133,51.068599,0 -1.799482,51.06767,0 -1.799111,51.067543,0 -1.797596,51.067376,0 -1.797237,51.068565,0 -1.796295,51.06867099999999,0 -1.796288,51.069442,0 -1.796533,51.06970599999999,0 -1.796342,51.070866,0 -1.797617,51.07097,0 -1.798026,51.071305,0 -1.797922,51.07174199999999,0 -1.797986,51.072159,0 -1.798182,51.07246199999999,0 -1.79807,51.072762,0 -1.797549,51.073295,0 -1.797738,51.073378,0 -1.797598,51.073614,0 -1.797627,51.073768,0 -1.798098,51.074722,0 -1.799251,51.07621999999999,0 -1.799716,51.077077,0 -1.799861,51.07725300000001,0 -1.800444,51.077578,0 -1.801315,51.077757,0 -1.801215,51.078208,0 -1.801069,51.078422,0 -1.804175,51.081004,0 -1.804474,51.081732,0 -1.805921,51.083114,0 -1.808164,51.084867,0 -1.808245,51.085286,0 -1.808557,51.085336,0 -1.808927,51.085643,0 -1.809266,51.086498,0 -1.810204,51.087479,0 -1.810984,51.088853,0 -1.811778,51.089688,0 -1.813446,51.090847,0 -1.814899,51.091605,0 -1.815369,51.09201900000001,0 -1.815865,51.09291,0 -1.816327,51.095276,0 -1.816369,51.09542,0 -1.816501,51.095507,0 -1.816266,51.096103,0 -1.816373,51.096327,0 -1.816252,51.097283,0 -1.816307,51.097697,0 -1.817398,51.099141,0 -1.818268,51.10047,0 -1.820168,51.10366599999999,0 -1.821172,51.10587499999999,0 -1.821345,51.106625,0 -1.822698,51.107832,0 -1.823112,51.108401,0 -1.823396,51.109001,0 -1.823371,51.10953399999999,0 -1.823134,51.109931,0 -1.819504,51.11274900000001,0 -1.81884,51.113417,0 -1.818266,51.114144,0 -1.817028,51.116525,0 -1.816868,51.117088,0 -1.816836,51.1176,0 -1.817356,51.120285,0 -1.818737,51.12143500000001,0 -1.820063,51.122321,0 -1.820205,51.122546,0 -1.820132,51.122843,0 -1.819602,51.123157,0 -1.816395,51.12463499999999,0 -1.815873,51.124942,0 -1.815235,51.12550100000001,0 -1.81487,51.12601,0 -1.81461,51.126722,0 -1.814011,51.12774300000001,0 -1.814792,51.128645,0 -1.815933,51.1295,0 -1.816915,51.130508,0 -1.81797,51.13131,0 -1.818267,51.13200299999999,0 -1.818609,51.13233600000001,0 -1.819336,51.132751,0 -1.823778,51.133423,0 -1.823642,51.134232,0 -1.823289,51.13505000000001,0 -1.822847,51.136011,0 -1.822543,51.136263,0 -1.82031,51.137299,0 -1.816986,51.139062,0 -1.816067,51.13945100000001,0 -1.81552,51.13992100000001,0 -1.814971,51.141485,0 -1.814524,51.142419,0 -1.814023,51.143064,0 -1.813609,51.14433199999999,0 -1.812786,51.146354,0 -1.810474,51.148681,0 -1.809793,51.149111,0 -1.809836,51.14921,0 -1.810691,51.149814,0 -1.811093,51.15056300000001,0 -1.81121,51.151072,0 -1.812092,51.152224,0 -1.812507,51.15340400000001,0 -1.812659,51.154699,0 -1.812572,51.15505,0 -1.811839,51.155984,0 -1.810782,51.156913,0 -1.805601,51.1602,0 -1.803895,51.16281499999999,0 -1.803868,51.16305,0 -1.805062,51.163868,0 -1.806508,51.16519099999999,0 -1.806759,51.165541,0 -1.806969,51.166343,0 -1.806942,51.166616,0 -1.805833,51.16860299999999,0 -1.805021,51.169464,0 -1.804491,51.16986099999999,0 -1.803826,51.17018,0 -1.801556,51.170923,0 -1.798885,51.17216400000001,0 -1.79778,51.172397,0 -1.796812,51.172413,0 -1.79516,51.17216400000001,0 -1.79501,51.172228,0 -1.794678,51.172627,0 -1.794605,51.17294099999999,0 -1.791787,51.172496,0 -1.790331,51.17216,0 -1.78976,51.171926,0 -1.787162,51.170442,0 -1.786821,51.170382,0 -1.78553,51.170718,0 -1.781859,51.172298,0 -1.779651,51.17367,0 -1.777735,51.17523199999999,0 -1.776055,51.176117,0 -1.775122,51.176334,0 -1.769551,51.176763,0 -1.769406,51.176768,0 -1.76939,51.17670999999999,0 -1.768743,51.17671300000001,0 -1.768328,51.176607,0 -1.767658,51.176859,0 -1.765032,51.17740800000001,0 -1.764428,51.17747,0 -1.763494,51.17743000000001,0 -1.763002,51.177316,0 -1.762674,51.177178,0 -1.762046,51.176653,0 -1.761802,51.176754,0 -1.761538,51.176718,0 -1.761252,51.176848,0 -1.761118,51.177082,0 -1.760549,51.178794,0 -1.760549,51.178912,0 -1.760777,51.17912,0 -1.760797,51.1797,0 -1.760589,51.179706,0 -1.760252,51.183172,0 -1.760283,51.18360000000001,0 -1.760708,51.184264,0 -1.76089,51.185182,0 -1.760863,51.18767,0 -1.760139,51.188005,0 -1.759533,51.188384,0 -1.759444,51.188522,0 -1.760188,51.189158,0 -1.759803,51.190301,0 -1.759713,51.190882,0 -1.759803,51.191683,0 -1.759892,51.191766,0 -1.759631,51.19301200000001,0 -1.759482,51.19334899999999,0 -1.75946,51.194334,0 -1.759662,51.19536,0 -1.760452,51.197211,0 -1.761237,51.19941799999999,0 -1.761467,51.2009,0 -1.762548,51.203465,0 -1.762893,51.20457,0 -1.763394,51.205347,0 -1.763769,51.206236,0 -1.764272,51.207062,0 -1.765262,51.208245,0 -1.766054,51.20955800000001,0 -1.767196,51.210548,0 -1.767873,51.211628,0 -1.76805,51.212525,0 -1.768062,51.21347,0 -1.768682,51.216693,0 -1.770028,51.219564,0 -1.770895,51.220879,0 -1.771788,51.221921,0 -1.772852,51.222822,0 -1.773753,51.22387799999999,0 -1.774699,51.224753,0 -1.77752,51.228288,0 -1.778559,51.22914,0 -1.779667,51.231003,0 -1.780021,51.231849,0 -1.78013,51.232991,0 -1.780571,51.23372,0 -1.780692,51.234117,0 -1.780778,51.236674,0 -1.781241,51.237417,0 -1.782287,51.238497,0 -1.780693,51.23923500000001,0 -1.779832,51.239945,0 -1.78015,51.24084200000001,0 -1.784913,51.244942,0 -1.783518,51.24538799999999,0 -1.78043,51.246206,0 -1.779473,51.24699,0 -1.774463,51.248447,0 -1.767233,51.250156,0 -1.752323,51.252644,0 -1.745558,51.253243,0 -1.737686,51.254188,0 -1.736782,51.254465,0 -1.73411,51.256346,0 -1.732657,51.257063,0 -1.730652,51.258185,0 -1.729352,51.259771,0 -1.727999,51.26101,0 -1.726238,51.26294000000001,0 -1.724874,51.26461,0 -1.724288,51.265116,0 -1.721598,51.266966,0 -1.714949,51.269817,0 -1.71245,51.270674,0 -1.709033,51.271256,0 -1.708833,51.27135699999999,0 -1.708582,51.272589,0 -1.708915,51.281069,0 -1.708755,51.281392,0 -1.707451,51.28132599999999,0 -1.705543,51.28148299999999,0 -1.704468,51.281462,0 -1.700752,51.280861,0 -1.699971,51.280633,0 -1.699271,51.280253,0 -1.698109,51.280394,0 -1.696642,51.280787,0 -1.695467,51.280954,0 -1.69311,51.28173,0 -1.692479,51.28188099999999,0 -1.689581,51.28225,0 -1.68763,51.282183,0 -1.684812,51.282294,0 -1.682615,51.282187,0 -1.681872,51.282336,0 -1.681171,51.282326,0 -1.678473,51.28173600000001,0 -1.677554,51.281715,0 -1.67566,51.281962,0 -1.673582,51.28242199999999,0 -1.670855,51.282643,0 -1.668033,51.28329900000001,0 -1.667277,51.283344,0 -1.66557,51.28328199999999,0 -1.664423,51.283315,0 -1.660449,51.283618,0 -1.658179,51.284178,0 -1.655765,51.28485400000001,0 -1.653984,51.28525500000001,0 -1.653324,51.285315,0 -1.652408,51.2853,0 -1.652407,51.285219,0 -1.646382,51.285459,0 -1.644555,51.285344,0 -1.643626,51.284977,0 -1.64256,51.284207,0 -1.641436,51.28360700000001,0 -1.637258,51.282514,0 -1.637129,51.282937,0 -1.636931,51.28321100000001,0 -1.633895,51.286149,0 -1.630818,51.289922,0 -1.629816,51.29177,0 -1.627459,51.294198,0 -1.627052,51.294882,0 -1.62713,51.295409,0 -1.627824,51.29705299999999,0 -1.628053,51.298034,0 -1.628892,51.299713,0 -1.628986,51.300662,0 -1.6289,51.302781,0 -1.629348,51.305216,0 -1.628458,51.307751,0 -1.627611,51.30937,0 -1.626859,51.31057800000001,0 -1.619474,51.320977,0 -1.618023,51.323639,0 -1.617119,51.325937,0 -1.616313,51.327163,0 -1.614798,51.328932,0 -1.61332,51.330006,0 -1.612912,51.330445,0 -1.612377,51.33145900000001,0 -1.609636,51.335102,0 -1.608324,51.33753000000001,0 -1.603402,51.341611,0 -1.601522,51.342824,0 -1.601016,51.343187,0 -1.600619,51.343586,0 -1.600207,51.34375500000001,0 -1.600907,51.344207,0 -1.604529,51.347015,0 -1.605497,51.34799,0 -1.606241,51.34837,0 -1.607568,51.349354,0 -1.608537,51.350239,0 -1.609479,51.35088,0 -1.610805,51.351928,0 -1.612102,51.353074,0 -1.61298,51.353726,0 -1.612414,51.35387999999999,0 -1.610787,51.354132,0 -1.610319,51.354523,0 -1.609692,51.355406,0 -1.609136,51.35656800000001,0 -1.608775,51.356936,0 -1.60853,51.357783,0 -1.607617,51.358706,0 -1.606233,51.359286,0 -1.603973,51.35993499999999,0 -1.603454,51.360167,0 -1.60237,51.360892,0 -1.601338,51.361814,0 -1.601205,51.36202600000001,0 -1.601553,51.367381,0 -1.601887,51.368596,0 -1.601664,51.369395,0 -1.601704,51.36979999999999,0 -1.601903,51.37008900000001,0 -1.602317,51.37036,0 -1.602932,51.370648,0 -1.604678,51.371236,0 -1.605398,51.371768,0 -1.606186,51.37223399999999,0 -1.605417,51.374057,0 -1.602787,51.37764,0 -1.602262,51.37828100000001,0 -1.601662,51.37873700000001,0 -1.601479,51.379071,0 -1.601984,51.379414,0 -1.6028,51.379821,0 -1.603536,51.380003,0 -1.60233,51.38145,0 -1.600948,51.382246,0 -1.59867,51.384047,0 -1.596612,51.38520400000001,0 -1.595755,51.38559599999999,0 -1.595352,51.385645,0 -1.592946,51.386323,0 -1.591582,51.386807,0 -1.5891,51.388752,0 -1.588396,51.389563,0 -1.58803,51.39029899999999,0 -1.58805,51.391306,0 -1.587814,51.392118,0 -1.587932,51.39310399999999,0 -1.587846,51.393254,0 -1.586841,51.394053,0 -1.586754,51.39419,0 -1.586399,51.39428300000001,0 -1.584908,51.39567,0 -1.583913,51.396833,0 -1.582215,51.39819500000001,0 -1.581248,51.39932400000001,0 -1.578102,51.401553,0 -1.576515,51.403102,0 -1.576308,51.403421,0 -1.575967,51.404364,0 -1.575552,51.406129,0 -1.57536,51.407132,0 -1.57535,51.408152,0 -1.574996,51.408731,0 -1.573881,51.409515,0 -1.573763,51.409677,0 -1.573845,51.409805,0 -1.57412,51.409882,0 -1.573598,51.410402,0 -1.57303,51.41071599999999,0 -1.573039,51.41089,0 -1.57551,51.410443,0 -1.575748,51.41048000000001,0 -1.576077,51.41099299999999,0 -1.576514,51.41143799999999,0 -1.576633,51.411483,0 -1.57739,51.411424,0 -1.577738,51.411725,0 -1.579361,51.41248199999999,0 -1.581096,51.413096,0 -1.582023,51.413918,0 -1.582723,51.41442399999999,0 -1.584068,51.415184,0 -1.584904,51.41556,0 -1.585693,51.415763,0 -1.586529,51.415883,0 -1.589252,51.415997,0 -1.59116,51.416329,0 -1.594067,51.41717,0 -1.59528,51.417829,0 -1.596364,51.418257,0 -1.59716,51.41844400000001,0 -1.599159,51.418502,0 -1.599472,51.418691,0 -1.599648,51.418952,0 -1.599972,51.419899,0 -1.600767,51.420926,0 -1.602037,51.422028,0 -1.602869,51.42265,0 -1.60328,51.423228,0 -1.603967,51.42394599999999,0 -1.603792,51.42448999999999,0 -1.603803,51.425048,0 -1.604481,51.42615800000001,0 -1.605228,51.427621,0 -1.605366,51.428323,0 -1.605204,51.428535,0 -1.604978,51.428669,0 -1.600273,51.42946800000001,0 -1.59989,51.430321,0 -1.599745,51.43101500000001,0 -1.599726,51.431919,0 -1.600231,51.434272,0 -1.600854,51.435019,0 -1.600937,51.435379,0 -1.60087,51.435747,0 -1.600474,51.43647,0 -1.600156,51.436755,0 -1.599667,51.436942,0 -1.599609,51.43709399999999,0 -1.59988,51.43731099999999,0 -1.600639,51.4377,0 -1.600785,51.437884,0 -1.600909,51.439832,0 -1.601121,51.44053100000001,0 -1.600949,51.441964,0 -1.601058,51.442241,0 -1.601554,51.442472,0 -1.601625,51.442608,0 -1.602583,51.442725,0 -1.604023,51.442572,0 -1.605014,51.44257,0 -1.605719,51.442268,0 -1.606168,51.44214599999999,0 -1.612127,51.441944,0 -1.612627,51.44218,0 -1.615354,51.441518,0 -1.617527,51.440526,0 -1.621768,51.439796,0 -1.62201,51.439827,0 -1.624997,51.441036,0 -1.627859,51.442219,0 -1.629358,51.442923,0 -1.630678,51.4431,0 -1.631527,51.44297600000001,0 -1.632424,51.44268,0 -1.633322,51.442257,0 -1.634776,51.441408,0 -1.636425,51.44032199999999,0 -1.63765,51.439827,0 -1.639103,51.439323,0 -1.639835,51.439153,0 -1.641917,51.438844,0 -1.642726,51.43858600000001,0 -1.644932,51.437076,0 -1.645562,51.43637699999999,0 -1.64626,51.435411,0 -1.646365,51.43451,0 -1.646874,51.432638,0 -1.647076,51.43224000000001,0 -1.652202,51.431,0 -1.653762,51.430784,0 -1.655462,51.43025899999999,0 -1.660206,51.42913300000001,0 -1.662957,51.428664,0 -1.664872,51.428454,0 -1.666181,51.42838600000001,0 -1.668138,51.428319,0 -1.670732,51.428401,0 -1.67124,51.42834999999999,0 -1.67237,51.42776500000001,0 -1.673149,51.427497,0 -1.674853,51.426594,0 -1.675475,51.42608299999999,0 -1.676069,51.425437,0 -1.676796,51.424431,0 -1.67769,51.423922,0 -1.678313,51.423772,0 -1.679969,51.423876,0 -1.681841,51.424134,0 -1.684126,51.425173,0 -1.685715,51.42621800000001,0 -1.686274,51.426436,0 -1.690586,51.427005,0 -1.690983,51.427026,0 -1.692151,51.426826,0 -1.692658,51.426848,0 -1.693906,51.427137,0 -1.695967,51.42674,0 -1.697524,51.42620399999999,0 -1.700131,51.425582,0 -1.700437,51.425614,0 -1.700548,51.4257,0 -1.700978,51.425782,0 -1.702692,51.425489,0 -1.704724,51.424937,0 -1.707544,51.424701,0 -1.709428,51.424688,0 -1.710981,51.42479999999999,0 -1.711801,51.424802,0 -1.713109,51.424574,0 -1.71373,51.424536,0 -1.714247,51.424556,0 -1.716474,51.42502,0 -1.71915,51.424873,0 -1.719926,51.424965,0 -1.721077,51.424959,0 -1.723744,51.424165,0 -1.72494,51.42359200000001,0 -1.727717,51.422667,0 -1.730069,51.422039,0 -1.730282,51.422561,0 -1.730596,51.422985,0 -1.731803,51.423801,0 -1.731995,51.424015,0 -1.732213,51.424044,0 -1.734628,51.425504,0 -1.740458,51.42872400000001,0 -1.749315,51.432644,0 -1.749928,51.433062,0 -1.752522,51.435787,0 -1.75885,51.440071,0 -1.759833,51.44153900000001,0 -1.759956,51.442191,0 -1.761868,51.44324200000001,0 -1.762226,51.4436,0 -1.762672,51.444371,0 -1.763469,51.445212,0 -1.763644,51.445535,0 -1.7637,51.445859,0 -1.763583,51.446263,0 -1.763047,51.446991,0 -1.76266,51.447796,0 -1.762215,51.44959,0 -1.762038,51.450693,0 -1.762046,51.451376,0 -1.762357,51.45213,0 -1.763584,51.453298,0 -1.764112,51.453684,0 -1.765263,51.454326,0 -1.7679,51.455515,0 -1.77114,51.456536,0 -1.774538,51.457773,0 -1.77547,51.458172,0 -1.776674,51.458787,0 -1.778678,51.460106,0 -1.779989,51.46082599999999,0 -1.783356,51.462186,0 -1.785861,51.462916,0 -1.791174,51.46375,0 -1.7924,51.464059,0 -1.794941,51.464836,0 -1.795847,51.465008,0 -1.798063,51.46529100000001,0 -1.800855,51.465467,0 -1.801401,51.465558,0 -1.804248,51.46641700000001,0 -1.806972,51.467625,0 -1.811477,51.46931499999999,0 -1.814868,51.47093900000001,0 -1.815553,51.47137000000001,0 -1.815655,51.471597,0 -1.815683,51.472262,0 -1.815464,51.47330400000001,0 -1.81565,51.47353,0 -1.81611,51.47364699999999,0 -1.816427,51.47363900000001,0 -1.817005,51.47347,0 -1.817624,51.47304799999999,0 -1.818474,51.47295,0 -1.818933,51.472964,0 -1.81938,51.47311200000001,0 -1.824221,51.475253,0 -1.828565,51.476781,0 -1.8295,51.477251,0 -1.833019,51.47949100000001,0 -1.83591,51.48105899999999,0 -1.838178,51.482599,0 -1.841012,51.483952,0 -1.84183,51.484139,0 -1.841754,51.48439700000001,0 -1.842608,51.484512,0 -1.843242,51.48467399999999,0 -1.847809,51.486329,0 -1.848538,51.486698,0 -1.848905,51.48672599999999,0 -1.84918,51.486846,0 -1.849614,51.48733,0 -1.851336,51.48887500000001,0 -1.85149,51.489327,0 -1.851807,51.48943199999999,0 -1.852397,51.489454,0 -1.853393,51.489237,0 -1.854247,51.489164,0 -1.854618,51.489274,0 -1.854804,51.489414,0 -1.855422,51.490247,0 -1.857599,51.489689,0 -1.858473,51.489569,0 -1.85996,51.489725,0 -1.861109,51.48999000000001,0 -1.861669,51.490056,0 -1.86549,51.489167,0 -1.868605,51.48877900000001,0 -1.870648,51.48877499999999,0 -1.871532,51.48868000000001,0 -1.875178,51.488035,0 -1.87751,51.48754000000001,0 -1.878741,51.487214,0 -1.882291,51.487309,0 -1.883587,51.487418,0 -1.886026,51.486734,0 -1.887604,51.48733,0 -1.88832,51.48747100000001,0 -1.890471,51.48714,0 -1.891103,51.48738600000001,0 -1.891642,51.488071,0 -1.892284,51.48842899999999,0 -1.895586,51.488769,0 -1.896587,51.489921,0 -1.895614,51.490494,0 -1.895305,51.490887,0 -1.895059,51.491061,0 -1.894905,51.491434,0 -1.895651,51.49343999999999,0 -1.895317,51.49404500000001,0 -1.89529,51.494567,0 -1.895386,51.494859,0 -1.896549,51.495896,0 -1.897901,51.49740200000001,0 -1.899263,51.498301,0 -1.901536,51.500293,0 -1.902526,51.500995,0 -1.904182,51.501508,0 -1.904763,51.501867,0 -1.905242,51.50246500000001,0 -1.906983,51.50426700000001,0 -1.907526,51.504727,0 -1.908282,51.504218,0 -1.910245,51.50244799999999,0 -1.910853,51.501711,0 -1.911462,51.50074800000001,0 -1.912005,51.501155,0 -1.915982,51.503491,0 -1.916943,51.503981,0 -1.917588,51.504198,0 -1.921886,51.505291,0 -1.922736,51.50564600000001,0 -1.926173,51.506713,0 -1.927137,51.50706599999999,0 -1.931372,51.508082,0 -1.934225,51.50910699999999,0 -1.937819,51.51071,0 -1.938774,51.510844,0 -1.940356,51.510741,0 -1.941454,51.510781,0 -1.942229,51.511093,0 -1.943758,51.511579,0 -1.945266,51.512518,0 -1.946193,51.513278,0 -1.947056,51.514433,0 -1.946146,51.514731,0 -1.944815,51.515362,0 -1.944215,51.516254,0 -1.944128,51.51659600000001,0 -1.945455,51.518595,0 -1.945312,51.519791,0 -1.945352,51.520377,0 -1.945621,51.521497,0 -1.945623,51.52246400000001,0 -1.946089,51.52347999999999,0 -1.946757,51.524042,0 -1.947578,51.524384,0 -1.94778,51.524564,0 -1.949337,51.524412,0 -1.949653,51.524888,0 -1.949961,51.525632,0 -1.950076,51.526512,0 -1.950519,51.527212,0 -1.950846,51.52799099999999,0 -1.950918,51.52838700000001,0 -1.950816,51.529187,0 -1.950865,51.529472,0 -1.95018,51.53129100000001,0 -1.9501,51.532602,0 -1.950275,51.53322099999999,0 -1.951072,51.534142,0 -1.951084,51.53511699999999,0 -1.950774,51.53631,0 -1.949448,51.53824,0 -1.947763,51.539882,0 -1.94663,51.54141299999999,0 -1.94603,51.54189,0 -1.946044,51.542178,0 -1.946375,51.542601,0 -1.946548,51.54298699999999,0 -1.947181,51.54351800000001,0 -1.947657,51.544076,0 -1.946828,51.54462000000001,0 -1.945853,51.545055,0 -1.944669,51.546143,0 -1.943702,51.546736,0 -1.942952,51.54705,0 -1.94148,51.54742700000001,0 -1.940298,51.547543,0 -1.939447,51.547552,0 -1.938221,51.547434,0 -1.938587,51.548284,0 -1.939358,51.549269,0 -1.94041,51.55000700000001,0 -1.944238,51.551999,0 -1.947164,51.553418,0 -1.947827,51.553847,0 -1.948353,51.55445399999999,0 -1.949335,51.55606099999999,0 -1.949573,51.558365,0 -1.949933,51.558895,0 -1.950334,51.56238,0 -1.950173,51.563589,0 -1.948412,51.57046699999999,0 -1.94816,51.570722,0 -1.947337,51.571243,0 -1.946199,51.572556,0 -1.946048,51.572834,0 -1.946039,51.57321,0 -1.946413,51.57450300000001,0 -1.946398,51.574784,0 -1.946239,51.57500499999999,0 -1.94565,51.575188,0 -1.943214,51.575322,0 -1.944891,51.577254,0 -1.945208,51.577769,0 -1.945462,51.578427,0 -1.946098,51.57929,0 -1.94812,51.580663,0 -1.949977,51.582094,0 -1.951818,51.582854,0 -1.953815,51.58339000000001,0 -1.955743,51.583612,0 -1.957518,51.583539,0 -1.959473,51.5833,0 -1.962001,51.583154,0 -1.968222,51.582879,0 -1.973187,51.582911,0 -1.976761,51.582629,0 -1.978758,51.582367,0 -1.980161,51.582076,0 -1.986697,51.58008000000001,0 -1.989686,51.580287,0 -1.992871,51.580701,0 -1.995376,51.581297,0 -1.999048,51.581548,0 -2.002626,51.582187,0 -2.012425,51.584319,0 -2.013459,51.584463,0 -2.013587,51.583957,0 -2.017161,51.583973,0 -2.020237,51.58379599999999,0 -2.028399,51.584498,0 -2.028996,51.58459799999999,0 -2.031078,51.585166,0 -2.034363,51.585501,0 -2.035534,51.58555,0 -2.04044,51.58694200000001,0 -2.041969,51.587548,0 -2.043963,51.588228,0 -2.044694,51.58854900000001,0 -2.046064,51.58938700000001,0 -2.046497,51.58925199999999,0 -2.047074,51.588802,0 -2.049138,51.58863,0 -2.050206,51.588953,0 -2.050495,51.588971,0 -2.052833,51.5887,0 -2.055468,51.588668,0 -2.056274,51.588819,0 -2.057457,51.589138,0 -2.058956,51.588992,0 -2.061807,51.589152,0 -2.063727,51.58961399999999,0 -2.064586,51.589907,0 -2.068256,51.589916,0 -2.076938,51.589009,0 -2.079353,51.5887,0 -2.079968,51.588568,0 -2.082237,51.58764699999999,0 -2.083764,51.58725199999999,0 -2.085825,51.587129,0 -2.086962,51.587154,0 -2.0888,51.586751,0 -2.090589,51.586177,0 -2.091439,51.585619,0 -2.091612,51.585691,0 -2.091757,51.585979,0 -2.092003,51.586095,0 -2.092653,51.58630200000001,0 -2.093317,51.586391,0 -2.093604,51.585492,0 -2.093791,51.585213,0 -2.095074,51.584726,0 -2.096318,51.584567,0 -2.096396,51.58450199999999,0 -2.096415,51.583952,0 -2.096656,51.58336199999999,0 -2.096629,51.582819,0 -2.097639,51.582584,0 -2.097929,51.583267,0 -2.098002,51.58380699999999,0 -2.098811,51.583806,0 -2.099106,51.584512,0 -2.099633,51.58482599999999,0 -2.10095,51.585252,0 -2.101412,51.585512,0 -2.101585,51.585404,0 -2.103389,51.585241,0 -2.104413,51.58488,0 -2.104679,51.58465899999999,0 -2.105224,51.584487,0 -2.105015,51.583621,0 -2.105087,51.583517,0 -2.105521,51.58333200000001,0 -2.107569,51.582899,0 -2.10852,51.582458,0 -2.111895,51.58125800000001,0 -2.114405,51.580878,0 -2.115784,51.580446,0 -2.117708,51.580138,0 -2.118746,51.579885,0 -2.1232,51.578001,0 -2.12405,51.57746099999999,0 -2.125225,51.57687900000001,0 -2.13083,51.57443899999999,0 -2.133351,51.573894,0 -2.134461,51.57358499999999,0 -2.136362,51.573383,0 -2.137328,51.57304,0 -2.139231,51.57261499999999,0 -2.142102,51.57227,0 -2.144742,51.572267,0 -2.146733,51.572156,0 -2.148118,51.572191,0 -2.149864,51.57202699999999,0 -2.151422,51.572106,0 -2.151537,51.57193400000001,0 -2.151678,51.57081900000001,0 -2.15238,51.569443,0 -2.152422,51.569065,0 -2.152218,51.568526,0 -2.151362,51.566908,0 -2.1512,51.566171,0 -2.153232,51.56532399999999,0 -2.154226,51.565026,0 -2.155134,51.56462,0 -2.156012,51.564106,0 -2.157364,51.563052,0 -2.158617,51.562295,0 -2.159221,51.561755,0 -2.159912,51.561421,0 -2.162289,51.56050100000001,0 -2.164405,51.55931099999999,0 -2.164829,51.559235,0 -2.164823,51.559113,0 -2.165268,51.55842,0 -2.165641,51.558041,0 -2.166766,51.55804,0 -2.16776,51.55767899999999,0 -2.168985,51.55734399999999,0 -2.169979,51.556911,0 -2.171146,51.556514,0 -2.172976,51.556125,0 -2.17459,51.55558299999999,0 -2.177167,51.554563,0 -2.17969,51.554163,0 -2.180324,51.55391,0 -2.181421,51.553235,0 -2.181634,51.553315,0 -2.18188,51.55356599999999,0 -2.182765,51.554869,0 -2.183243,51.55542599999999,0 -2.184878,51.55659200000001,0 -2.186165,51.557354,0 -2.186614,51.557533,0 -2.188738,51.555282,0 -2.192027,51.552022,0 -2.19424,51.550112,0 -2.195662,51.548644,0 -2.196265,51.548157,0 -2.210394,51.534475,0 -2.212732,51.532087,0 -2.213807,51.530818,0 -2.213901,51.530585,0 -2.212799,51.52783399999999,0 -2.212452,51.527227,0 -2.211435,51.526596,0 -2.210566,51.52575,0 -2.209011,51.525217,0 -2.208745,51.525059,0 -2.208585,51.524056,0 -2.208194,51.523198,0 -2.205912,51.519017,0 -2.205443,51.51838099999999,0 -2.205127,51.517526,0 -2.203904,51.515499,0 -2.201645,51.512451,0 -2.201018,51.5113,0 -2.199984,51.508728,0 -2.199662,51.50716800000001,0 -2.199619,51.505977,0 -2.199122,51.504561,0 -2.198631,51.50399999999999,0 -2.197757,51.503373,0 -2.19498,51.500508,0 -2.194959,51.500332,0 -2.195179,51.499892,0 -2.195206,51.499568,0 -2.195,51.498463,0 -2.194606,51.497133,0 -2.193446,51.495354,0 -2.19228,51.492821,0 -2.192539,51.491456,0 -2.193519,51.48894299999999,0 -2.19369,51.488089,0 -2.193697,51.48759999999999,0 -2.193785,51.487487,0 -2.193442,51.486346,0 -2.193591,51.48629800000001,0 -2.193898,51.485255,0 -2.193382,51.4838,0 -2.193496,51.483593,0 -2.194214,51.483097,0 -2.195968,51.482339,0 -2.196427,51.481925,0 -2.196412,51.481682,0 -2.195903,51.480586,0 -2.195757,51.48002,0 -2.195695,51.47904,0 -2.195802,51.477133,0 -2.195987,51.47674600000001,0 -2.197248,51.475198,0 -2.19808,51.474414,0 -2.198021,51.474261,0 -2.197083,51.473705,0 -2.195892,51.47137000000001,0 -2.195396,51.47011200000001,0 -2.195288,51.46941099999999,0 -2.195286,51.468486,0 -2.195568,51.467573,0 -2.195958,51.466925,0 -2.196838,51.466012,0 -2.198746,51.464352,0 -2.199832,51.463675,0 -2.199917,51.463432,0 -2.199048,51.461849,0 -2.198714,51.460963,0 -2.198519,51.460734,0 -2.198147,51.460625,0 -2.196433,51.460471,0 -2.195352,51.460226,0 -2.195044,51.460078,0 -2.193779,51.458478,0 -2.193416,51.457792,0 -2.192417,51.456449,0 -2.19197,51.456,0 -2.19093,51.45531900000001,0 -2.190449,51.45372800000001,0 -2.187488,51.451161,0 -2.187742,51.45009100000001,0 -2.188592,51.448053,0 -2.188453,51.44786000000001,0 -2.186504,51.44647799999999,0 -2.185519,51.445408,0 -2.18552,51.4451,0 -2.18587,51.444086,0 -2.186027,51.44325300000001,0 -2.185945,51.44273399999999,0 -2.185983,51.44206400000001,0 -2.185649,51.441224,0 -2.185646,51.440698,0 -2.185816,51.439798,0 -2.185536,51.438306,0 -2.185013,51.437393,0 -2.184765,51.436214,0 -2.184776,51.43591799999999,0 -2.185481,51.43536599999999,0 -2.186213,51.435032,0 -2.186515,51.434825,0 -2.186743,51.434438,0 -2.18717,51.43329500000001,0 -2.187438,51.43193699999999,0 -2.187724,51.431631,0 -2.18601,51.431121,0 -2.184858,51.4307,0 -2.18424,51.430575,0 -2.184007,51.42936,0 -2.182902,51.427143,0 -2.182669,51.426406,0 -2.182365,51.425948,0 -2.181812,51.424339,0 -2.181278,51.423569,0 -2.18155,51.42348500000001,0 -2.182714,51.423465,0 -2.183837,51.423582,0 -2.184265,51.423508,0 -2.185904,51.422759,0 -2.186094,51.42255599999999,0 -2.18603,51.42187800000001,0 -2.186144,51.421554,0 -2.186459,51.421256,0 -2.187249,51.420886,0 -2.187593,51.42062499999999,0 -2.188352,51.41986,0 -2.188665,51.419167,0 -2.188621,51.418942,0 -2.188129,51.41806200000001,0 -2.188198,51.417369,0 -2.188763,51.414896,0 -2.188934,51.414563,0 -2.189867,51.414094,0 -2.190139,51.41388599999999,0 -2.191266,51.412088,0 -2.191459,51.411945,0 -2.19292,51.411868,0 -2.194403,51.411548,0 -2.195652,51.410354,0 -2.195866,51.409983,0 -2.195814,51.40950699999999,0 -2.195982,51.408311,0 -2.196348,51.406656,0 -2.196534,51.40623300000001,0 -2.196899,51.40372399999999,0 -2.197636,51.40215100000001,0 -2.198033,51.40155200000001,0 -2.198378,51.40067800000001,0 -2.198501,51.40052099999999,0 -2.198949,51.400323,0 -2.19901,51.40023299999999,0 -2.198819,51.39891500000001,0 -2.198288,51.398117,0 -2.198245,51.397358,0 -2.197991,51.39651400000001,0 -2.198292,51.39622499999999,0 -2.198949,51.395774,0 -2.199362,51.39528799999999,0 -2.199899,51.393279,0 -2.199193,51.39295600000001,0 -2.199523,51.392785,0 -2.200801,51.39244999999999,0 -2.201647,51.392152,0 -2.202092,51.391908,0 -2.202836,51.391242,0 -2.202747,51.390621,0 -2.202846,51.39011799999999,0 -2.202609,51.389696,0 -2.201183,51.38861300000001,0 -2.201018,51.388364,0 -2.20123,51.387623,0 -2.201338,51.386478,0 -2.201495,51.386142,0 -2.201835,51.385812,0 -2.202335,51.385573,0 -2.203164,51.38533600000001,0 -2.204377,51.385112,0 -2.204707,51.384991,0 -2.205218,51.384667,0 -2.206735,51.383903,0 -2.207297,51.38349699999999,0 -2.204984,51.382965,0 -2.201772,51.381944,0 -2.201256,51.38159400000001,0 -2.199498,51.381106,0 -2.197482,51.380139,0 -2.194045,51.378839,0 -2.191944,51.378776,0 -2.192027,51.378499,0 -2.192284,51.378266,0 -2.194125,51.377274,0 -2.19554,51.37618999999999,0 -2.197555,51.374434,0 -2.199292,51.37277,0 -2.200738,51.371652,0 -2.201425,51.370923,0 -2.201444,51.370722,0 -2.201106,51.370384,0 -2.201077,51.370186,0 -2.202278,51.368317,0 -2.202226,51.368244,0 -2.200646,51.367601,0 -2.200418,51.367464,0 -2.200349,51.36734,0 -2.20044,51.367144,0 -2.201892,51.366039,0 -2.202097,51.365717,0 -2.202379,51.364898,0 -2.205293,51.36449799999999,0 -2.206217,51.364038,0 -2.2072,51.363738,0 -2.208156,51.363246,0 -2.209037,51.363043,0 -2.210712,51.363049,0 -2.2134,51.36345399999999,0 -2.214168,51.363703,0 -2.215412,51.36381399999999,0 -2.21784,51.363649,0 -2.21878,51.36365,0 -2.221009,51.36323800000001,0 -2.221437,51.363254,0 -2.22355,51.363642,0 -2.224272,51.363588,0 -2.226342,51.36302100000001,0 -2.228321,51.36256,0 -2.229638,51.362168,0 -2.233133,51.361648,0 -2.235457,51.36164,0 -2.236118,51.361198,0 -2.238304,51.359964,0 -2.239878,51.35918300000001,0 -2.241068,51.35845500000001,0 -2.241761,51.35793499999999,0 -2.243151,51.356024,0 -2.24363,51.355525,0 -2.24512,51.35363100000001,0 -2.245991,51.352701,0 -2.246728,51.351273,0 -2.247215,51.350756,0 -2.245852,51.35058,0 -2.243981,51.35014200000001,0 -2.242612,51.34920300000001,0 -2.242399,51.348837,0 -2.242364,51.34848199999999,0 -2.24246,51.347995,0 -2.242661,51.34767800000001,0 -2.24345,51.34721100000001,0 -2.244242,51.346937,0 -2.244561,51.346905,0 -2.246073,51.346929,0 -2.246583,51.34701799999999,0 -2.247018,51.347185,0 -2.248298,51.34790600000001,0 -2.249087,51.348085,0 -2.24937,51.348041,0 -2.249964,51.347808,0 -2.250242,51.347764,0 -2.251243,51.346737,0 -2.251891,51.346482,0 -2.252072,51.346307,0 -2.25209,51.34603199999999,0 -2.251883,51.345602,0 -2.25158,51.344416,0 -2.251514,51.343787,0 -2.251665,51.343067,0 -2.251746,51.341601,0 -2.251897,51.341391,0 -2.25224,51.341256,0 -2.252284,51.340295,0 -2.252997,51.339003,0 -2.253157,51.338402,0 -2.253156,51.337556,0 -2.253684,51.336364,0 -2.253919,51.336082,0 -2.254712,51.335415,0 -2.25504,51.334957,0 -2.255753,51.33447000000001,0 -2.260521,51.332212,0 -2.261623,51.331512,0 -2.262602,51.331025,0 -2.263939,51.33013699999999,0 -2.268406,51.33033300000001,0 -2.268697,51.33009100000001,0 -2.269709,51.329809,0 -2.270894,51.329644,0 -2.271304,51.32951599999999,0 -2.27146,51.329383,0 -2.271535,51.329031,0 -2.271698,51.328788,0 -2.273084,51.327859,0 -2.273627,51.327372,0 -2.274593,51.325787,0 -2.275174,51.324509,0 -2.275987,51.323644,0 -2.276623,51.322784,0 -2.278106,51.321966,0 -2.28184,51.320968,0 -2.282461,51.320724,0 -2.282657,51.320584,0 -2.282884,51.320309,0 -2.283242,51.319564,0 -2.283694,51.31910199999999,0 -2.283682,51.31815399999999,0 -2.28394,51.31702499999999,0 -2.284283,51.316826,0 -2.284914,51.31678,0 -2.286028,51.316819,0 -2.286677,51.316577,0 -2.287767,51.316449,0 -2.287694,51.31625100000001,0 -2.287912,51.3157,0 -2.288282,51.314186,0 -2.288042,51.312428,0 -2.286903,51.31135199999999,0 -2.286761,51.311094,0 -2.286725,51.30996,0 -2.28704,51.30868999999999,0 -2.286794,51.307752,0 -2.287031,51.30698,0 -2.287822,51.305788,0 -2.289032,51.304994,0 -2.290624,51.303025,0 -2.290514,51.30264,0 -2.28866,51.30020999999999,0 -2.288336,51.299632,0 -2.288173,51.299068,0 -2.288208,51.297628,0 -2.287415,51.295258,0 -2.286848,51.29391099999999,0 -2.286764,51.29335900000001,0 -2.286139,51.29202100000001,0 -2.28596,51.29105700000001,0 -2.285742,51.290528,0 -2.285744,51.28983,0 -2.285623,51.289145,0 -2.285766,51.288019,0 -2.284582,51.28745000000001,0 -2.283923,51.28685,0 -2.282922,51.286537,0 -2.282565,51.286254,0 -2.282303,51.28597200000001,0 -2.282119,51.28496,0 -2.282967,51.28319,0 -2.28472,51.282641,0 -2.286973,51.28143,0 -2.287639,51.28099099999999,0 -2.288835,51.27979400000001,0 -2.28954,51.278698,0 -2.285438,51.27769199999999,0 -2.284673,51.277319,0 -2.282819,51.276779,0 -2.281889,51.27644699999999,0 -2.280945,51.276011,0 -2.27893,51.27537599999999,0 -2.27702,51.274339,0 -2.275619,51.273383,0 -2.273974,51.272386,0 -2.272523,51.27119199999999,0 -2.271303,51.27170900000001,0 -2.26804,51.27267799999999,0 -2.267152,51.27282400000001,0 -2.26483,51.27282,0 -2.264069,51.272705,0 -2.262692,51.272328,0 -2.26042,51.271496,0 -2.259404,51.271519,0 -2.2572,51.27108800000001,0 -2.254283,51.270402,0 -2.251827,51.270295,0 -2.249801,51.26990700000001,0 -2.248573,51.26943899999999,0 -2.247725,51.26880800000001,0 -2.247569,51.26847000000001,0 -2.247749,51.267623,0 -2.247664,51.26713,0 -2.247304,51.266584,0 -2.24723,51.26598700000001,0 -2.246934,51.264982,0 -2.24656,51.264884,0 -2.245484,51.265021,0 -2.244861,51.265029,0 -2.243337,51.26467,0 -2.242007,51.265178,0 -2.241267,51.265604,0 -2.240985,51.265965,0 -2.2408,51.26645100000001,0 -2.238653,51.268039,0 -2.237535,51.268245,0 -2.236421,51.26830200000001,0 -2.234674,51.268678,0 -2.233442,51.267699,0 -2.230783,51.2661,0 -2.229688,51.265026,0 -2.22935,51.264883,0 -2.228586,51.26471,0 -2.225234,51.264585,0 -2.218082,51.260845,0 -2.217817,51.260622,0 -2.217528,51.260037,0 -2.217348,51.259888,0 -2.216707,51.259625,0 -2.216196,51.259512,0 -2.215237,51.259479,0 -2.214197,51.259669,0 -2.213561,51.259635,0 -2.213335,51.259465,0 -2.213288,51.259045,0 -2.212963,51.258576,0 -2.212486,51.258336,0 -2.211797,51.257832,0 -2.210686,51.257329,0 -2.209588,51.2557,0 -2.209204,51.254686,0 -2.209062,51.254486,0 -2.208515,51.25416799999999,0 -2.208344,51.253058,0 -2.2078,51.25133799999999,0 -2.207646,51.250588,0 -2.207567,51.249523,0 -2.207237,51.24895,0 -2.206577,51.248802,0 -2.206156,51.248104,0 -2.205891,51.24701200000001,0 -2.205682,51.246872,0 -2.204985,51.246689,0 -2.206674,51.24497599999999,0 -2.207286,51.243964,0 -2.207801,51.24372,0 -2.208376,51.24355299999999,0 -2.212863,51.242585,0 -2.214949,51.241724,0 -2.215881,51.24114200000001,0 -2.218427,51.23979,0 -2.219689,51.238812,0 -2.220225,51.23847700000001,0 -2.220943,51.238168,0 -2.223628,51.23744700000001,0 -2.224858,51.236756,0 -2.225416,51.236566,0 -2.226031,51.236439,0 -2.227835,51.23631,0 -2.228513,51.236158,0 -2.23184,51.235079,0 -2.233758,51.23470200000001,0 -2.235373,51.234173,0 -2.238933,51.232952,0 -2.241819,51.231489,0 -2.24322,51.230992,0 -2.244994,51.229754,0 -2.245475,51.22961099999999,0 -2.246993,51.22959000000001,0 -2.249406,51.228074,0 -2.251258,51.226753,0 -2.252862,51.225226,0 -2.25253,51.22472,0 -2.25163,51.223741,0 -2.250525,51.223215,0 -2.249173,51.222839,0 -2.249021,51.222658,0 -2.249153,51.222245,0 -2.24913,51.22192800000001,0 -2.247457,51.219757,0 -2.247484,51.219334,0 -2.248857,51.219281,0 -2.251103,51.218953,0 -2.252919,51.218616,0 -2.254063,51.218209,0 -2.25555,51.217873,0 -2.256664,51.21737599999999,0 -2.257732,51.216985,0 -2.258032,51.21680200000001,0 -2.258184,51.21639500000001,0 -2.257997,51.21594200000001,0 -2.258106,51.215582,0 -2.258511,51.215139,0 -2.259284,51.214782,0 -2.259559,51.214543,0 -2.259095,51.212951,0 -2.259029,51.212203,0 -2.258831,51.211586,0 -2.258038,51.21055,0 -2.258225,51.209828,0 -2.259354,51.209466,0 -2.25948,51.208998,0 -2.259363,51.208504,0 -2.259473,51.207757,0 -2.258003,51.20741200000001,0 -2.257565,51.207006,0 -2.257392,51.206674,0 -2.257417,51.206188,0 -2.257797,51.205534,0 -2.257897,51.204874,0 -2.257866,51.20443399999999,0 -2.257055,51.204285,0 -2.255951,51.204222,0 -2.254936,51.204005,0 -2.253018,51.203521,0 -2.25128,51.20293099999999,0 -2.250964,51.202724,0 -2.251897,51.20122000000001,0 -2.25202,51.20040099999999,0 -2.25248,51.199172,0 -2.252609,51.197852,0 -2.253008,51.19584700000001,0 -2.253129,51.19579,0 -2.253661,51.195749,0 -2.254421,51.195917,0 -2.255983,51.196033,0 -2.257129,51.196194,0 -2.258183,51.196219,0 -2.261219,51.196548,0 -2.263567,51.196534,0 -2.26424,51.19648400000001,0 -2.266563,51.196006,0 -2.267595,51.195653,0 -2.267923,51.19561299999999,0 -2.268868,51.195639,0 -2.27115,51.19530600000001,0 -2.27205,51.195315,0 -2.271476,51.194895,0 -2.27074,51.19403,0 -2.270519,51.193966,0 -2.27062,51.191912,0 -2.27048,51.19081700000001,0 -2.270317,51.190371,0 -2.269319,51.18881399999999,0 -2.26904,51.187691,0 -2.268337,51.186327,0 -2.268246,51.185925,0 -2.268529,51.185414,0 -2.272234,51.184934,0 -2.273888,51.184657,0 -2.269978,51.176017,0 -2.270177,51.175704,0 -2.270783,51.175265,0 -2.27184,51.17467,0 -2.272447,51.17415,0 -2.272593,51.17393000000001,0 -2.273165,51.171167,0 -2.273223,51.170541,0 -2.274306,51.16818600000001,0 -2.27441,51.167443,0 -2.274194,51.166511,0 -2.273729,51.16561,0 -2.272731,51.164578,0 -2.27244,51.164122,0 -2.272318,51.163773,0 -2.272393,51.163284,0 -2.273047,51.16252899999999,0 -2.273308,51.162299,0 -2.273856,51.161993,0 -2.275985,51.161052,0 -2.276927,51.160792,0 -2.278667,51.160488,0 -2.278926,51.16039499999999,0 -2.279032,51.16029,0 -2.278468,51.157834,0 -2.277859,51.157079,0 -2.277307,51.156167,0 -2.276868,51.15517799999999,0 -2.276459,51.154932,0 -2.280364,51.152075,0 -2.280791,51.151831,0 -2.283103,51.15108800000001,0 -2.283715,51.15069999999999,0 -2.284262,51.150466,0 -2.285782,51.150078,0 -2.287767,51.150012,0 -2.288545,51.15021200000001,0 -2.291282,51.151149,0 -2.293556,51.15184600000001,0 -2.295472,51.15276599999999,0 -2.29613,51.15302,0 -2.29692,51.153204,0 -2.29949,51.153216,0 -2.301305,51.153131,0 -2.302101,51.153002,0 -2.303254,51.15268099999999,0 -2.304259,51.152199,0 -2.305455,51.151842,0 -2.305812,51.151641,0 -2.306033,51.151317,0 -2.305895,51.149151,0 -2.305502,51.14805500000001,0 -2.304808,51.1471,0 -2.30405,51.14681600000001,0 -2.303839,51.14667600000001,0 -2.303899,51.146433,0 -2.304729,51.14530500000001,0 -2.305153,51.14495900000001,0 -2.307325,51.14447800000001,0 -2.309066,51.14396,0 -2.311075,51.143103,0 -2.311824,51.142717,0 -2.313568,51.142196,0 -2.315969,51.141077,0 -2.31736,51.140617,0 -2.318608,51.140304,0 -2.320499,51.139524,0 -2.321097,51.13905199999999,0 -2.321926,51.13809,0 -2.322173,51.137585,0 -2.322441,51.136594,0 -2.322999,51.13543200000001,0 -2.324095,51.133862,0 -2.325211,51.131515,0 -2.325289,51.13119900000001,0 -2.325132,51.130196,0 -2.32519,51.12932499999999,0 -2.32533,51.128793,0 -2.325899,51.12792,0 -2.326655,51.127088,0 -2.327716,51.12551500000001,0 -2.328526,51.124775,0 -2.325758,51.119395,0 -2.325368,51.118059,0 -2.323868,51.116173,0 -2.323294,51.11567,0 -2.321028,51.114157,0 -2.318802,51.113,0 -2.318005,51.112438,0 -2.316663,51.111042,0 -2.316536,51.110711,0 -2.316659,51.110427,0 -2.317256,51.10990499999999,0 -2.318323,51.108703,0 -2.318713,51.108053,0 -2.318782,51.10772200000001,0 -2.31867,51.10747,0 -2.318318,51.10725,0 -2.317465,51.10698499999999,0 -2.317225,51.106747,0 -2.317269,51.106447,0 -2.317548,51.10601799999999,0 -2.317581,51.105795,0 -2.316376,51.105494,0 -2.313699,51.105318,0 -2.314092,51.10351300000001,0 -2.314213,51.102361,0 -2.314522,51.101569,0 -2.315115,51.10059600000001,0 -2.315644,51.098572,0 -2.315793,51.097447,0 -2.31515,51.095309,0 -2.312822,51.088895,0 -2.312416,51.08802399999999,0 -2.311494,51.086785,0 -2.311176,51.086238,0 -2.309311,51.087079,0 -2.308542,51.087297,0 -2.307386,51.08747000000001,0 -2.307237,51.08656300000001,0 -2.307064,51.086221,0 -2.306504,51.085764,0 -2.304441,51.084754,0 -2.303939,51.084359,0 -2.303664,51.08374,0 -2.303705,51.083506,0 -2.30386,51.083289,0 -2.303885,51.082678,0 -2.302966,51.081934,0 -2.301711,51.080338,0 -2.301285,51.080166,0 -2.300599,51.08013200000001,0 -2.299898,51.079954,0 -2.298565,51.07930199999999,0 -2.297881,51.07924,0 -2.297166,51.079098,0 -2.29511,51.078336,0 -2.293254,51.078182,0 -2.292812,51.078076,0 -2.291263,51.077152,0 -2.29053,51.076924,0 -2.290115,51.076949,0 -2.280721,51.07968700000001,0 -2.280618,51.07913500000001,0 -2.280268,51.07836799999999,0 -2.280121,51.076078,0 -2.27207,51.07416000000001,0 -2.272166,51.073404,0 -2.272048,51.072748,0 -2.271843,51.072656,0 -2.269854,51.072678,0 -2.26895,51.072584,0 -2.268152,51.072892,0 -2.264445,51.073922,0 -2.263102,51.074433,0 -2.261582,51.07469600000001,0 -2.260542,51.07495,0 -2.259117,51.075456,0 -2.25852,51.075971,0 -2.257766,51.076431,0 -2.256228,51.07708199999999,0 -2.255231,51.077399,0 -2.254452,51.075935,0 -2.253877,51.074248,0 -2.253799,51.0733,0 -2.253523,51.07253599999999,0 -2.25305,51.07177999999999,0 -2.25204,51.070752,0 -2.2509,51.070046,0 -2.250547,51.06904500000001,0 -2.250088,51.06602600000001,0 -2.249306,51.064013,0 -2.249015,51.062971,0 -2.247803,51.060393,0 -2.247286,51.059899,0 -2.246914,51.059684,0 -2.24519,51.06019100000001,0 -2.23919,51.061499,0 -2.233774,51.062876,0 -2.232405,51.063113,0 -2.23212,51.06323,0 -2.231638,51.06369,0 -2.227956,51.066548,0 -2.227544,51.067025,0 -2.226776,51.067584,0 -2.225909,51.06837700000001,0 -2.225443,51.069259,0 -2.224479,51.07061,0 -2.224065,51.071626,0 -2.223489,51.07192400000001,0 -2.222187,51.072392,0 -2.221363,51.072961,0 -2.220638,51.07305199999999,0 -2.217058,51.075749,0 -2.211416,51.07486,0 -2.205967,51.073899,0 -2.204911,51.073865,0 -2.202699,51.073995,0 -2.200013,51.074017,0 -2.199277,51.074153,0 -2.198389,51.074191,0 -2.196304,51.07394300000001,0 -2.195105,51.0739,0 -2.194249,51.07396399999999,0 -2.190691,51.074711,0 -2.188957,51.07526200000001,0 -2.188289,51.075557,0 -2.187396,51.076246,0 -2.186928,51.076511,0 -2.185616,51.077194,0 -2.185168,51.077341,0 -2.183408,51.076518,0 -2.181382,51.075925,0 -2.179734,51.075324,0 -2.178942,51.074738,0 -2.178872,51.07456299999999,0 -2.179099,51.073262,0 -2.178369,51.072047,0 -2.178169,51.071967,0 -2.177158,51.072562,0 -2.175448,51.07333799999999,0 -2.174677,51.07319499999999,0 -2.174306,51.073258,0 -2.172866,51.073557,0 -2.172467,51.073738,0 -2.170556,51.074307,0 -2.170068,51.07368699999999,0 -2.169924,51.073121,0 -2.168532,51.07198,0 -2.168044,51.071961,0 -2.168047,51.071532,0 -2.167432,51.070922,0 -2.167193,51.070805,0 -2.166591,51.070699,0 -2.166133,51.070769,0 -2.164431,51.07133799999999,0 -2.163974,51.071387,0 -2.16338,51.071345,0 -2.15986,51.070837,0 -2.159216,51.070656,0 -2.15698,51.069488,0 -2.153321,51.06792899999999,0 -2.152849,51.06765,0 -2.152662,51.067354,0 -2.153312,51.065258,0 -2.15312,51.063172,0 -2.152527,51.060943,0 -2.152298,51.060709,0 -2.150339,51.05948,0 -2.149896,51.059112,0 -2.14875,51.057881,0 -2.148492,51.057513,0 -2.148089,51.05648800000001,0 -2.148087,51.055715,0 -2.1479,51.055329,0 -2.147743,51.055185,0 -2.146908,51.05484,0 -2.145953,51.053119,0 -2.14546,51.052656,0 -2.146392,51.05201199999999,0 -2.148941,51.05066900000001,0 -2.149881,51.050093,0 -2.151232,51.048958,0 -2.15163,51.048409,0 -2.151829,51.048256,0 -2.152371,51.04802100000001,0 -2.153267,51.047364,0 -2.154407,51.047083,0 -2.154549,51.046894,0 -2.154901,51.045473,0 -2.155027,51.044646,0 -2.155052,51.04363,0 -2.155787,51.041497,0 -2.156438,51.040111,0 -2.157077,51.039338,0 -2.157815,51.038212,0 -2.158747,51.037102,0 -2.158894,51.036745,0 -2.158808,51.036458,0 -2.158011,51.035511,0 -2.157618,51.03460700000001,0 -2.157259,51.034289,0 -2.156803,51.034024,0 -2.156402,51.033646,0 -2.155902,51.03350300000001,0 -2.154732,51.033352,0 -2.153741,51.033074,0 -2.153405,51.032904,0 -2.15279,51.032383,0 -2.152418,51.03219500000001,0 -2.151105,51.031174,0 -2.150457,51.030363,0 -2.149899,51.028952,0 -2.14984,51.028592,0 -2.149625,51.02829599999999,0 -2.149096,51.027973,0 -2.148724,51.027533,0 -2.148313,51.027245,0 -2.14702,51.026645,0 -2.146133,51.02609,0 -2.145311,51.02584599999999,0 -2.144626,51.025407,0 -2.144107,51.02495900000001,0 -2.143338,51.024042,0 -2.142449,51.022559,0 -2.141248,51.021508,0 -2.139757,51.02066800000001,0 -2.13907,51.020624,0 -2.138431,51.020494,0 -2.136772,51.019831,0 -2.13567,51.019188,0 -2.133814,51.018564,0 -2.133142,51.017908,0 -2.131412,51.01684,0 -2.13041,51.016312,0 -2.130162,51.015952,0 -2.130028,51.01530300000001,0 -2.12976,51.015248,0 -2.129178,51.015288,0 -2.127311,51.015193,0 -2.125602,51.015493,0 -2.124714,51.015362,0 -2.123969,51.015125,0 -2.123634,51.01489600000001,0 -2.12341,51.014544,0 -2.123239,51.01441800000001,0 -2.122534,51.01418699999999,0 -2.117226,51.013626,0 -2.116335,51.01343399999999,0 -2.11193,51.011699,0 -2.110324,51.01091,0 -2.109223,51.010557,0 -2.109148,51.010486,0 -2.108782,51.010511,0 -2.108454,51.010318,0 -2.10788,51.010148,0 -2.106585,51.009573,0 -2.102846,51.007564,0 -2.101919,51.007251,0 -2.100265,51.00599600000001,0 -2.099284,51.005534,0 -2.096504,51.004428,0 -2.095212,51.003804,0 -2.093845,51.003446,0 -2.092533,51.00341299999999,0 -2.09014,51.00314100000001,0 -2.088942,51.00287399999999,0 -2.085282,51.001715,0 -2.081986,51.000892,0 -2.081021,51.000991,0 -2.079628,51.001335,0 -2.078297,51.001452,0 -2.078038,51.001425,0 -2.077698,51.001265,0 -2.077537,51.000698,0 -2.076683,51.000124,0 -2.076512,51.00011599999999,0 -2.073943,51.000354,0 -2.072765,51.000274,0 -2.070678,51.000315,0 -2.06782,51.000143,0 -2.065141,51.000282,0 -2.061738,51.000936,0 -2.061096,51.000929,0 -2.060344,51.000796,0 -2.057804,51.00275,0 -2.056143,51.00391900000001,0 -2.055735,51.004129,0 -2.054193,51.00452300000001,0 -2.052199,51.005284,0 -2.051437,51.005459,0 -2.050197,51.005415,0 -2.048929,51.005694,0 -2.048102,51.005784,0 -2.045972,51.006165,0 -2.044932,51.00646500000001,0 -2.044155,51.006795,0 -2.041341,51.007633,0 -2.040154,51.007733,0 -2.038854,51.007968,0 -2.038213,51.008252,0 -2.03723,51.00915999999999,0 -2.035413,51.00979,0 -2.034715,51.01010999999999,0 -2.03416,51.010479,0 -2.03307,51.01105,0 -2.031872,51.011545,0 -2.03096,51.012013,0 -2.029545,51.013301,0 -2.027977,51.014477,0 -2.026626,51.01531599999999,0 -2.025443,51.01651,0 -2.024292,51.01737899999999,0 -2.024608,51.017803,0 -2.023142,51.018682,0 -2.022151,51.019013,0 -2.021367,51.019164,0 -2.019633,51.01924999999999,0 -2.018305,51.019074,0 -2.013486,51.019021,0 -2.012118,51.01912899999999,0 -2.010592,51.01916499999999,0 -2.008069,51.019656,0 -2.006449,51.019825,0 -2.005311,51.019908,0 -2.004556,51.019798,0 -2.004057,51.01978900000001,0 -2.002587,51.020026,0 -2.001379,51.020312,0 -1.998374,51.02088999999999,0 -1.996736,51.021081,0 -1.993555,51.021207,0 -1.990221,51.022081,0 -1.989717,51.022339,0 -1.98909,51.02252399999999,0 -1.984732,51.02311,0 -1.981255,51.022946,0 -1.980594,51.02293,0 -1.980195,51.022986,0 -1.9796,51.02322300000001,0 -1.979027,51.02365400000001,0 -1.978612,51.023867,0 -1.9768,51.024511,0 -1.976712,51.024735,0 -1.976986,51.025557,0 -1.976872,51.02565599999999,0 -1.976529,51.02576400000001,0 -1.974989,51.026033,0 -1.974433,51.026024,0 -1.973264,51.025826,0 -1.97285,51.025808,0 -1.971553,51.025924,0 -1.969899,51.026212,0 -1.96853,51.026364,0 -1.967275,51.02637299999999,0 -1.96555,51.02614799999999,0 -1.962427,51.026165,0 -1.961101,51.02627200000001,0 -1.959161,51.026586,0 -1.958234,51.02682,0 -1.957122,51.027224,0 -1.955995,51.02774700000001,0 -1.954896,51.02841,0 -1.95374,51.028913,0 -1.952257,51.029317,0 -1.949647,51.029919,0 -1.948078,51.030161,0 -1.946595,51.030484,0 -1.946296,51.02999,0 -1.945797,51.02945799999999,0 -1.944785,51.029584,0 -1.943929,51.02952,0 -1.943487,51.029547,0 -1.941633,51.03013,0 -1.939165,51.030471,0 -1.937904,51.03078799999999,0 -1.935571,51.030847,0 -1.932905,51.030576,0 -1.930966,51.030026,0 -1.929048,51.029864,0 -1.927388,51.029861,0 -1.925262,51.030184,0 -1.923522,51.03009600000001,0 -1.918731,51.029712,0 -1.917719,51.029803,0 -1.910036,51.031444,0 -1.909362,51.031545,0 -1.907247,51.03165,0 -1.904192,51.03193100000001,0 -1.903374,51.03208,0 -1.901442,51.032929,0 -1.899405,51.033649,0 -1.898145,51.034457,0 -1.896466,51.034987,0 -1.894538,51.035746,0 -1.890726,51.03712,0 -1.887265,51.038504,0 -1.8848,51.03909199999999,0 -1.883912,51.039231,0 -1.882457,51.03924700000001,0 -1.881335,51.038908,0 -1.880427,51.038852,0 -1.880231,51.039205,0 -1.88019,51.039603,0 -1.880632,51.041478,0 -1.880581,51.043434,0 -1.880736,51.04453699999999,0 -1.881617,51.047557,0 -1.882735,51.04931999999999,0 -1.882977,51.050627,0 -1.883536,51.05250399999999,0 -1.884926,51.055475,0 -1.885857,51.057209,0 -1.8859,51.05747899999999,0 -1.885757,51.057901,0 -1.870301,51.07169799999999,0 -1.868526,51.07359400000001,0 -1.868051,51.07495100000001,0 -1.867592,51.075625,0 -1.866991,51.07628100000001,0 -1.866259,51.077647,0 -1.864713,51.079219,0 -1.863768,51.07997300000001,0 -1.863171,51.079496,0 -1.862826,51.079361,0 -1.862558,51.079343,0 -1.861286,51.079502,0 -1.860782,51.079348,0 -1.860533,51.079337,0 -1.859761,51.079489,0 -1.857962,51.080277,0 -1.856223,51.082008,0 -1.855784,51.08184,0 -1.854239,51.081517,0 -1.853178,51.081408,0 -1.85036,51.08130199999999,0 -1.848045,51.08106599999999,0 -1.848428,51.078318,0 -1.8482,51.07820899999999,0 
				</coordinates>
			</LineString>
		</Placemark>
	</Folder>
</Document>
</kml>
