<?xml version="1.0" encoding="UTF-8" standalone="yes"?>
<gpx version="1.1" creator="OS Maps - Web" xmlns="http://www.topografix.com/GPX/1/1"
xmlns:xsi="http://www.w3.org/2001/XMLSchema-instance"
xsi:schemaLocation="http://www.topografix.com/GPX/1/1 http://www.topografix.com/GPX/1/1/gpx.xsd"
xmlns:gs="http://www.topografix.com/GPX/gpx_style/0/2"
xmlns:gh="https://graphhopper.com/public/schema/gpx/1.1"
xmlns:os="https://ordnancesurvey.co.uk/public/schema/route/0.1">
    <metadata>
        <name>Untitled map</name>
        <desc>Converted from a KML file KML2GPX.COM</desc>
        <bounds minlat="54.5127658" minlon="-3.5917363" maxlat="55.0165744" maxlon="-1.4181028"/>
    </metadata>
    <wpt lat="54.5472843" lon="-3.5917363">
        <name>1</name>
    </wpt>
    <wpt lat="54.5424612" lon="-3.5894229">
        <name>2</name>
    </wpt>
    <wpt lat="54.5401079" lon="-3.5821047">
        <name>3</name>
    </wpt>
    <wpt lat="54.5368015" lon="-3.5789241">
        <name>4</name>
    </wpt>
    <wpt lat="54.5350262" lon="-3.5789328">
        <name>5</name>
    </wpt>
    <wpt lat="54.5322085" lon="-3.5778967">
        <name>6</name>
    </wpt>
    <wpt lat="54.5319289" lon="-3.5786587">
        <name>7</name>
    </wpt>
    <wpt lat="54.5285308" lon="-3.5773298">
        <name>8</name>
    </wpt>
    <wpt lat="54.5230773" lon="-3.5733725">
        <name>9</name>
    </wpt>
    <wpt lat="54.5215599" lon="-3.5673655">
        <name>10</name>
    </wpt>
    <wpt lat="54.5127658" lon="-3.5540913">
        <name>11</name>
    </wpt>
    <wpt lat="54.5163124" lon="-3.5420986">
        <name>12</name>
    </wpt>
    <wpt lat="54.5168872" lon="-3.5274203">
        <name>13</name>
    </wpt>
    <wpt lat="54.5204625" lon="-3.5213584">
        <name>14</name>
    </wpt>
    <wpt lat="54.5246065" lon="-3.5188085">
        <name>15</name>
    </wpt>
    <wpt lat="54.5253517" lon="-3.5149345">
        <name>16</name>
    </wpt>
    <wpt lat="54.5241589" lon="-3.5024903">
        <name>17</name>
    </wpt>
    <wpt lat="54.5286613" lon="-3.4836095">
        <name>18</name>
    </wpt>
    <wpt lat="54.5327916" lon="-3.4747569">
        <name>19</name>
    </wpt>
    <wpt lat="54.5384109" lon="-3.4806155">
        <name>20</name>
    </wpt>
    <wpt lat="54.5410318" lon="-3.4807736">
        <name>21</name>
    </wpt>
    <wpt lat="54.5460999" lon="-3.4742322">
        <name>22</name>
    </wpt>
    <wpt lat="54.5511386" lon="-3.4700846">
        <name>23</name>
    </wpt>
    <wpt lat="54.5526379" lon="-3.4650360">
        <name>24</name>
    </wpt>
    <wpt lat="54.5514102" lon="-3.4550578">
        <name>25</name>
    </wpt>
    <wpt lat="54.5468874" lon="-3.4499882">
        <name>26</name>
    </wpt>
    <wpt lat="54.5491310" lon="-3.4465118">
        <name>27</name>
    </wpt>
    <wpt lat="54.5488808" lon="-3.4354485">
        <name>28</name>
    </wpt>
    <wpt lat="54.5481442" lon="-3.4331422">
        <name>29</name>
    </wpt>
    <wpt lat="54.5489024" lon="-3.4202977">
        <name>30</name>
    </wpt>
    <wpt lat="54.5509658" lon="-3.4129479">
        <name>31</name>
    </wpt>
    <wpt lat="54.5580179" lon="-3.4170578">
        <name>32</name>
    </wpt>
    <wpt lat="54.5659773" lon="-3.4165992">
        <name>33</name>
    </wpt>
    <wpt lat="54.5679350" lon="-3.4201861">
        <name>34</name>
    </wpt>
    <wpt lat="54.5720778" lon="-3.4175456">
        <name>35</name>
    </wpt>
    <wpt lat="54.5742007" lon="-3.4108511">
        <name>36</name>
    </wpt>
    <wpt lat="54.5757482" lon="-3.4110979">
        <name>37</name>
    </wpt>
    <wpt lat="54.5799096" lon="-3.4073859">
        <name>38</name>
    </wpt>
    <wpt lat="54.5875274" lon="-3.3931669">
        <name>39</name>
    </wpt>
    <wpt lat="54.5928710" lon="-3.3856880">
        <name>40</name>
    </wpt>
    <wpt lat="54.5923788" lon="-3.3736766">
        <name>41</name>
    </wpt>
    <wpt lat="54.5883492" lon="-3.3610170">
        <name>42</name>
    </wpt>
    <wpt lat="54.5816014" lon="-3.3470102">
        <name>43</name>
    </wpt>
    <wpt lat="54.5779101" lon="-3.3333897">
        <name>44</name>
    </wpt>
    <wpt lat="54.5857764" lon="-3.3228913">
        <name>45</name>
    </wpt>
    <wpt lat="54.5916655" lon="-3.3171728">
        <name>46</name>
    </wpt>
    <wpt lat="54.6038189" lon="-3.3187932">
        <name>47</name>
    </wpt>
    <wpt lat="54.6188646" lon="-3.3154467">
        <name>48</name>
    </wpt>
    <wpt lat="54.6167583" lon="-3.2728298">
        <name>49</name>
    </wpt>
    <wpt lat="54.6117765" lon="-3.2614868">
        <name>50</name>
    </wpt>
    <wpt lat="54.6083012" lon="-3.2477541">
        <name>51</name>
    </wpt>
    <wpt lat="54.6083059" lon="-3.2341291">
        <name>52</name>
    </wpt>
    <wpt lat="54.6061140" lon="-3.2287214">
        <name>53</name>
    </wpt>
    <wpt lat="54.6081414" lon="-3.2259956">
        <name>54</name>
    </wpt>
    <wpt lat="54.6093364" lon="-3.2300185">
        <name>55</name>
    </wpt>
    <wpt lat="54.6097893" lon="-3.2252322">
        <name>56</name>
    </wpt>
    <wpt lat="54.6128780" lon="-3.2197505">
        <name>57</name>
    </wpt>
    <wpt lat="54.6118742" lon="-3.2190237">
        <name>58</name>
    </wpt>
    <wpt lat="54.6105380" lon="-3.2200676">
        <name>59</name>
    </wpt>
    <wpt lat="54.6122845" lon="-3.2139647">
        <name>60</name>
    </wpt>
    <wpt lat="54.6136528" lon="-3.2119537">
        <name>61</name>
    </wpt>
    <wpt lat="54.6136264" lon="-3.2145854">
        <name>62</name>
    </wpt>
    <wpt lat="54.6161786" lon="-3.2110222">
        <name>63</name>
    </wpt>
    <wpt lat="54.6161890" lon="-3.2077317">
        <name>64</name>
    </wpt>
    <wpt lat="54.6196736" lon="-3.2052795">
        <name>65</name>
    </wpt>
    <wpt lat="54.6194148" lon="-3.2041878">
        <name>66</name>
    </wpt>
    <wpt lat="54.6177077" lon="-3.2041373">
        <name>67</name>
    </wpt>
    <wpt lat="54.6175868" lon="-3.2027400">
        <name>68</name>
    </wpt>
    <wpt lat="54.6052919" lon="-3.1904281">
        <name>69</name>
    </wpt>
    <wpt lat="54.6022147" lon="-3.1917211">
        <name>70</name>
    </wpt>
    <wpt lat="54.5946478" lon="-3.1774152">
        <name>71</name>
    </wpt>
    <wpt lat="54.5968402" lon="-3.1677375">
        <name>72</name>
    </wpt>
    <wpt lat="54.5938475" lon="-3.1625724">
        <name>73</name>
    </wpt>
    <wpt lat="54.5968338" lon="-3.1590694">
        <name>74</name>
    </wpt>
    <wpt lat="54.6017784" lon="-3.1589002">
        <name>75</name>
    </wpt>
    <wpt lat="54.6047261" lon="-3.1551417">
        <name>76</name>
    </wpt>
    <wpt lat="54.6015068" lon="-3.1344229">
        <name>77</name>
    </wpt>
    <wpt lat="54.6030240" lon="-3.1317667">
        <name>78</name>
    </wpt>
    <wpt lat="54.6026969" lon="-3.1296957">
        <name>79</name>
    </wpt>
    <wpt lat="54.6037635" lon="-3.1285642">
        <name>80</name>
    </wpt>
    <wpt lat="54.6037274" lon="-3.1203581">
        <name>81</name>
    </wpt>
    <wpt lat="54.6078129" lon="-3.1061102">
        <name>82</name>
    </wpt>
    <wpt lat="54.6122440" lon="-3.0981786">
        <name>83</name>
    </wpt>
    <wpt lat="54.6127773" lon="-3.0863860">
        <name>84</name>
    </wpt>
    <wpt lat="54.6113359" lon="-3.0767088">
        <name>85</name>
    </wpt>
    <wpt lat="54.6140570" lon="-3.0662896">
        <name>86</name>
    </wpt>
    <wpt lat="54.6138643" lon="-3.0626456">
        <name>87</name>
    </wpt>
    <wpt lat="54.6189297" lon="-3.0537953">
        <name>88</name>
    </wpt>
    <wpt lat="54.6199504" lon="-3.0475107">
        <name>89</name>
    </wpt>
    <wpt lat="54.6241303" lon="-3.0448302">
        <name>90</name>
    </wpt>
    <wpt lat="54.6315165" lon="-3.0246149">
        <name>91</name>
    </wpt>
    <wpt lat="54.6359542" lon="-3.0097703">
        <name>92</name>
    </wpt>
    <wpt lat="54.6389454" lon="-2.9958609">
        <name>93</name>
    </wpt>
    <wpt lat="54.6475239" lon="-2.9909178">
        <name>94</name>
    </wpt>
    <wpt lat="54.6538367" lon="-2.9894934">
        <name>95</name>
    </wpt>
    <wpt lat="54.6597433" lon="-2.9858284">
        <name>96</name>
    </wpt>
    <wpt lat="54.6598660" lon="-2.9845525">
        <name>97</name>
    </wpt>
    <wpt lat="54.6553269" lon="-2.9818463">
        <name>98</name>
    </wpt>
    <wpt lat="54.6412945" lon="-2.9805781">
        <name>99</name>
    </wpt>
    <wpt lat="54.6371940" lon="-2.9792012">
        <name>100</name>
    </wpt>
    <wpt lat="54.6363381" lon="-2.9682966">
        <name>101</name>
    </wpt>
    <wpt lat="54.6365905" lon="-2.9477739">
        <name>102</name>
    </wpt>
    <wpt lat="54.6432968" lon="-2.9231368">
        <name>103</name>
    </wpt>
    <wpt lat="54.6523667" lon="-2.9240788">
        <name>104</name>
    </wpt>
    <wpt lat="54.6517252" lon="-2.9079494">
        <name>105</name>
    </wpt>
    <wpt lat="54.6530292" lon="-2.8987950">
        <name>106</name>
    </wpt>
    <wpt lat="54.6701391" lon="-2.8694401">
        <name>107</name>
    </wpt>
    <wpt lat="54.6732075" lon="-2.8707850">
        <name>108</name>
    </wpt>
    <wpt lat="54.6829840" lon="-2.8577325">
        <name>109</name>
    </wpt>
    <wpt lat="54.6887522" lon="-2.8457928">
        <name>110</name>
    </wpt>
    <wpt lat="54.6919353" lon="-2.8436094">
        <name>111</name>
    </wpt>
    <wpt lat="54.6888668" lon="-2.8357505">
        <name>112</name>
    </wpt>
    <wpt lat="54.6890656" lon="-2.8297045">
        <name>113</name>
    </wpt>
    <wpt lat="54.6785518" lon="-2.8096386">
        <name>114</name>
    </wpt>
    <wpt lat="54.6757069" lon="-2.8083801">
        <name>115</name>
    </wpt>
    <wpt lat="54.6759391" lon="-2.8004757">
        <name>116</name>
    </wpt>
    <wpt lat="54.6734619" lon="-2.7945343">
        <name>117</name>
    </wpt>
    <wpt lat="54.6706714" lon="-2.7902622">
        <name>118</name>
    </wpt>
    <wpt lat="54.6745186" lon="-2.7805983">
        <name>119</name>
    </wpt>
    <wpt lat="54.6744709" lon="-2.7775347">
        <name>120</name>
    </wpt>
    <wpt lat="54.6695979" lon="-2.7594552">
        <name>121</name>
    </wpt>
    <wpt lat="54.6660335" lon="-2.7494739">
        <name>122</name>
    </wpt>
    <wpt lat="54.6713184" lon="-2.7428571">
        <name>123</name>
    </wpt>
    <wpt lat="54.6701827" lon="-2.7248965">
        <name>124</name>
    </wpt>
    <wpt lat="54.6812062" lon="-2.7149340">
        <name>125</name>
    </wpt>
    <wpt lat="54.6861861" lon="-2.6984164">
        <name>126</name>
    </wpt>
    <wpt lat="54.6933509" lon="-2.6896264">
        <name>127</name>
    </wpt>
    <wpt lat="54.6972588" lon="-2.6911589">
        <name>128</name>
    </wpt>
    <wpt lat="54.6976991" lon="-2.6888002">
        <name>129</name>
    </wpt>
    <wpt lat="54.6921561" lon="-2.6784362">
        <name>130</name>
    </wpt>
    <wpt lat="54.6951798" lon="-2.6692863">
        <name>131</name>
    </wpt>
    <wpt lat="54.6977082" lon="-2.6711511">
        <name>132</name>
    </wpt>
    <wpt lat="54.7082004" lon="-2.6751266">
        <name>133</name>
    </wpt>
    <wpt lat="54.7128462" lon="-2.6759798">
        <name>134</name>
    </wpt>
    <wpt lat="54.7187641" lon="-2.6743318">
        <name>135</name>
    </wpt>
    <wpt lat="54.7234408" lon="-2.6655209">
        <name>136</name>
    </wpt>
    <wpt lat="54.7348557" lon="-2.6527403">
        <name>137</name>
    </wpt>
    <wpt lat="54.7393224" lon="-2.6408527">
        <name>138</name>
    </wpt>
    <wpt lat="54.7569032" lon="-2.6385274">
        <name>139</name>
    </wpt>
    <wpt lat="54.7668720" lon="-2.6304165">
        <name>140</name>
    </wpt>
    <wpt lat="54.7693352" lon="-2.6326611">
        <name>141</name>
    </wpt>
    <wpt lat="54.7719862" lon="-2.6164189">
        <name>142</name>
    </wpt>
    <wpt lat="54.7771239" lon="-2.6089566">
        <name>143</name>
    </wpt>
    <wpt lat="54.7751206" lon="-2.6006871">
        <name>144</name>
    </wpt>
    <wpt lat="54.7768675" lon="-2.5880422">
        <name>145</name>
    </wpt>
    <wpt lat="54.7718546" lon="-2.5552089">
        <name>146</name>
    </wpt>
    <wpt lat="54.7700502" lon="-2.5501837">
        <name>147</name>
    </wpt>
    <wpt lat="54.7746240" lon="-2.5338323">
        <name>148</name>
    </wpt>
    <wpt lat="54.7754313" lon="-2.5011331">
        <name>149</name>
    </wpt>
    <wpt lat="54.7838613" lon="-2.4791421">
        <name>150</name>
    </wpt>
    <wpt lat="54.7881042" lon="-2.4566434">
        <name>151</name>
    </wpt>
    <wpt lat="54.7819203" lon="-2.4509159">
        <name>152</name>
    </wpt>
    <wpt lat="54.7779964" lon="-2.4377180">
        <name>153</name>
    </wpt>
    <wpt lat="54.7735850" lon="-2.4272941">
        <name>154</name>
    </wpt>
    <wpt lat="54.7696750" lon="-2.4145460">
        <name>155</name>
    </wpt>
    <wpt lat="54.7695009" lon="-2.4062284">
        <name>156</name>
    </wpt>
    <wpt lat="54.7705425" lon="-2.4029931">
        <name>157</name>
    </wpt>
    <wpt lat="54.7683828" lon="-2.3978627">
        <name>158</name>
    </wpt>
    <wpt lat="54.7690585" lon="-2.3973253">
        <name>159</name>
    </wpt>
    <wpt lat="54.7722590" lon="-2.4010484">
        <name>160</name>
    </wpt>
    <wpt lat="54.7758086" lon="-2.3654831">
        <name>161</name>
    </wpt>
    <wpt lat="54.7879885" lon="-2.3412169">
        <name>162</name>
    </wpt>
    <wpt lat="54.7894308" lon="-2.3396350">
        <name>163</name>
    </wpt>
    <wpt lat="54.7915825" lon="-2.3414414">
        <name>164</name>
    </wpt>
    <wpt lat="54.7946259" lon="-2.3210924">
        <name>165</name>
    </wpt>
    <wpt lat="54.7993724" lon="-2.3100858">
        <name>166</name>
    </wpt>
    <wpt lat="54.8020040" lon="-2.3089003">
        <name>167</name>
    </wpt>
    <wpt lat="54.8162560" lon="-2.2459462">
        <name>168</name>
    </wpt>
    <wpt lat="54.8157916" lon="-2.2422088">
        <name>169</name>
    </wpt>
    <wpt lat="54.8124177" lon="-2.2327362">
        <name>170</name>
    </wpt>
    <wpt lat="54.8102640" lon="-2.2311291">
        <name>171</name>
    </wpt>
    <wpt lat="54.8026242" lon="-2.2196521">
        <name>172</name>
    </wpt>
    <wpt lat="54.8021035" lon="-2.2091103">
        <name>173</name>
    </wpt>
    <wpt lat="54.8043943" lon="-2.2095499">
        <name>174</name>
    </wpt>
    <wpt lat="54.7990674" lon="-2.1975066">
        <name>175</name>
    </wpt>
    <wpt lat="54.8002332" lon="-2.1846793">
        <name>176</name>
    </wpt>
    <wpt lat="54.7918420" lon="-2.1609638">
        <name>177</name>
    </wpt>
    <wpt lat="54.7802769" lon="-2.1383018">
        <name>178</name>
    </wpt>
    <wpt lat="54.7819899" lon="-2.1197505">
        <name>179</name>
    </wpt>
    <wpt lat="54.7822198" lon="-2.1054625">
        <name>180</name>
    </wpt>
    <wpt lat="54.7811940" lon="-2.0963642">
        <name>181</name>
    </wpt>
    <wpt lat="54.7931670" lon="-2.0801265">
        <name>182</name>
    </wpt>
    <wpt lat="54.7999554" lon="-2.0746960">
        <name>183</name>
    </wpt>
    <wpt lat="54.7993534" lon="-2.0478375">
        <name>184</name>
    </wpt>
    <wpt lat="54.7898819" lon="-2.0101144">
        <name>185</name>
    </wpt>
    <wpt lat="54.7838390" lon="-2.0017941">
        <name>186</name>
    </wpt>
    <wpt lat="54.7840636" lon="-1.9965852">
        <name>187</name>
    </wpt>
    <wpt lat="54.7923984" lon="-1.9911803">
        <name>188</name>
    </wpt>
    <wpt lat="54.7967781" lon="-1.9806806">
        <name>189</name>
    </wpt>
    <wpt lat="54.8033426" lon="-1.9514237">
        <name>190</name>
    </wpt>
    <wpt lat="54.8020663" lon="-1.9159594">
        <name>191</name>
    </wpt>
    <wpt lat="54.8000816" lon="-1.9049977">
        <name>192</name>
    </wpt>
    <wpt lat="54.7958419" lon="-1.9020197">
        <name>193</name>
    </wpt>
    <wpt lat="54.8055604" lon="-1.9012514">
        <name>194</name>
    </wpt>
    <wpt lat="54.8141681" lon="-1.8947790">
        <name>195</name>
    </wpt>
    <wpt lat="54.8223198" lon="-1.8908281">
        <name>196</name>
    </wpt>
    <wpt lat="54.8247619" lon="-1.8836230">
        <name>197</name>
    </wpt>
    <wpt lat="54.8240307" lon="-1.8713683">
        <name>198</name>
    </wpt>
    <wpt lat="54.8274912" lon="-1.8583949">
        <name>199</name>
    </wpt>
    <wpt lat="54.8332464" lon="-1.8555768">
        <name>200</name>
    </wpt>
    <wpt lat="54.8391003" lon="-1.8476153">
        <name>201</name>
    </wpt>
    <wpt lat="54.8462204" lon="-1.8520231">
        <name>202</name>
    </wpt>
    <wpt lat="54.8492278" lon="-1.8494425">
        <name>203</name>
    </wpt>
    <wpt lat="54.8528202" lon="-1.8477160">
        <name>204</name>
    </wpt>
    <wpt lat="54.8616980" lon="-1.8453491">
        <name>205</name>
    </wpt>
    <wpt lat="54.8651112" lon="-1.8440896">
        <name>206</name>
    </wpt>
    <wpt lat="54.8686998" lon="-1.8395572">
        <name>207</name>
    </wpt>
    <wpt lat="54.8746762" lon="-1.8399230">
        <name>208</name>
    </wpt>
    <wpt lat="54.8798453" lon="-1.8414221">
        <name>209</name>
    </wpt>
    <wpt lat="54.8867807" lon="-1.8365235">
        <name>210</name>
    </wpt>
    <wpt lat="54.8925912" lon="-1.8306145">
        <name>211</name>
    </wpt>
    <wpt lat="54.8972835" lon="-1.8284508">
        <name>212</name>
    </wpt>
    <wpt lat="54.9002288" lon="-1.8147940">
        <name>213</name>
    </wpt>
    <wpt lat="54.8974821" lon="-1.7970703">
        <name>214</name>
    </wpt>
    <wpt lat="54.8998735" lon="-1.7772159">
        <name>215</name>
    </wpt>
    <wpt lat="54.9160237" lon="-1.7419887">
        <name>216</name>
    </wpt>
    <wpt lat="54.9196143" lon="-1.7401716">
        <name>217</name>
    </wpt>
    <wpt lat="54.9239736" lon="-1.7406115">
        <name>218</name>
    </wpt>
    <wpt lat="54.9272455" lon="-1.7368845">
        <name>219</name>
    </wpt>
    <wpt lat="54.9314030" lon="-1.7273771">
        <name>220</name>
    </wpt>
    <wpt lat="54.9344597" lon="-1.7177537">
        <name>221</name>
    </wpt>
    <wpt lat="54.9367913" lon="-1.7156694">
        <name>222</name>
    </wpt>
    <wpt lat="54.9360457" lon="-1.7138798">
        <name>223</name>
    </wpt>
    <wpt lat="54.9368503" lon="-1.7120792">
        <name>224</name>
    </wpt>
    <wpt lat="54.9415438" lon="-1.7112653">
        <name>225</name>
    </wpt>
    <wpt lat="54.9437366" lon="-1.7075422">
        <name>226</name>
    </wpt>
    <wpt lat="54.9460712" lon="-1.7067838">
        <name>227</name>
    </wpt>
    <wpt lat="54.9477831" lon="-1.6993947">
        <name>228</name>
    </wpt>
    <wpt lat="54.9514188" lon="-1.6978453">
        <name>229</name>
    </wpt>
    <wpt lat="54.9552032" lon="-1.6928984">
        <name>230</name>
    </wpt>
    <wpt lat="54.9563506" lon="-1.6847306">
        <name>231</name>
    </wpt>
    <wpt lat="54.9590742" lon="-1.6867785">
        <name>232</name>
    </wpt>
    <wpt lat="54.9620944" lon="-1.6818746">
        <name>233</name>
    </wpt>
    <wpt lat="54.9638749" lon="-1.6840472">
        <name>234</name>
    </wpt>
    <wpt lat="54.9662946" lon="-1.6902369">
        <name>235</name>
    </wpt>
    <wpt lat="54.9685550" lon="-1.6868612">
        <name>236</name>
    </wpt>
    <wpt lat="54.9644529" lon="-1.6568664">
        <name>237</name>
    </wpt>
    <wpt lat="54.9609559" lon="-1.6438558">
        <name>238</name>
    </wpt>
    <wpt lat="54.9604121" lon="-1.6272677">
        <name>239</name>
    </wpt>
    <wpt lat="54.9692557" lon="-1.6034041">
        <name>240</name>
    </wpt>
    <wpt lat="54.9711619" lon="-1.5955358">
        <name>241</name>
    </wpt>
    <wpt lat="54.9712957" lon="-1.5885440">
        <name>242</name>
    </wpt>
    <wpt lat="54.9681269" lon="-1.5815864">
        <name>243</name>
    </wpt>
    <wpt lat="54.9668148" lon="-1.5725018">
        <name>244</name>
    </wpt>
    <wpt lat="54.9641293" lon="-1.5627688">
        <name>245</name>
    </wpt>
    <wpt lat="54.9617053" lon="-1.5571728">
        <name>246</name>
    </wpt>
    <wpt lat="54.9617704" lon="-1.5504176">
        <name>247</name>
    </wpt>
    <wpt lat="54.9674828" lon="-1.5400060">
        <name>248</name>
    </wpt>
    <wpt lat="54.9775425" lon="-1.5387195">
        <name>249</name>
    </wpt>
    <wpt lat="54.9819011" lon="-1.5387868">
        <name>250</name>
    </wpt>
    <wpt lat="54.9888290" lon="-1.5288798">
        <name>251</name>
    </wpt>
    <wpt lat="54.9900516" lon="-1.5197234">
        <name>252</name>
    </wpt>
    <wpt lat="54.9923613" lon="-1.5129756">
        <name>253</name>
    </wpt>
    <wpt lat="54.9907456" lon="-1.5027789">
        <name>254</name>
    </wpt>
    <wpt lat="54.9920624" lon="-1.4946159">
        <name>255</name>
    </wpt>
    <wpt lat="54.9972894" lon="-1.4827293">
        <name>256</name>
    </wpt>
    <wpt lat="54.9951902" lon="-1.4797285">
        <name>257</name>
    </wpt>
    <wpt lat="54.9974609" lon="-1.4542997">
        <name>258</name>
    </wpt>
    <wpt lat="54.9969963" lon="-1.4508673">
        <name>259</name>
    </wpt>
    <wpt lat="54.9978818" lon="-1.4479636">
        <name>260</name>
    </wpt>
    <wpt lat="55.0012602" lon="-1.4506705">
        <name>261</name>
    </wpt>
    <wpt lat="55.0034540" lon="-1.4481217">
        <name>262</name>
    </wpt>
    <wpt lat="55.0032814" lon="-1.4455621">
        <name>263</name>
    </wpt>
    <wpt lat="55.0070159" lon="-1.4417974">
        <name>264</name>
    </wpt>
    <wpt lat="55.0108363" lon="-1.4323626">
        <name>265</name>
    </wpt>
    <wpt lat="55.0130282" lon="-1.4302988">
        <name>266</name>
    </wpt>
    <wpt lat="55.0145478" lon="-1.4181028">
        <name>267</name>
    </wpt>
    <wpt lat="55.0165744" lon="-1.4190900">
        <name>268</name>
    </wpt>
    <trk>
        <name>Untitled map</name>
        <trkseg>
            <trkpt lat="54.5472843" lon="-3.5917363"><ele>8.0</ele></trkpt>
            <trkpt lat="54.5424612" lon="-3.5894229"><ele>13.0</ele></trkpt>
            <trkpt lat="54.5401079" lon="-3.5821047"><ele>11.0</ele></trkpt>
            <trkpt lat="54.5368015" lon="-3.5789241"><ele>14.0</ele></trkpt>
            <trkpt lat="54.5350262" lon="-3.5789328"><ele>12.0</ele></trkpt>
            <trkpt lat="54.5322085" lon="-3.5778967"><ele>11.0</ele></trkpt>
            <trkpt lat="54.5319289" lon="-3.5786587"><ele>11.0</ele></trkpt>
            <trkpt lat="54.5285308" lon="-3.5773298"><ele>11.0</ele></trkpt>
            <trkpt lat="54.5230773" lon="-3.5733725"><ele>23.0</ele></trkpt>
            <trkpt lat="54.5215599" lon="-3.5673655"><ele>35.0</ele></trkpt>
            <trkpt lat="54.5127658" lon="-3.5540913"><ele>58.0</ele></trkpt>
            <trkpt lat="54.5163124" lon="-3.5420986"><ele>72.0</ele></trkpt>
            <trkpt lat="54.5168872" lon="-3.5274203"><ele>76.0</ele></trkpt>
            <trkpt lat="54.5204625" lon="-3.5213584"><ele>85.0</ele></trkpt>
            <trkpt lat="54.5246065" lon="-3.5188085"><ele>83.0</ele></trkpt>
            <trkpt lat="54.5253517" lon="-3.5149345"><ele>79.0</ele></trkpt>
            <trkpt lat="54.5241589" lon="-3.5024903"><ele>91.0</ele></trkpt>
            <trkpt lat="54.5286613" lon="-3.4836095"><ele>110.0</ele></trkpt>
            <trkpt lat="54.5327916" lon="-3.4747569"><ele>121.0</ele></trkpt>
            <trkpt lat="54.5384109" lon="-3.4806155"><ele>130.0</ele></trkpt>
            <trkpt lat="54.5410318" lon="-3.4807736"><ele>144.0</ele></trkpt>
            <trkpt lat="54.5460999" lon="-3.4742322"><ele>157.0</ele></trkpt>
            <trkpt lat="54.5511386" lon="-3.4700846"><ele>164.0</ele></trkpt>
            <trkpt lat="54.5526379" lon="-3.4650360"><ele>167.0</ele></trkpt>
            <trkpt lat="54.5514102" lon="-3.4550578"><ele>178.0</ele></trkpt>
            <trkpt lat="54.5468874" lon="-3.4499882"><ele>188.0</ele></trkpt>
            <trkpt lat="54.5491310" lon="-3.4465118"><ele>190.0</ele></trkpt>
            <trkpt lat="54.5488808" lon="-3.4354485"><ele>203.0</ele></trkpt>
            <trkpt lat="54.5481442" lon="-3.4331422"><ele>202.0</ele></trkpt>
            <trkpt lat="54.5489024" lon="-3.4202977"><ele>246.0</ele></trkpt>
            <trkpt lat="54.5509658" lon="-3.4129479"><ele>245.0</ele></trkpt>
            <trkpt lat="54.5580179" lon="-3.4170578"><ele>242.0</ele></trkpt>
            <trkpt lat="54.5659773" lon="-3.4165992"><ele>189.0</ele></trkpt>
            <trkpt lat="54.5679350" lon="-3.4201861"><ele>166.0</ele></trkpt>
            <trkpt lat="54.5720778" lon="-3.4175456"><ele>166.0</ele></trkpt>
            <trkpt lat="54.5742007" lon="-3.4108511"><ele>187.0</ele></trkpt>
            <trkpt lat="54.5757482" lon="-3.4110979"><ele>185.0</ele></trkpt>
            <trkpt lat="54.5799096" lon="-3.4073859"><ele>184.0</ele></trkpt>
            <trkpt lat="54.5875274" lon="-3.3931669"><ele>198.0</ele></trkpt>
            <trkpt lat="54.5928710" lon="-3.3856880"><ele>204.0</ele></trkpt>
            <trkpt lat="54.5923788" lon="-3.3736766"><ele>135.0</ele></trkpt>
            <trkpt lat="54.5883492" lon="-3.3610170"><ele>151.0</ele></trkpt>
            <trkpt lat="54.5816014" lon="-3.3470102"><ele>129.0</ele></trkpt>
            <trkpt lat="54.5779101" lon="-3.3333897"><ele>139.0</ele></trkpt>
            <trkpt lat="54.5857764" lon="-3.3228913"><ele>112.0</ele></trkpt>
            <trkpt lat="54.5916655" lon="-3.3171728"><ele>111.0</ele></trkpt>
            <trkpt lat="54.6038189" lon="-3.3187932"><ele>111.0</ele></trkpt>
            <trkpt lat="54.6188646" lon="-3.3154467"><ele>70.0</ele></trkpt>
            <trkpt lat="54.6167583" lon="-3.2728298"><ele>225.0</ele></trkpt>
            <trkpt lat="54.6117765" lon="-3.2614868"><ele>275.0</ele></trkpt>
            <trkpt lat="54.6083012" lon="-3.2477541"><ele>302.0</ele></trkpt>
            <trkpt lat="54.6083059" lon="-3.2341291"><ele>323.0</ele></trkpt>
            <trkpt lat="54.6061140" lon="-3.2287214"><ele>330.0</ele></trkpt>
            <trkpt lat="54.6081414" lon="-3.2259956"><ele>302.0</ele></trkpt>
            <trkpt lat="54.6093364" lon="-3.2300185"><ele>352.0</ele></trkpt>
            <trkpt lat="54.6097893" lon="-3.2252322"><ele>331.0</ele></trkpt>
            <trkpt lat="54.6128780" lon="-3.2197505"><ele>288.0</ele></trkpt>
            <trkpt lat="54.6118742" lon="-3.2190237"><ele>276.0</ele></trkpt>
            <trkpt lat="54.6105380" lon="-3.2200676"><ele>283.0</ele></trkpt>
            <trkpt lat="54.6122845" lon="-3.2139647"><ele>239.0</ele></trkpt>
            <trkpt lat="54.6136528" lon="-3.2119537"><ele>209.0</ele></trkpt>
            <trkpt lat="54.6136264" lon="-3.2145854"><ele>245.0</ele></trkpt>
            <trkpt lat="54.6161786" lon="-3.2110222"><ele>254.0</ele></trkpt>
            <trkpt lat="54.6161890" lon="-3.2077317"><ele>220.0</ele></trkpt>
            <trkpt lat="54.6196736" lon="-3.2052795"><ele>182.0</ele></trkpt>
            <trkpt lat="54.6194148" lon="-3.2041878"><ele>128.0</ele></trkpt>
            <trkpt lat="54.6177077" lon="-3.2041373"><ele>109.0</ele></trkpt>
            <trkpt lat="54.6175868" lon="-3.2027400"><ele>92.0</ele></trkpt>
            <trkpt lat="54.6052919" lon="-3.1904281"><ele>114.0</ele></trkpt>
            <trkpt lat="54.6022147" lon="-3.1917211"><ele>108.0</ele></trkpt>
            <trkpt lat="54.5946478" lon="-3.1774152"><ele>80.0</ele></trkpt>
            <trkpt lat="54.5968402" lon="-3.1677375"><ele>76.0</ele></trkpt>
            <trkpt lat="54.5938475" lon="-3.1625724"><ele>113.0</ele></trkpt>
            <trkpt lat="54.5968338" lon="-3.1590694"><ele>83.0</ele></trkpt>
            <trkpt lat="54.6017784" lon="-3.1589002"><ele>92.0</ele></trkpt>
            <trkpt lat="54.6047261" lon="-3.1551417"><ele>75.0</ele></trkpt>
            <trkpt lat="54.6015068" lon="-3.1344229"><ele>87.0</ele></trkpt>
            <trkpt lat="54.6030240" lon="-3.1317667"><ele>90.0</ele></trkpt>
            <trkpt lat="54.6026969" lon="-3.1296957"><ele>95.0</ele></trkpt>
            <trkpt lat="54.6037635" lon="-3.1285642"><ele>97.0</ele></trkpt>
            <trkpt lat="54.6037274" lon="-3.1203581"><ele>94.0</ele></trkpt>
            <trkpt lat="54.6078129" lon="-3.1061102"><ele>110.0</ele></trkpt>
            <trkpt lat="54.6122440" lon="-3.0981786"><ele>120.0</ele></trkpt>
            <trkpt lat="54.6127773" lon="-3.0863860"><ele>130.0</ele></trkpt>
            <trkpt lat="54.6113359" lon="-3.0767088"><ele>160.0</ele></trkpt>
            <trkpt lat="54.6140570" lon="-3.0662896"><ele>152.0</ele></trkpt>
            <trkpt lat="54.6138643" lon="-3.0626456"><ele>154.0</ele></trkpt>
            <trkpt lat="54.6189297" lon="-3.0537953"><ele>163.0</ele></trkpt>
            <trkpt lat="54.6199504" lon="-3.0475107"><ele>156.0</ele></trkpt>
            <trkpt lat="54.6241303" lon="-3.0448302"><ele>189.0</ele></trkpt>
            <trkpt lat="54.6315165" lon="-3.0246149"><ele>227.0</ele></trkpt>
            <trkpt lat="54.6359542" lon="-3.0097703"><ele>259.0</ele></trkpt>
            <trkpt lat="54.6389454" lon="-2.9958609"><ele>239.0</ele></trkpt>
            <trkpt lat="54.6475239" lon="-2.9909178"><ele>229.0</ele></trkpt>
            <trkpt lat="54.6538367" lon="-2.9894934"><ele>255.0</ele></trkpt>
            <trkpt lat="54.6597433" lon="-2.9858284"><ele>226.0</ele></trkpt>
            <trkpt lat="54.6598660" lon="-2.9845525"><ele>221.0</ele></trkpt>
            <trkpt lat="54.6553269" lon="-2.9818463"><ele>222.0</ele></trkpt>
            <trkpt lat="54.6412945" lon="-2.9805781"><ele>189.0</ele></trkpt>
            <trkpt lat="54.6371940" lon="-2.9792012"><ele>209.0</ele></trkpt>
            <trkpt lat="54.6363381" lon="-2.9682966"><ele>239.0</ele></trkpt>
            <trkpt lat="54.6365905" lon="-2.9477739"><ele>280.0</ele></trkpt>
            <trkpt lat="54.6432968" lon="-2.9231368"><ele>277.0</ele></trkpt>
            <trkpt lat="54.6523667" lon="-2.9240788"><ele>288.0</ele></trkpt>
            <trkpt lat="54.6517252" lon="-2.9079494"><ele>263.0</ele></trkpt>
            <trkpt lat="54.6530292" lon="-2.8987950"><ele>283.0</ele></trkpt>
            <trkpt lat="54.6701391" lon="-2.8694401"><ele>199.0</ele></trkpt>
            <trkpt lat="54.6732075" lon="-2.8707850"><ele>204.0</ele></trkpt>
            <trkpt lat="54.6829840" lon="-2.8577325"><ele>200.0</ele></trkpt>
            <trkpt lat="54.6887522" lon="-2.8457928"><ele>179.0</ele></trkpt>
            <trkpt lat="54.6919353" lon="-2.8436094"><ele>187.0</ele></trkpt>
            <trkpt lat="54.6888668" lon="-2.8357505"><ele>176.0</ele></trkpt>
            <trkpt lat="54.6890656" lon="-2.8297045"><ele>170.0</ele></trkpt>
            <trkpt lat="54.6785518" lon="-2.8096386"><ele>161.0</ele></trkpt>
            <trkpt lat="54.6757069" lon="-2.8083801"><ele>178.0</ele></trkpt>
            <trkpt lat="54.6759391" lon="-2.8004757"><ele>173.0</ele></trkpt>
            <trkpt lat="54.6734619" lon="-2.7945343"><ele>164.0</ele></trkpt>
            <trkpt lat="54.6706714" lon="-2.7902622"><ele>162.0</ele></trkpt>
            <trkpt lat="54.6745186" lon="-2.7805983"><ele>151.0</ele></trkpt>
            <trkpt lat="54.6744709" lon="-2.7775347"><ele>148.0</ele></trkpt>
            <trkpt lat="54.6695979" lon="-2.7594552"><ele>148.0</ele></trkpt>
            <trkpt lat="54.6660335" lon="-2.7494739"><ele>139.0</ele></trkpt>
            <trkpt lat="54.6713184" lon="-2.7428571"><ele>197.0</ele></trkpt>
            <trkpt lat="54.6701827" lon="-2.7248965"><ele>206.0</ele></trkpt>
            <trkpt lat="54.6812062" lon="-2.7149340"><ele>204.0</ele></trkpt>
            <trkpt lat="54.6861861" lon="-2.6984164"><ele>123.0</ele></trkpt>
            <trkpt lat="54.6933509" lon="-2.6896264"><ele>97.0</ele></trkpt>
            <trkpt lat="54.6972588" lon="-2.6911589"><ele>95.0</ele></trkpt>
            <trkpt lat="54.6976991" lon="-2.6888002"><ele>92.0</ele></trkpt>
            <trkpt lat="54.6921561" lon="-2.6784362"><ele>85.0</ele></trkpt>
            <trkpt lat="54.6951798" lon="-2.6692863"><ele>99.0</ele></trkpt>
            <trkpt lat="54.6977082" lon="-2.6711511"><ele>100.0</ele></trkpt>
            <trkpt lat="54.7082004" lon="-2.6751266"><ele>80.0</ele></trkpt>
            <trkpt lat="54.7128462" lon="-2.6759798"><ele>103.0</ele></trkpt>
            <trkpt lat="54.7187641" lon="-2.6743318"><ele>109.0</ele></trkpt>
            <trkpt lat="54.7234408" lon="-2.6655209"><ele>157.0</ele></trkpt>
            <trkpt lat="54.7348557" lon="-2.6527403"><ele>180.0</ele></trkpt>
            <trkpt lat="54.7393224" lon="-2.6408527"><ele>156.0</ele></trkpt>
            <trkpt lat="54.7569032" lon="-2.6385274"><ele>169.0</ele></trkpt>
            <trkpt lat="54.7668720" lon="-2.6304165"><ele>205.0</ele></trkpt>
            <trkpt lat="54.7693352" lon="-2.6326611"><ele>202.0</ele></trkpt>
            <trkpt lat="54.7719862" lon="-2.6164189"><ele>215.0</ele></trkpt>
            <trkpt lat="54.7771239" lon="-2.6089566"><ele>228.0</ele></trkpt>
            <trkpt lat="54.7751206" lon="-2.6006871"><ele>260.0</ele></trkpt>
            <trkpt lat="54.7768675" lon="-2.5880422"><ele>327.0</ele></trkpt>
            <trkpt lat="54.7718546" lon="-2.5552089"><ele>521.0</ele></trkpt>
            <trkpt lat="54.7700502" lon="-2.5501837"><ele>573.0</ele></trkpt>
            <trkpt lat="54.7746240" lon="-2.5338323"><ele>549.0</ele></trkpt>
            <trkpt lat="54.7754313" lon="-2.5011331"><ele>475.0</ele></trkpt>
            <trkpt lat="54.7838613" lon="-2.4791421"><ele>438.0</ele></trkpt>
            <trkpt lat="54.7881042" lon="-2.4566434"><ele>331.0</ele></trkpt>
            <trkpt lat="54.7819203" lon="-2.4509159"><ele>319.0</ele></trkpt>
            <trkpt lat="54.7779964" lon="-2.4377180"><ele>329.0</ele></trkpt>
            <trkpt lat="54.7735850" lon="-2.4272941"><ele>361.0</ele></trkpt>
            <trkpt lat="54.7696750" lon="-2.4145460"><ele>380.0</ele></trkpt>
            <trkpt lat="54.7695009" lon="-2.4062284"><ele>339.0</ele></trkpt>
            <trkpt lat="54.7705425" lon="-2.4029931"><ele>332.0</ele></trkpt>
            <trkpt lat="54.7683828" lon="-2.3978627"><ele>343.0</ele></trkpt>
            <trkpt lat="54.7690585" lon="-2.3973253"><ele>345.0</ele></trkpt>
            <trkpt lat="54.7722590" lon="-2.4010484"><ele>351.0</ele></trkpt>
            <trkpt lat="54.7758086" lon="-2.3654831"><ele>565.0</ele></trkpt>
            <trkpt lat="54.7879885" lon="-2.3412169"><ele>444.0</ele></trkpt>
            <trkpt lat="54.7894308" lon="-2.3396350"><ele>475.0</ele></trkpt>
            <trkpt lat="54.7915825" lon="-2.3414414"><ele>467.0</ele></trkpt>
            <trkpt lat="54.7946259" lon="-2.3210924"><ele>605.0</ele></trkpt>
            <trkpt lat="54.7993724" lon="-2.3100858"><ele>539.0</ele></trkpt>
            <trkpt lat="54.8020040" lon="-2.3089003"><ele>505.0</ele></trkpt>
            <trkpt lat="54.8162560" lon="-2.2459462"><ele>433.0</ele></trkpt>
            <trkpt lat="54.8157916" lon="-2.2422088"><ele>396.0</ele></trkpt>
            <trkpt lat="54.8124177" lon="-2.2327362"><ele>368.0</ele></trkpt>
            <trkpt lat="54.8102640" lon="-2.2311291"><ele>382.0</ele></trkpt>
            <trkpt lat="54.8026242" lon="-2.2196521"><ele>403.0</ele></trkpt>
            <trkpt lat="54.8021035" lon="-2.2091103"><ele>472.0</ele></trkpt>
            <trkpt lat="54.8043943" lon="-2.2095499"><ele>508.0</ele></trkpt>
            <trkpt lat="54.7990674" lon="-2.1975066"><ele>529.0</ele></trkpt>
            <trkpt lat="54.8002332" lon="-2.1846793"><ele>496.0</ele></trkpt>
            <trkpt lat="54.7918420" lon="-2.1609638"><ele>461.0</ele></trkpt>
            <trkpt lat="54.7802769" lon="-2.1383018"><ele>383.0</ele></trkpt>
            <trkpt lat="54.7819899" lon="-2.1197505"><ele>361.0</ele></trkpt>
            <trkpt lat="54.7822198" lon="-2.1054625"><ele>337.0</ele></trkpt>
            <trkpt lat="54.7811940" lon="-2.0963642"><ele>341.0</ele></trkpt>
            <trkpt lat="54.7931670" lon="-2.0801265"><ele>518.0</ele></trkpt>
            <trkpt lat="54.7999554" lon="-2.0746960"><ele>501.0</ele></trkpt>
            <trkpt lat="54.7993534" lon="-2.0478375"><ele>483.0</ele></trkpt>
            <trkpt lat="54.7898819" lon="-2.0101144"><ele>443.0</ele></trkpt>
            <trkpt lat="54.7838390" lon="-2.0017941"><ele>441.0</ele></trkpt>
            <trkpt lat="54.7840636" lon="-1.9965852"><ele>443.0</ele></trkpt>
            <trkpt lat="54.7923984" lon="-1.9911803"><ele>428.0</ele></trkpt>
            <trkpt lat="54.7967781" lon="-1.9806806"><ele>424.0</ele></trkpt>
            <trkpt lat="54.8033426" lon="-1.9514237"><ele>393.0</ele></trkpt>
            <trkpt lat="54.8020663" lon="-1.9159594"><ele>349.0</ele></trkpt>
            <trkpt lat="54.8000816" lon="-1.9049977"><ele>348.0</ele></trkpt>
            <trkpt lat="54.7958419" lon="-1.9020197"><ele>348.0</ele></trkpt>
            <trkpt lat="54.8055604" lon="-1.9012514"><ele>329.0</ele></trkpt>
            <trkpt lat="54.8141681" lon="-1.8947790"><ele>296.0</ele></trkpt>
            <trkpt lat="54.8223198" lon="-1.8908281"><ele>283.0</ele></trkpt>
            <trkpt lat="54.8247619" lon="-1.8836230"><ele>270.0</ele></trkpt>
            <trkpt lat="54.8240307" lon="-1.8713683"><ele>259.0</ele></trkpt>
            <trkpt lat="54.8274912" lon="-1.8583949"><ele>255.0</ele></trkpt>
            <trkpt lat="54.8332464" lon="-1.8555768"><ele>247.0</ele></trkpt>
            <trkpt lat="54.8391003" lon="-1.8476153"><ele>236.0</ele></trkpt>
            <trkpt lat="54.8462204" lon="-1.8520231"><ele>230.0</ele></trkpt>
            <trkpt lat="54.8492278" lon="-1.8494425"><ele>233.0</ele></trkpt>
            <trkpt lat="54.8528202" lon="-1.8477160"><ele>233.0</ele></trkpt>
            <trkpt lat="54.8616980" lon="-1.8453491"><ele>210.0</ele></trkpt>
            <trkpt lat="54.8651112" lon="-1.8440896"><ele>189.0</ele></trkpt>
            <trkpt lat="54.8686998" lon="-1.8395572"><ele>191.0</ele></trkpt>
            <trkpt lat="54.8746762" lon="-1.8399230"><ele>187.0</ele></trkpt>
            <trkpt lat="54.8798453" lon="-1.8414221"><ele>170.0</ele></trkpt>
            <trkpt lat="54.8867807" lon="-1.8365235"><ele>149.0</ele></trkpt>
            <trkpt lat="54.8925912" lon="-1.8306145"><ele>138.0</ele></trkpt>
            <trkpt lat="54.8972835" lon="-1.8284508"><ele>136.0</ele></trkpt>
            <trkpt lat="54.9002288" lon="-1.8147940"><ele>129.0</ele></trkpt>
            <trkpt lat="54.8974821" lon="-1.7970703"><ele>121.0</ele></trkpt>
            <trkpt lat="54.8998735" lon="-1.7772159"><ele>87.0</ele></trkpt>
            <trkpt lat="54.9160237" lon="-1.7419887"><ele>32.0</ele></trkpt>
            <trkpt lat="54.9196143" lon="-1.7401716"><ele>55.0</ele></trkpt>
            <trkpt lat="54.9239736" lon="-1.7406115"><ele>50.0</ele></trkpt>
            <trkpt lat="54.9272455" lon="-1.7368845"><ele>50.0</ele></trkpt>
            <trkpt lat="54.9314030" lon="-1.7273771"><ele>66.0</ele></trkpt>
            <trkpt lat="54.9344597" lon="-1.7177537"><ele>39.0</ele></trkpt>
            <trkpt lat="54.9367913" lon="-1.7156694"><ele>23.0</ele></trkpt>
            <trkpt lat="54.9360457" lon="-1.7138798"><ele>14.0</ele></trkpt>
            <trkpt lat="54.9368503" lon="-1.7120792"><ele>14.0</ele></trkpt>
            <trkpt lat="54.9415438" lon="-1.7112653"><ele>19.0</ele></trkpt>
            <trkpt lat="54.9437366" lon="-1.7075422"><ele>16.0</ele></trkpt>
            <trkpt lat="54.9460712" lon="-1.7067838"><ele>32.0</ele></trkpt>
            <trkpt lat="54.9477831" lon="-1.6993947"><ele>12.0</ele></trkpt>
            <trkpt lat="54.9514188" lon="-1.6978453"><ele>5.0</ele></trkpt>
            <trkpt lat="54.9552032" lon="-1.6928984"><ele>8.0</ele></trkpt>
            <trkpt lat="54.9563506" lon="-1.6847306"><ele>5.0</ele></trkpt>
            <trkpt lat="54.9590742" lon="-1.6867785"><ele>5.0</ele></trkpt>
            <trkpt lat="54.9620944" lon="-1.6818746"><ele>5.0</ele></trkpt>
            <trkpt lat="54.9638749" lon="-1.6840472"><ele>6.0</ele></trkpt>
            <trkpt lat="54.9662946" lon="-1.6902369"><ele>0.0</ele></trkpt>
            <trkpt lat="54.9685550" lon="-1.6868612"><ele>15.0</ele></trkpt>
            <trkpt lat="54.9644529" lon="-1.6568664"><ele>26.0</ele></trkpt>
            <trkpt lat="54.9609559" lon="-1.6438558"><ele>15.0</ele></trkpt>
            <trkpt lat="54.9604121" lon="-1.6272677"><ele>9.0</ele></trkpt>
            <trkpt lat="54.9692557" lon="-1.6034041"><ele>13.0</ele></trkpt>
            <trkpt lat="54.9711619" lon="-1.5955358"><ele>14.0</ele></trkpt>
            <trkpt lat="54.9712957" lon="-1.5885440"><ele>5.0</ele></trkpt>
            <trkpt lat="54.9681269" lon="-1.5815864"><ele>7.0</ele></trkpt>
            <trkpt lat="54.9668148" lon="-1.5725018"><ele>29.0</ele></trkpt>
            <trkpt lat="54.9641293" lon="-1.5627688"><ele>11.0</ele></trkpt>
            <trkpt lat="54.9617053" lon="-1.5571728"><ele>29.0</ele></trkpt>
            <trkpt lat="54.9617704" lon="-1.5504176"><ele>28.0</ele></trkpt>
            <trkpt lat="54.9674828" lon="-1.5400060"><ele>23.0</ele></trkpt>
            <trkpt lat="54.9775425" lon="-1.5387195"><ele>21.0</ele></trkpt>
            <trkpt lat="54.9819011" lon="-1.5387868"><ele>20.0</ele></trkpt>
            <trkpt lat="54.9888290" lon="-1.5288798"><ele>23.0</ele></trkpt>
            <trkpt lat="54.9900516" lon="-1.5197234"><ele>20.0</ele></trkpt>
            <trkpt lat="54.9923613" lon="-1.5129756"><ele>24.0</ele></trkpt>
            <trkpt lat="54.9907456" lon="-1.5027789"><ele>3.0</ele></trkpt>
            <trkpt lat="54.9920624" lon="-1.4946159"><ele>21.0</ele></trkpt>
            <trkpt lat="54.9972894" lon="-1.4827293"><ele>32.0</ele></trkpt>
            <trkpt lat="54.9951902" lon="-1.4797285"><ele>34.0</ele></trkpt>
            <trkpt lat="54.9974609" lon="-1.4542997"><ele>10.0</ele></trkpt>
            <trkpt lat="54.9969963" lon="-1.4508673"><ele>14.0</ele></trkpt>
            <trkpt lat="54.9978818" lon="-1.4479636"><ele>19.0</ele></trkpt>
            <trkpt lat="55.0012602" lon="-1.4506705"><ele>21.0</ele></trkpt>
            <trkpt lat="55.0034540" lon="-1.4481217"><ele>20.0</ele></trkpt>
            <trkpt lat="55.0032814" lon="-1.4455621"><ele>12.0</ele></trkpt>
            <trkpt lat="55.0070159" lon="-1.4417974"><ele>23.0</ele></trkpt>
            <trkpt lat="55.0108363" lon="-1.4323626"><ele>9.0</ele></trkpt>
            <trkpt lat="55.0130282" lon="-1.4302988"><ele>29.0</ele></trkpt>
            <trkpt lat="55.0145478" lon="-1.4181028"><ele>20.0</ele></trkpt>
            <trkpt lat="55.0165744" lon="-1.4190900"><ele>19.0</ele></trkpt>
        </trkseg>
    </trk>
</gpx>
